"","zip","Freq","city","state","latitude","longitude"
"1","02813",1,"Charlestown","RI",41.385256,-71.66813
"2","02818",1,"East Greenwich","RI",41.649733,-71.46815
"3","02879",1,"Wakefield","RI",41.423601,-71.52322
"4","02893",1,"West Warwick","RI",41.70375,-71.51857
"5","06105",1,"Hartford","CT",41.771166,-72.70255
"6","06351",1,"Jewett City","CT",41.604341,-71.97599
"7","06355",1,"Mystic","CT",41.360798,-71.97281
"8","06405",1,"Branford","CT",41.277763,-72.80542
"9","06441",1,"Higganum","CT",41.468654,-72.57956
"10","06460",1,"Milford","CT",41.21953,-73.0554
"11","06512",1,"East Haven","CT",41.276497,-72.87412
"12","06516",1,"West Haven","CT",41.272147,-72.96496
"13","06604",2,"Bridgeport","CT",41.178696,-73.20004
"14","06605",1,"Bridgeport","CT",41.163596,-73.21633
"15","06606",2,"Bridgeport","CT",41.209496,-73.20771
"16","06608",1,"Bridgeport","CT",41.188746,-73.1813
"17","06615",1,"Stratford","CT",41.175947,-73.13515
"18","06779",1,"Oakville","CT",41.592046,-73.08543
"19","06824",2,"Fairfield","CT",41.163879,-73.265744
"20","06831",1,"Greenwich","CT",41.061296,-73.65866
"21","06854",2,"Norwalk","CT",41.092196,-73.42869
"22","06870",2,"Old Greenwich","CT",41.033347,-73.56804
"23","06880",2,"Westport","CT",41.140896,-73.35178
"24","06897",1,"Wilton","CT",41.201446,-73.43758
"25","06902",1,"Stamford","CT",41.047996,-73.53688
"26","06903",1,"Stamford","CT",41.132096,-73.56423
"27","07001",1,"Avenel","NJ",40.578996,-74.27987
"28","07002",2,"Bayonne","NJ",40.666552,-74.11768
"29","07004",1,"Fairfield","NJ",40.879049,-74.29378
"30","07008",1,"Carteret","NJ",40.582504,-74.22997
"31","07011",1,"Clifton","NJ",40.879699,-74.14263
"32","07014",1,"Clifton","NJ",40.834049,-74.13669
"33","07022",1,"Fairview","NJ",40.816737,-74.00082
"34","07028",1,"Glen Ridge","NJ",40.80495,-74.2047
"35","07030",2,"Hoboken","NJ",40.744851,-74.03294
"36","07034",1,"Lake Hiawatha","NJ",40.881149,-74.38112
"37","07036",1,"Linden","NJ",40.633953,-74.25339
"38","07039",1,"Livingston","NJ",40.788733,-74.32134
"39","07047",1,"North Bergen","NJ",40.7946,-74.01963
"40","07050",1,"Orange","NJ",40.7683,-74.23603
"41","07052",1,"West Orange","NJ",40.78865,-74.25541
"42","07057",1,"Wallington","NJ",40.852931,-74.10925
"43","07059",1,"Warren","NJ",40.633652,-74.5008
"44","07060",2,"Plainfield","NJ",40.620102,-74.42481
"45","07065",1,"Rahway","NJ",40.607103,-74.28099
"46","07071",1,"Lyndhurst","NJ",40.808416,-74.12111
"47","07073",1,"East Rutherford","NJ",40.830158,-74.09707
"48","07074",2,"Moonachie","NJ",40.841668,-74.059
"49","07076",1,"Scotch Plains","NJ",40.637152,-74.37493
"50","07077",1,"Sewaren","NJ",40.553971,-74.25938
"51","07080",1,"South Plainfield","NJ",40.580703,-74.41401
"52","07081",1,"Springfield","NJ",40.701801,-74.32216
"53","07083",1,"Union","NJ",40.695401,-74.26933
"54","07086",1,"Union City","NJ",40.769796,-74.022351
"55","07087",1,"Union City","NJ",40.767751,-74.0302
"56","07088",1,"Vauxhall","NJ",40.718401,-74.28416
"57","07090",1,"Westfield","NJ",40.649202,-74.34567
"58","07103",1,"Newark","NJ",40.738501,-74.19507
"59","07105",1,"Newark","NJ",40.725801,-74.15206
"60","07106",1,"Newark","NJ",40.742251,-74.23006
"61","07107",1,"Newark","NJ",40.760667,-74.1879
"62","07111",1,"Irvington","NJ",40.725651,-74.23207
"63","07202",1,"Elizabeth","NJ",40.652302,-74.21692
"64","07203",1,"Roselle","NJ",40.653502,-74.26058
"65","07205",1,"Hillside","NJ",40.695552,-74.22856
"66","07208",1,"Elizabeth","NJ",40.673102,-74.22834
"67","07302",1,"Jersey City","NJ",40.721602,-74.04703
"68","07304",1,"Jersey City","NJ",40.716452,-74.07253
"69","07305",2,"Jersey City","NJ",40.701302,-74.08843
"70","07306",1,"Jersey City","NJ",40.733751,-74.06582
"71","07432",1,"Midland Park","NJ",40.99312,-74.14286
"72","07444",1,"Pompton Plains","NJ",40.964548,-74.29813
"73","07480",1,"West Milford","NJ",41.102569,-74.37047
"74","07508",1,"Haledon","NJ",40.945198,-74.18286
"75","07601",1,"Hackensack","NJ",40.888678,-74.0488
"76","07621",1,"Bergenfield","NJ",40.923748,-73.99879
"77","07643",2,"Little Ferry","NJ",40.850621,-74.04112
"78","07660",1,"Ridgefield Park","NJ",40.856749,-74.02278
"79","07666",1,"Teaneck","NJ",40.890964,-74.01115
"80","07712",1,"Asbury Park","NJ",40.232713,-74.03143
"81","07716",1,"Atlantic Highlands","NJ",40.407958,-74.03483
"82","07719",1,"Belmar","NJ",40.175357,-74.04694
"83","07720",1,"Bradley Beach","NJ",40.202113,-74.01353
"84","07722",1,"Colts Neck","NJ",40.300226,-74.18306
"85","07728",1,"Freehold","NJ",40.241036,-74.27629
"86","07730",1,"Hazlet","NJ",40.423298,-74.179
"87","07731",1,"Howell","NJ",40.146597,-74.20815
"88","07732",1,"Highlands","NJ",40.404474,-73.9904
"89","07734",1,"Keansburg","NJ",40.444407,-74.13298
"90","07735",2,"Keyport","NJ",40.439714,-74.19374
"91","07737",1,"Leonardo","NJ",40.416772,-74.06058
"92","07739",1,"Little Silver","NJ",40.33517,-74.04059
"93","07740",1,"Long Branch","NJ",40.297932,-73.99097
"94","07746",1,"Marlboro","NJ",40.316876,-74.26112
"95","07748",1,"Middletown","NJ",40.410213,-74.11718
"96","07750",1,"Monmouth Beach","NJ",40.332877,-73.97986
"97","07753",2,"Neptune","NJ",40.208945,-74.05261
"98","07757",2,"Oceanport","NJ",40.318115,-74.01239
"99","07758",1,"Port Monmouth","NJ",40.427561,-74.1069
"100","07760",2,"Rumson","NJ",40.369145,-73.99576
"101","07830",1,"Califon","NJ",40.723778,-74.81866
"102","07836",1,"Flanders","NJ",40.84405,-74.70134
"103","07901",1,"Summit","NJ",40.714501,-74.3633
"104","08005",1,"Barnegat","NJ",39.759581,-74.27398
"105","08008",7,"Beach Haven","NJ",39.614596,-74.2005
"106","08015",1,"Browns Mills","NJ",39.960596,-74.5606
"107","08046",1,"Willingboro","NJ",40.029011,-74.88257
"108","08050",1,"Manahawkin","NJ",39.707575,-74.25933
"109","08054",1,"Mount Laurel","NJ",39.949446,-74.90342
"110","08068",1,"Pemberton","NJ",39.961183,-74.66266
"111","08081",1,"Sicklerville","NJ",39.741385,-74.99035
"112","08087",7,"Tuckerton","NJ",39.59899,-74.36573
"113","08093",1,"Westville","NJ",39.861413,-75.13284
"114","08202",1,"Avalon","NJ",39.092928,-74.72688
"115","08203",2,"Brigantine","NJ",39.401801,-74.38017
"116","08205",1,"Absecon","NJ",39.471263,-74.502457
"117","08210",1,"Cape May Court House","NJ",39.081754,-74.83658
"118","08226",2,"Ocean City","NJ",39.265371,-74.59381
"119","08232",1,"Pleasantville","NJ",39.394616,-74.52212
"120","08234",2,"Egg Harbor Township","NJ",39.398172,-74.59667
"121","08243",1,"Sea Isle City","NJ",39.145755,-74.69865
"122","08244",1,"Somers Point","NJ",39.319901,-74.5999
"123","08247",1,"Stone Harbor","NJ",39.051289,-74.76204
"124","08251",2,"Villas","NJ",39.022256,-74.93616
"125","08260",7,"Wildwood","NJ",38.987556,-74.822
"126","08349",1,"Port Norris","NJ",39.25682,-75.06683
"127","08401",2,"Atlantic City","NJ",39.364966,-74.43903
"128","08402",1,"Margate City","NJ",39.329416,-74.50661
"129","08403",1,"Longport","NJ",39.314766,-74.52675
"130","08406",2,"Ventnor City","NJ",39.342299,-74.48192
"131","08520",1,"Hightstown","NJ",40.262809,-74.53246
"132","08527",1,"Jackson","NJ",40.11597,-74.32251
"133","08562",1,"Wrightstown","NJ",40.062215,-74.58893
"134","08618",1,"Trenton","NJ",40.238258,-74.7805
"135","08701",1,"Lakewood","NJ",40.082782,-74.2094
"136","08721",1,"Bayville","NJ",39.902851,-74.16037
"137","08723",1,"Brick","NJ",40.042479,-74.123
"138","08724",1,"Brick","NJ",40.087794,-74.10981
"139","08730",1,"Brielle","NJ",40.108433,-74.06226
"140","08731",1,"Forked River","NJ",39.848035,-74.21297
"141","08734",1,"Lanoka Harbor","NJ",39.862864,-74.16624
"142","08735",1,"Lavallette","NJ",39.982101,-74.06768
"143","08736",1,"Manasquan","NJ",40.120261,-74.05765
"144","08738",1,"Mantoloking","NJ",40.025258,-74.05579
"145","08739",1,"Normandy Beach","NJ",40.000759,-74.24928
"146","08740",1,"Ocean Gate","NJ",39.925301,-74.13488
"147","08742",6,"Point Pleasant Beach","NJ",40.081165,-74.06003
"148","08750",1,"Sea Girt","NJ",40.133754,-74.04123
"149","08751",2,"Seaside Heights","NJ",39.948518,-74.0759
"150","08752",1,"Seaside Park","NJ",39.920268,-74.07967
"151","08753",1,"Toms River","NJ",39.974584,-74.15141
"152","08758",1,"Waretown","NJ",39.784513,-74.22376
"153","08759",1,"Whiting","NJ",39.943541,-74.36949
"154","08816",1,"East Brunswick","NJ",40.434239,-74.40504
"155","08822",1,"Flemington","NJ",40.515645,-74.85319
"156","08830",1,"Iselin","NJ",40.571504,-74.3183
"157","08831",1,"Jamesburg","NJ",40.336508,-74.43302
"158","08848",1,"Milford","NJ",40.587606,-75.10402
"159","08854",1,"Piscataway","NJ",40.555355,-74.46094
"160","08872",1,"Sayreville","NJ",40.461605,-74.3474
"161","08873",1,"Somerset","NJ",40.505253,-74.50723
"162","08879",1,"South Amboy","NJ",40.469606,-74.27669
"163","08882",1,"South River","NJ",40.445006,-74.38179
"164","08902",1,"North Brunswick","NJ",40.453131,-74.48287
"165","08904",1,"Highland Park","NJ",40.500254,-74.4257
"166","10002",1,"New York","NY",40.71704,-73.987
"167","10004",1,"New York","NJ",40.699226,-74.04118
"168","10006",1,"New York","NY",40.707904,-74.01342
"169","10009",2,"New York","NY",40.727093,-73.97864
"170","10012",2,"New York","NY",40.72596,-73.99834
"171","10013",1,"New York","NY",40.720666,-74.00526
"172","10018",1,"New York","NY",40.755101,-73.99337
"173","10035",1,"New York","NY",40.802395,-73.93359
"174","10038",1,"New York","NY",40.709677,-74.00365
"175","10301",1,"Staten Island","NY",40.631775,-74.09432
"176","10302",1,"Staten Island","NY",40.631127,-74.13715
"177","10303",1,"Staten Island","NY",40.629448,-74.16239
"178","10304",1,"Staten Island","NY",40.60787,-74.08991
"179","10305",1,"Staten Island","NY",40.599021,-74.07503
"180","10306",1,"Staten Island","NY",40.569394,-74.11785
"181","10307",1,"Staten Island","NY",40.508274,-74.24387
"182","10308",1,"Staten Island","NY",40.551353,-74.15098
"183","10310",1,"Staten Island","NY",40.63212,-74.11551
"184","10312",1,"Staten Island","NY",40.543117,-74.17628
"185","10314",1,"Staten Island","NY",40.606337,-74.14513
"186","10452",1,"Bronx","NY",40.838745,-73.92234
"187","10453",1,"Bronx","NY",40.853017,-73.91214
"188","10457",1,"Bronx","NY",40.846745,-73.89861
"189","10462",1,"Bronx","NY",40.842173,-73.85862
"190","10463",1,"Bronx","NY",40.881086,-73.90749
"191","10465",1,"Bronx","NY",40.825727,-73.81752
"192","10466",1,"Bronx","NY",40.89095,-73.84702
"193","10467",1,"Bronx","NY",40.872265,-73.86937
"194","10468",1,"Bronx","NY",40.867107,-73.89916
"195","10469",1,"Bronx","NY",40.868643,-73.84735
"196","10472",1,"Bronx","NY",40.830409,-73.86845
"197","10473",1,"Bronx","NY",40.818514,-73.85893
"198","10475",1,"Bronx","NY",40.878522,-73.82541
"199","10504",1,"Armonk","NY",41.129908,-73.70352
"200","10514",1,"Chappaqua","NY",41.167455,-73.77597
"201","10528",1,"Harrison","NY",40.972667,-73.71886
"202","10530",1,"Hartsdale","NY",41.025114,-73.80635
"203","10543",1,"Mamaroneck","NY",40.952892,-73.7346
"204","10550",1,"Mount Vernon","NY",40.907607,-73.83709
"205","10580",1,"Rye","NY",40.976579,-73.69002
"206","10704",1,"Yonkers","NY",40.920273,-73.8612
"207","10801",1,"New Rochelle","NY",40.915845,-73.78643
"208","10913",1,"Blauvelt","NY",41.062779,-73.96016
"209","10928",1,"Highland Falls","NY",41.360336,-73.97293
"210","10941",1,"Middletown","NY",41.478028,-74.35844
"211","10950",1,"Monroe","NY",41.323547,-74.19531
"212","10956",1,"New City","NY",41.145495,-73.9949
"213","10960",1,"Nyack","NY",41.089746,-73.9258
"214","10964",1,"Palisades","NY",41.011464,-73.92585
"215","10965",1,"Pearl River","NY",41.063329,-74.01734
"216","10977",1,"Spring Valley","NY",41.116795,-74.04504
"217","10980",2,"Stony Point","NY",41.231408,-74.01157
"218","10986",1,"Tomkins Cove","NY",41.271543,-73.98676
"219","10990",1,"Warwick","NY",41.259896,-74.35837
"220","10993",1,"West Haverstraw","NY",41.207594,-73.97772
"221","11003",1,"Elmont","NY",40.700529,-73.70223
"222","11021",1,"Great Neck","NY",40.787068,-73.72577
"223","11024",1,"Great Neck","NY",40.812887,-73.74094
"224","11040",1,"New Hyde Park","NY",40.742901,-73.67895
"225","11096",1,"Inwood","NY",40.618206,-73.74762
"226","11203",1,"Brooklyn","NY",40.649059,-73.93304
"227","11210",1,"Brooklyn","NY",40.627946,-73.94552
"228","11213",1,"Brooklyn","NY",40.670937,-73.93459
"229","11214",1,"Brooklyn","NY",40.598994,-73.99611
"230","11217",1,"Brooklyn","NY",40.68209,-73.97783
"231","11220",1,"Brooklyn","NY",40.641436,-74.01574
"232","11223",1,"Brooklyn","NY",40.598142,-73.97229
"233","11224",1,"Brooklyn","NY",40.576589,-73.99172
"234","11229",1,"Brooklyn","NY",40.599256,-73.94118
"235","11231",1,"Brooklyn","NY",40.6788,-74.00254
"236","11233",1,"Brooklyn","NY",40.676938,-73.91858
"237","11234",1,"Brooklyn","NY",40.618561,-73.9216
"238","11235",2,"Brooklyn","NY",40.583803,-73.95019
"239","11236",2,"Brooklyn","NY",40.640527,-73.90362
"240","11362",1,"Little Neck","NY",40.759686,-73.73322
"241","11366",1,"Fresh Meadows","NY",40.726137,-73.79502
"242","11368",1,"Corona","NY",40.747106,-73.85838
"243","11379",1,"Middle Village","NY",40.716028,-73.87925
"244","11411",1,"Cambria Heights","NY",40.693538,-73.73574
"245","11412",1,"Saint Albans","NY",40.697188,-73.75948
"246","11413",1,"Springfield Gardens","NY",40.670138,-73.75141
"247","11414",1,"Howard Beach","NY",40.658188,-73.84321
"248","11417",1,"Ozone Park","NY",40.675534,-73.84476
"249","11420",2,"South Ozone Park","NY",40.673138,-73.81443
"250","11421",1,"Woodhaven","NY",40.69087,-73.85828
"251","11422",1,"Rosedale","NY",40.662538,-73.73514
"252","11423",1,"Hollis","NY",40.714261,-73.76824
"253","11429",1,"Queens Village","NY",40.708833,-73.73903
"254","11434",1,"Jamaica","NY",40.674888,-73.7727
"255","11436",2,"Jamaica","NY",40.674146,-73.79687
"256","11510",2,"Baldwin","NY",40.654112,-73.6095
"257","11516",1,"Cedarhurst","NY",40.627386,-73.72852
"258","11518",1,"East Rockaway","NY",40.639575,-73.66703
"259","11520",2,"Freeport","NY",40.653935,-73.587
"260","11552",1,"West Hempstead","NY",40.6949,-73.65394
"261","11553",1,"Uniondale","NY",40.703502,-73.59306
"262","11554",1,"East Meadow","NY",40.7143,-73.55527
"263","11558",1,"Island Park","NY",40.603159,-73.65515
"264","11559",2,"Lawrence","NY",40.61579,-73.73126
"265","11561",3,"Long Beach","NY",40.588154,-73.66517
"266","11569",1,"Point Lookout","NY",40.593996,-73.58039
"267","11570",1,"Rockville Centre","NY",40.663935,-73.63792
"268","11572",1,"Oceanside","NY",40.636286,-73.6374
"269","11576",1,"Roslyn","NY",40.793839,-73.65156
"270","11577",1,"Roslyn Heights","NY",40.785642,-73.64006
"271","11580",1,"Valley Stream","NY",40.673,-73.70346
"272","11581",1,"Valley Stream","NY",40.651733,-73.71079
"273","11590",1,"Westbury","NY",40.756287,-73.57536
"274","11598",1,"Woodmere","NY",40.633103,-73.71404
"275","11690",1,"Far Rockaway","NY",40.651378,-73.870779
"276","11691",4,"Far Rockaway","NY",40.60002,-73.75962
"277","11692",2,"Arverne","NY",40.592939,-73.79568
"278","11693",2,"Far Rockaway","NY",40.596959,-73.81978
"279","11694",4,"Rockaway Park","NY",40.57649,-73.84721
"280","11697",2,"Breezy Point","NY",40.560167,-73.90891
"281","11701",2,"Amityville","NY",40.6851,-73.41317
"282","11702",2,"Babylon","NY",40.687649,-73.32549
"283","11703",1,"North Babylon","NY",40.733398,-73.32257
"284","11704",1,"West Babylon","NY",40.719249,-73.35829
"285","11705",1,"Bayport","NY",40.74485,-73.055
"286","11706",1,"Bay Shore","NY",40.729098,-73.25607
"287","11709",1,"Bayville","NY",40.907277,-73.55713
"288","11710",1,"Bellmore","NY",40.673438,-73.53382
"289","11717",1,"Brentwood","NY",40.783954,-73.24517
"290","11718",1,"Brightwaters","NY",40.720746,-73.26614
"291","11719",1,"Brookhaven","NY",40.780058,-72.91566
"292","11720",1,"Centereach","NY",40.868946,-73.08009
"293","11726",1,"Copiague","NY",40.680892,-73.39609
"294","11729",2,"Deer Park","NY",40.760698,-73.33007
"295","11731",1,"East Northport","NY",40.865998,-73.31796
"296","11751",1,"Islip","NY",40.734212,-73.21416
"297","11756",1,"Levittown","NY",40.724883,-73.51739
"298","11757",1,"Lindenhurst","NY",40.690049,-73.37442
"299","11758",1,"Massapequa","NY",40.68085,-73.46289
"300","11762",1,"Massapequa Park","NY",40.68505,-73.44681
"301","11763",1,"Medford","NY",40.820786,-72.98375
"302","11767",1,"Nesconset","NY",40.842962,-73.14303
"303","11768",1,"Northport","NY",40.905647,-73.33114
"304","11769",1,"Oakdale","NY",40.736011,-73.1296
"305","11772",2,"Patchogue","NY",40.770898,-73.00213
"306","11779",2,"Ronkonkoma","NY",40.818826,-73.1187
"307","11783",1,"Seaford","NY",40.679752,-73.48959
"308","11786",1,"Shoreham","NY",40.94993,-72.89533
"309","11787",1,"Smithtown","NY",40.853343,-73.20777
"310","11789",1,"Sound Beach","NY",40.955586,-72.9733
"311","11790",1,"Stony Brook","NY",40.906174,-73.12748
"312","11793",1,"Wantagh","NY",40.676649,-73.51122
"313","11795",1,"West Islip","NY",40.713459,-73.3001
"314","11798",1,"Wyandanch","NY",40.752098,-73.36516
"315","11801",1,"Hicksville","NY",40.763355,-73.52323
"316","11901",2,"Riverhead","NY",40.926595,-72.65327
"317","11934",1,"Center Moriches","NY",40.797772,-72.79719
"318","11939",1,"East Marion","NY",41.128923,-72.34189
"319","11940",1,"East Moriches","NY",40.806287,-72.75673
"320","11941",1,"Eastport","NY",40.824658,-72.72356
"321","11946",1,"Hampton Bays","NY",40.875897,-72.52063
"322","11950",1,"Mastic","NY",40.80481,-72.84664
"323","11951",1,"Mastic Beach","NY",40.763634,-72.84554
"324","11952",1,"Mattituck","NY",40.994649,-72.53731
"325","11956",1,"New Suffolk","NY",40.991836,-72.47505
"326","11964",1,"Shelter Island","NY",41.060843,-72.33159
"327","11967",1,"Shirley","NY",40.794317,-72.87181
"328","11971",1,"Southold","NY",41.059209,-72.42041
"329","15425",1,"Connellsville","PA",40.024138,-79.58414
"330","15445",1,"Hopwood","PA",39.876251,-79.69296
"331","15456",1,"Lemont Furnace","PA",39.923495,-79.66014
"332","19149",1,"Philadelphia","PA",40.037711,-75.06658
"333","20715",1,"Bowie","MD",38.979413,-76.74382
"334","21042",1,"Ellicott City","MD",39.276305,-76.86082
"335","21043",1,"Ellicott City","MD",39.254356,-76.8006
"336","21163",1,"Woodstock","MD",39.336855,-76.84947
"337","21701",1,"Frederick","MD",39.423344,-77.38902
"338","21702",1,"Frederick","MD",39.451934,-77.442
"339","21703",1,"Frederick","MD",39.385165,-77.4539
"340","21817",2,"Crisfield","MD",37.985297,-75.84597
"341","21838",3,"Marion Station","MD",38.018482,-75.7389
"342","22560",1,"Tappahannock","VA",37.916172,-76.90656
"343","22572",1,"Warsaw","VA",37.957869,-76.75725
"344","23336",1,"Chincoteague Island","VA",37.934673,-75.3678
"345","23359",1,"Hallwood","VA",37.876357,-75.59686
"346","23405",1,"Machipongo","VA",37.425567,-75.93117
"347","24060",1,"Blacksburg","VA",37.232027,-80.42127
"348","24091",1,"Floyd","VA",36.910051,-80.30871
"349","24426",2,"Covington","VA",37.772399,-80.02705
"350","24522",1,"Appomattox","VA",37.374688,-78.80585
"351","24901",2,"Lewisburg","WV",37.80848,-80.44493
"352","24910",4,"Alderson","WV",37.731717,-80.65942
"353","24924",1,"Buckeye","WV",38.185341,-80.13261
"354","24925",1,"Caldwell","WV",37.741887,-80.37481
"355","24931",1,"Crawley","WV",37.901788,-80.59452
"356","24934",1,"Dunmore","WV",38.325205,-79.90179
"357","24935",1,"Forest Hill","WV",37.549702,-80.80017
"358","24938",1,"Frankford","WV",37.918994,-80.36331
"359","24945",1,"Greenville","WV",37.543667,-80.69604
"360","24954",1,"Marlinton","WV",38.196374,-80.05957
"361","24957",1,"Maxwelton","WV",37.869998,-80.41067
"362","24966",2,"Renick","WV",38.059474,-80.35569
"363","24970",2,"Ronceverte","WV",37.742719,-80.47151
"364","24977",1,"Smoot","WV",37.893306,-80.65773
"365","24981",1,"Talcott","WV",37.654267,-80.72899
"366","24986",3,"White Sulphur Springs","WV",37.861237,-80.24008
"367","24991",1,"Williamsburg","WV",38.001124,-80.48027
"368","25005",2,"Amma","WV",38.552755,-81.24219
"369","25015",1,"Belle","WV",38.224918,-81.5151
"370","25019",1,"Bickmore","WV",38.38338,-81.08555
"371","25026",1,"Blue Creek","WV",38.490789,-81.392845
"372","25030",1,"Bomont","WV",38.453331,-81.22481
"373","25043",1,"Clay","WV",38.46791,-81.0082
"374","25045",3,"Clendenin","WV",38.464079,-81.33836
"375","25059",1,"Dixie","WV",38.260339,-81.19697
"376","25063",1,"Duck","WV",38.583094,-80.94056
"377","25064",1,"Dunbar","WV",38.367255,-81.74473
"378","25071",2,"Elkview","WV",38.451344,-81.46602
"379","25079",1,"Falling Rock","WV",38.495072,-81.398422
"380","25085",1,"Gauley Bridge","WV",38.176834,-81.19688
"381","25111",1,"Indore","WV",38.391188,-81.16398
"382","25113",1,"Ivydale","WV",38.557141,-81.03747
"383","25125",1,"Lizemores","WV",38.323058,-81.19769
"384","25133",1,"Maysel","WV",38.485889,-81.13105
"385","25164",3,"Procious","WV",38.48444,-81.19156
"386","25177",1,"Saint Albans","WV",38.378841,-81.82633
"387","25243",1,"Gandeeville","WV",38.665227,-81.47783
"388","25248",1,"Kenna","WV",38.631892,-81.62048
"389","25251",1,"Left Hand","WV",38.618255,-81.22913
"390","25259",1,"Looneyville","WV",38.679327,-81.27334
"391","25266",1,"Newton","WV",38.585331,-81.17428
"392","25285",2,"Wallback","WV",38.566365,-81.12923
"393","25286",1,"Walton","WV",38.617139,-81.39537
"394","25302",1,"Charleston","WV",38.375397,-81.62367
"395","25309",1,"Charleston","WV",38.329768,-81.73418
"396","25311",1,"Charleston","WV",38.351204,-81.58198
"397","25314",1,"Charleston","WV",38.335969,-81.66084
"398","25320",2,"Charleston","WV",38.530623,-81.62565
"399","25387",1,"Charleston","WV",38.296818,-81.554655
"400","25501",1,"Alkol","WV",38.169041,-81.92567
"401","25510",1,"Culloden","WV",38.399499,-82.06562
"402","25812",1,"Ansted","WV",38.138419,-81.10403
"403","25831",1,"Danese","WV",37.950115,-80.92051
"404","25840",1,"Fayetteville","WV",38.059415,-81.11208
"405","25868",1,"Lookout","WV",38.073479,-80.9522
"406","25879",1,"Minden","WV",37.980561,-81.10208
"407","25938",1,"Victor","WV",38.151832,-81.05101
"408","25951",1,"Hinton","WV",37.671295,-80.86867
"409","25958",3,"Charmco","WV",38.012459,-80.72757
"410","25962",3,"Rainelle","WV",37.966816,-80.7889
"411","25972",1,"Leslie","WV",38.048182,-80.74821
"412","25979",1,"Pipestem","WV",37.49671,-80.91401
"413","25981",2,"Quinwood","WV",38.07743,-80.72476
"414","25984",1,"Rupert","WV",37.981358,-80.66798
"415","25985",1,"Sandstone","WV",37.772844,-80.86438
"416","26037",1,"Follansbee","WV",40.330969,-80.58889
"417","26202",1,"Fenwick","WV",38.224393,-80.61391
"418","26203",1,"Erbacon","WV",38.520078,-80.59518
"419","26205",1,"Craigsville","WV",38.330842,-80.64803
"420","26206",2,"Cowen","WV",38.424309,-80.53771
"421","26208",1,"Camden On Gauley","WV",38.364123,-80.5902
"422","26261",1,"Richwood","WV",38.224781,-80.5425
"423","26288",2,"Webster Springs","WV",38.484777,-80.38023
"424","26294",1,"Valley Head","WV",38.52061,-80.03629
"425","26298",1,"Bergoo","WV",38.480062,-80.29679
"426","26610",1,"Birch River","WV",38.465291,-80.72323
"427","26617",2,"Dille","WV",38.49119,-80.83069
"428","26651",1,"Summersville","WV",38.30696,-80.87329
"429","26656",1,"Belva","WV",38.244559,-81.16153
"430","26679",1,"Mount Nebo","WV",38.1755,-80.80897
"431","26680",3,"Nallen","WV",38.090457,-80.88462
"432","27513",1,"Cary","NC",35.797882,-78.79702
"433","27565",1,"Oxford","NC",36.340501,-78.61595
"434","27612",1,"Raleigh","NC",35.847788,-78.70161
"435","27701",1,"Durham","NC",35.997193,-78.89731
"436","27703",1,"Durham","NC",35.966431,-78.83969
"437","27704",1,"Durham","NC",36.034561,-78.86892
"438","27705",1,"Durham","NC",36.015992,-78.95911
"439","27707",1,"Durham","NC",35.963994,-78.93602
"440","27713",1,"Durham","NC",35.905765,-78.92113
"441","29001",2,"Alcolu","SC",33.76993,-80.17278
"442","29003",1,"Bamberg","SC",33.272026,-81.03203
"443","29006",2,"Batesburg","SC",33.872503,-81.55245
"444","29009",1,"Bethune","SC",34.422793,-80.36129
"445","29010",1,"Bishopville","SC",34.213582,-80.26083
"446","29015",1,"Blair","SC",34.428673,-81.35898
"447","29016",1,"Blythewood","SC",34.200042,-80.98653
"448","29018",1,"Bowman","SC",33.354403,-80.65134
"449","29020",2,"Camden","SC",34.278935,-80.59142
"450","29030",2,"Cameron","SC",33.572356,-80.67158
"451","29032",1,"Cassatt","SC",34.349725,-80.48117
"452","29033",1,"Cayce","SC",33.964753,-81.06618
"453","29036",2,"Chapin","SC",34.128998,-81.33822
"454","29038",1,"Cope","SC",33.372063,-80.98409
"455","29039",1,"Cordova","SC",33.425547,-80.90083
"456","29040",2,"Dalzell","SC",34.029407,-80.44405
"457","29042",1,"Denmark","SC",33.321406,-81.14318
"458","29044",1,"Eastover","SC",33.911025,-80.70157
"459","29045",2,"Elgin","SC",34.1699,-80.81448
"460","29046",1,"Elliott","SC",34.107967,-80.161
"461","29047",2,"Elloree","SC",33.52803,-80.58127
"462","29048",1,"Eutawville","SC",33.399511,-80.32069
"463","29051",2,"Gable","SC",33.845399,-80.13052
"464","29052",1,"Gadsden","SC",33.839441,-80.74802
"465","29053",1,"Gaston","SC",33.830405,-81.09219
"466","29054",1,"Gilbert","SC",33.947764,-81.3823
"467","29056",3,"Greeleyville","SC",33.634675,-79.99205
"468","29059",2,"Holly Hill","SC",33.332666,-80.42251
"469","29061",2,"Hopkins","SC",33.920721,-80.84535
"470","29062",1,"Horatio","SC",34.020978,-80.56786
"471","29063",2,"Irmo","SC",34.120487,-81.19686
"472","29067",1,"Kershaw","SC",34.545825,-80.54807
"473","29069",2,"Lamar","SC",34.183978,-80.07629
"474","29070",1,"Leesville","SC",33.931279,-81.465
"475","29072",1,"Lexington","SC",33.991362,-81.25047
"476","29073",1,"Lexington","SC",33.917812,-81.21854
"477","29075",3,"Little Mountain","SC",34.194914,-81.39016
"478","29078",2,"Lugoff","SC",34.204467,-80.70776
"479","29080",2,"Lynchburg","SC",34.007854,-80.0675
"480","29081",1,"Ehrhardt","SC",33.094711,-81.04345
"481","29101",1,"McBee","SC",34.461353,-80.2506
"482","29102",2,"Manning","SC",33.647611,-80.21281
"483","29104",3,"Mayesville","SC",34.000732,-80.2136
"484","29107",1,"Neeses","SC",33.532767,-81.12298
"485","29108",1,"Newberry","SC",34.282877,-81.61641
"486","29111",2,"New Zion","SC",33.795243,-80.04196
"487","29112",2,"North","SC",33.629017,-81.09763
"488","29114",2,"Olanta","SC",33.9413,-79.93219
"489","29115",1,"Orangeburg","SC",33.487767,-80.8564
"490","29116",1,"Orangeburg","SC",33.49593,-80.824603
"491","29118",1,"Orangeburg","SC",33.548282,-80.88513
"492","29123",1,"Pelion","SC",33.771358,-81.25987
"493","29125",2,"Pinewood","SC",33.71469,-80.4548
"494","29126",1,"Pomaria","SC",34.305501,-81.4218
"495","29127",1,"Prosperity","SC",34.14854,-81.511
"496","29128",3,"Rembert","SC",34.094472,-80.54447
"497","29130",2,"Ridgeway","SC",34.328826,-80.88762
"498","29133",1,"Rowesville","SC",33.37731,-80.81601
"499","29135",3,"Saint Matthews","SC",33.675533,-80.79563
"500","29142",1,"Santee","SC",33.462378,-80.50903
"501","29143",1,"Sardinia","SC",33.688373,-80.208109
"502","29145",1,"Silverstreet","SC",34.215881,-81.75318
"503","29146",1,"Springfield","SC",33.506999,-81.28947
"504","29148",1,"Summerton","SC",33.570595,-80.33969
"505","29150",1,"Sumter","SC",33.916418,-80.35738
"506","29151",1,"Sumter","SC",33.899856,-80.37434
"507","29153",2,"Sumter","SC",33.948928,-80.32025
"508","29154",1,"Sumter","SC",33.899155,-80.43433
"509","29160",2,"Swansea","SC",33.734171,-81.07563
"510","29161",2,"Timmonsville","SC",34.115691,-79.94482
"511","29162",1,"Turbeville","SC",33.88759,-80.01013
"512","29163",1,"Vance","SC",33.434712,-80.43046
"513","29168",1,"Wedgefield","SC",33.881986,-80.50487
"514","29169",1,"West Columbia","SC",33.990952,-81.08956
"515","29170",1,"West Columbia","SC",33.943251,-81.14142
"516","29172",1,"West Columbia","SC",33.902216,-81.08256
"517","29178",1,"Whitmire","SC",34.502577,-81.60777
"518","29180",2,"Winnsboro","SC",34.369441,-81.08218
"519","29201",1,"Columbia","SC",33.998454,-81.03519
"520","29203",1,"Columbia","SC",34.066271,-81.02492
"521","29204",1,"Columbia","SC",34.027955,-81.00008
"522","29205",1,"Columbia","SC",33.990555,-80.99826
"523","29206",1,"Columbia","SC",34.037557,-80.96024
"524","29209",1,"Columbia","SC",33.968011,-80.93844
"525","29210",2,"Columbia","SC",34.041646,-81.10624
"526","29212",2,"Columbia","SC",34.075611,-81.17611
"527","29223",1,"Columbia","SC",34.084069,-80.93286
"528","29229",1,"Columbia","SC",34.139511,-80.88783
"529","29250",1,"Columbia","SC",34.005992,-80.970766
"530","29301",1,"Spartanburg","SC",34.940921,-81.98682
"531","29302",1,"Spartanburg","SC",34.926075,-81.87919
"532","29303",1,"Spartanburg","SC",34.980636,-81.95665
"533","29306",1,"Spartanburg","SC",34.925353,-81.9308
"534","29316",1,"Spartanburg","SC",35.033903,-81.97413
"535","29323",1,"Chesnee","SC",35.131971,-81.88553
"536","29330",1,"Cowpens","SC",35.043505,-81.81026
"537","29334",1,"Duncan","SC",34.915071,-82.13322
"538","29335",1,"Enoree","SC",34.660137,-81.90924
"539","29365",1,"Lyman","SC",34.96589,-82.14541
"540","29374",1,"Pauline","SC",34.783908,-81.85468
"541","29388",1,"Woodruff","SC",34.758703,-82.0483
"542","29401",1,"Charleston","SC",32.779126,-79.9355
"543","29402",1,"Charleston","SC",32.84885,-79.85773
"544","29403",1,"Charleston","SC",32.799326,-79.94813
"545","29404",1,"Charleston AFB","SC",32.897903,-80.06061
"546","29405",2,"North Charleston","SC",32.856634,-79.98218
"547","29406",3,"Charleston","SC",32.918757,-80.0228
"548","29407",1,"Charleston","SC",32.794841,-80.005
"549","29410",1,"Charleston","SC",33.192514,-80.03063
"550","29412",1,"Charleston","SC",32.73727,-79.95409
"551","29413",1,"Charleston","SC",32.84885,-79.85773
"552","29414",1,"Charleston","SC",32.821238,-80.05353
"553","29418",4,"North Charleston","SC",32.879529,-80.05911
"554","29420",6,"North Charleston","SC",32.93064,-80.09247
"555","29423",3,"Charleston","SC",32.981952,-80.07363
"556","29426",1,"Adams Run","SC",32.790622,-80.38489
"557","29429",1,"Awendaw","SC",32.97251,-79.6607
"558","29431",2,"Bonneau","SC",33.284887,-79.91504
"559","29432",2,"Branchville","SC",33.229581,-80.80248
"560","29434",1,"Cordesville","SC",33.119898,-79.85797
"561","29435",1,"Cottageville","SC",32.976399,-80.47925
"562","29436",2,"Cross","SC",33.345833,-80.19009
"563","29437",1,"Dorchester","SC",33.144807,-80.41593
"564","29438",2,"Edisto Island","SC",32.542343,-80.31682
"565","29439",1,"Folly Beach","SC",32.662451,-79.93224
"566","29440",3,"Georgetown","SC",33.38934,-79.32638
"567","29442",1,"Georgetown","SC",33.403693,-79.226361
"568","29445",1,"Goose Creek","SC",32.991185,-80.02347
"569","29446",1,"Green Pond","SC",32.683083,-80.56074
"570","29448",1,"Harleyville","SC",33.237382,-80.45186
"571","29449",2,"Hollywood","SC",32.715745,-80.26738
"572","29450",1,"Huger","SC",33.046869,-79.8097
"573","29451",1,"Isle Of Palms","SC",32.798138,-79.76496
"574","29452",1,"Jacksonboro","SC",32.745396,-80.46458
"575","29453",1,"Jamestown","SC",33.235105,-79.61472
"576","29455",2,"Johns Island","SC",32.717109,-80.08507
"577","29456",3,"Ladson","SC",32.993571,-80.12165
"578","29457",1,"Johns Island","SC",32.84885,-79.85773
"579","29458",2,"McClellanville","SC",33.10594,-79.4657
"580","29461",1,"Moncks Corner","SC",33.164225,-80.01039
"581","29464",2,"Mount Pleasant","SC",32.813518,-79.85899
"582","29466",2,"Mount Pleasant","SC",32.87602,-79.79148
"583","29468",1,"Pineville","SC",33.418106,-80.07822
"584","29469",1,"Pinopolis","SC",33.252941,-80.08297
"585","29470",1,"Ravenel","SC",32.788784,-80.22778
"586","29471",1,"Reevesville","SC",33.198286,-80.65637
"587","29472",4,"Ridgeville","SC",33.03271,-80.31958
"588","29474",1,"Round O","SC",32.939642,-80.54405
"589","29475",2,"Ruffin","SC",32.977614,-80.81529
"590","29477",1,"Saint George","SC",33.187906,-80.57602
"591","29479",2,"Saint Stephen","SC",33.391941,-79.91737
"592","29481",2,"Smoaks","SC",33.105834,-80.81066
"593","29482",1,"Sullivans Island","SC",32.763456,-79.83791
"594","29483",2,"Summerville","SC",33.034586,-80.18599
"595","29485",3,"Summerville","SC",32.983408,-80.17627
"596","29486",1,NA,NA,NA,NA
"597","29487",2,"Wadmalaw Island","SC",32.651864,-80.17774
"598","29488",1,"Walterboro","SC",32.89989,-80.67195
"599","29492",2,"Charleston","SC",32.91583,-79.8846
"600","29501",3,"Florence","SC",34.195705,-79.80977
"601","29505",2,"Florence","SC",34.142119,-79.74311
"602","29506",3,"Florence","SC",34.201299,-79.71722
"603","29510",2,"Andrews","SC",33.45053,-79.59233
"604","29511",1,"Aynor","SC",33.985128,-79.14985
"605","29512",1,"Bennettsville","SC",34.657694,-79.69151
"606","29518",2,"Cades","SC",33.78144,-79.88688
"607","29526",1,"Conway","SC",33.850218,-79.01692
"608","29527",2,"Conway","SC",33.801049,-79.1148
"609","29528",1,"Conway","SC",33.935814,-78.919205
"610","29530",1,"Coward","SC",33.985431,-79.74037
"611","29532",1,"Darlington","SC",34.291269,-79.8761
"612","29540",1,"Darlington","SC",34.388055,-79.89135
"613","29541",2,"Effingham","SC",34.070033,-79.75793
"614","29544",1,"Galivants Ferry","SC",34.002167,-79.19325
"615","29545",1,"Green Sea","SC",34.164187,-78.96696
"616","29546",1,"Gresham","SC",33.939996,-79.36142
"617","29550",2,"Hartsville","SC",34.386728,-80.08256
"618","29551",1,"Hartsville","SC",34.365898,-80.132418
"619","29554",2,"Hemingway","SC",33.71239,-79.40387
"620","29555",2,"Johnsonville","SC",33.830612,-79.45494
"621","29556",3,"Kingstree","SC",33.671678,-79.78693
"622","29560",3,"Lake City","SC",33.859815,-79.7542
"623","29564",1,"Lane","SC",33.493553,-79.87402
"624","29565",1,"Latta","SC",34.340797,-79.45893
"625","29566",2,"Little River","SC",33.873017,-78.64282
"626","29568",1,"Longs","SC",33.915705,-78.74796
"627","29569",2,"Loris","SC",34.046247,-78.9008
"628","29571",1,"Marion","SC",34.164094,-79.396
"629","29572",1,"Myrtle Beach","SC",33.765136,-78.79097
"630","29574",2,"Mullins","SC",34.194685,-79.25775
"631","29575",2,"Myrtle Beach","SC",33.627763,-78.98126
"632","29576",2,"Murrells Inlet","SC",33.568115,-79.03226
"633","29577",1,"Myrtle Beach","SC",33.698101,-78.89604
"634","29579",1,"Myrtle Beach","SC",33.729439,-78.97824
"635","29580",1,"Nesmith","SC",33.653454,-79.56773
"636","29581",2,"Nichols","SC",34.19138,-79.11348
"637","29582",2,"North Myrtle Beach","SC",33.823495,-78.67824
"638","29583",1,"Pamplico","SC",33.983639,-79.57018
"639","29585",1,"Pawleys Island","SC",33.467343,-79.1301
"640","29588",1,"Myrtle Beach","SC",33.694757,-78.999862
"641","29590",1,"Salters","SC",33.575913,-79.85551
"642","29591",2,"Scranton","SC",33.927936,-79.76429
"643","29593",1,"Society Hill","SC",34.492154,-79.87045
"644","29605",1,"Greenville","SC",34.798035,-82.39289
"645","29609",1,"Greenville","SC",34.889217,-82.39364
"646","29617",1,"Greenville","SC",34.897829,-82.447
"647","29646",1,"Greenwood","SC",34.169781,-82.15474
"648","29649",1,"Greenwood","SC",34.225872,-82.15614
"649","29650",2,"Greer","SC",34.911469,-82.25178
"650","29651",1,"Greer","SC",34.937356,-82.22117
"651","29653",1,"Hodges","SC",34.286915,-82.23672
"652","29654",1,"Honea Path","SC",34.45451,-82.38755
"653","29662",1,"Mauldin","SC",34.774657,-82.30432
"654","29666",1,"Ninety Six","SC",34.14606,-82.00203
"655","29673",1,"Piedmont","SC",34.723173,-82.4565
"656","29680",1,"Simpsonville","SC",34.709869,-82.28385
"657","29681",1,"Simpsonville","SC",34.762693,-82.24512
"658","29692",1,"Ware Shoals","SC",34.404535,-82.23851
"659","29929",1,"Islandton","SC",32.934459,-80.91937
"660","29940",1,"Seabrook","SC",32.566537,-80.74987
"661","29945",1,"Yemassee","SC",32.681058,-80.83348
"662","32301",1,"Tallahassee","FL",30.431283,-84.26903
"663","32303",1,"Tallahassee","FL",30.486061,-84.31528
"664","32305",1,"Wakulla Springs","FL",30.130775,-84.406629
"665","32308",1,"Tallahassee","FL",30.531677,-84.16049
"666","32309",1,"Miccosukee Cpo","FL",30.514599,-84.188446
"667","32310",1,"Tallahassee","FL",30.400318,-84.34803
"668","32311",1,"Tallahassee","FL",30.403146,-84.18841
"669","32312",1,"Tallahassee","FL",30.554434,-84.25979
"670","32327",1,"Crawfordville","FL",30.194939,-84.35533
"671","32348",1,"Perry","FL",29.966454,-83.659371
"672","32359",1,"Steinhatchee","FL",29.673459,-83.38416
"673","32504",1,"Pensacola","FL",30.48787,-87.18937
"674","32505",1,"Pensacola","FL",30.441994,-87.25472
"675","32514",1,"Pensacola","FL",30.527195,-87.21485
"676","32533",1,"Cantonment","FL",30.600993,-87.31979
"677","32534",1,"Pensacola","FL",30.526345,-87.27734
"678","32535",2,"Century","FL",30.969066,-87.30604
"679","32566",1,"Gulf Breeze","FL",30.435069,-86.89025
"680","32625",1,"Cedar Key","FL",29.178171,-83.02243
"681","32626",1,"Chiefland","FL",29.453178,-82.86837
"682","32628",1,"Cross City","FL",29.630964,-83.1148
"683","32648",1,"Horseshoe Beach","FL",29.458513,-83.27604
"684","32680",1,"Old Town","FL",29.643244,-82.99026
"685","32692",1,"Suwannee","FL",29.330426,-83.14401
"686","33540",1,"Zephyrhills","FL",28.235313,-82.16868
"687","33542",1,"Zephyrhills","FL",28.238489,-82.181913
"688","33547",1,"Lithia","FL",27.788498,-82.1508
"689","33594",1,"Valrico","FL",27.911226,-82.24508
"690","33602",1,"Tampa","FL",27.956149,-82.45723
"691","33609",1,"Tampa","FL",27.943549,-82.50656
"692","33610",1,"Tampa","FL",27.993498,-82.40914
"693","33624",1,"Tampa","FL",28.07506,-82.52355
"694","33703",1,"Saint Petersburg","FL",27.816977,-82.62795
"695","33705",1,"Saint Petersburg","FL",27.741306,-82.64349
"696","33707",1,"Saint Petersburg","FL",27.756505,-82.71764
"697","33708",1,"Saint Petersburg","FL",27.811626,-82.79321
"698","33713",1,"Saint Petersburg","FL",27.787904,-82.68039
"699","33755",1,"Clearwater","FL",27.979114,-82.78166
"700","33756",1,"Clearwater","FL",27.944631,-82.78702
"701","33760",1,"Clearwater","FL",27.90802,-82.71365
"702","33767",1,"Clearwater Beach","FL",27.982722,-82.82504
"703","33770",1,"Largo","FL",27.916149,-82.80122
"704","33774",1,"Largo","FL",27.885283,-82.82607
"705","33777",1,"Largo","FL",27.851052,-82.76111
"706","33778",1,"Largo","FL",27.885344,-82.79594
"707","33903",1,"North Fort Myers","FL",26.698526,-81.9178
"708","33914",1,"Cape Coral","FL",26.579862,-82.00227
"709","33952",1,"Port Charlotte","FL",26.993876,-82.09821
"710","33993",1,"Cape Coral","FL",26.681122,-82.01319
"711","34232",1,"Sarasota","FL",27.321313,-82.47648
"712","34234",1,"Sarasota","FL",27.365622,-82.53556
"713","34237",1,"Sarasota","FL",27.336973,-82.51506
"714","34242",2,"Sarasota","FL",27.275225,-82.54934
"715","34275",1,"Nokomis","FL",27.136731,-82.45241
"716","34428",1,"Crystal River","FL",28.95138,-82.61213
"717","34429",1,"Crystal River","FL",28.872108,-82.5961
"718","34433",1,"Dunnellon","FL",28.997155,-82.50053
"719","34448",2,"Homosassa","FL",28.797979,-82.5912
"720","34449",1,"Inglis","FL",29.07664,-82.68022
"721","34453",1,"Inverness","FL",28.865761,-82.35982
"722","34487",1,"Homosassa","FL",28.859286,-82.508694
"723","34498",1,"Yankeetown","FL",29.031155,-82.7201
"724","34607",4,"Spring Hill","FL",28.516609,-82.61302
"725","34608",1,"Spring Hill","FL",28.484316,-82.55181
"726","34638",1,"Land O Lakes","FL",28.27,-82.52
"727","34652",1,"New Port Richey","FL",28.237582,-82.72818
"728","34653",1,"New Port Richey","FL",28.248558,-82.69869
"729","34654",1,"New Port Richey","FL",28.295714,-82.61782
"730","34667",1,"Hudson","FL",28.372441,-82.66603
"731","34668",1,"Port Richey","FL",28.30073,-82.69698
"732","34669",1,"Hudson","FL",28.348507,-82.61937
"733","34679",1,"Aripeka","FL",28.429478,-82.66315
"734","34681",1,"Crystal Beach","FL",28.088443,-82.77834
"735","34683",1,"Palm Harbor","FL",28.076744,-82.76116
"736","34689",1,"Tarpon Springs","FL",28.149691,-82.75339
"737","34690",1,"Holiday","FL",28.190181,-82.72696
"738","34691",1,"Holiday","FL",28.19006,-82.75735
"739","34695",1,"Safety Harbor","FL",28.005639,-82.69511
"740","34698",1,"Dunedin","FL",28.025395,-82.77534
"741","35016",2,"Arab","AL",34.323715,-86.49278
"742","35031",1,"Blountsville","AL",34.111425,-86.5338
"743","35053",1,"Crane Hill","AL",34.041061,-87.06771
"744","35057",1,"Cullman","AL",34.139198,-86.92449
"745","35077",1,"Hanceville","AL",34.043589,-86.80644
"746","35121",1,"Oneonta","AL",33.944897,-86.45813
"747","35148",1,"Sumiton","AL",33.753474,-87.04756
"748","35208",1,"Birmingham","AL",33.494545,-86.88115
"749","35221",1,"Birmingham","AL",33.450267,-86.8965
"750","35222",1,"Birmingham","AL",33.524254,-86.77335
"751","35405",1,"Tuscaloosa","AL",33.149246,-87.52303
"752","35442",1,"Aliceville","AL",33.095505,-88.18653
"753","35447",1,"Carrollton","AL",33.254197,-88.16866
"754","35603",1,"Decatur","AL",34.539072,-86.95732
"755","35622",1,"Falkville","AL",34.340484,-86.89176
"756","35640",1,"Hartselle","AL",34.442184,-86.94027
"757","35643",1,"Hillsboro","AL",34.648768,-87.20394
"758","35650",1,"Moulton","AL",34.496476,-87.27802
"759","35670",1,"Somerville","AL",34.481885,-86.7525
"760","35672",1,"Town Creek","AL",34.64248,-87.41166
"761","35747",1,"Grant","AL",34.500216,-86.27889
"762","35757",1,"Madison","AL",34.776638,-86.75164
"763","35806",1,"Huntsville","AL",34.748066,-86.68317
"764","35950",1,"Albertville","AL",34.261878,-86.22835
"765","35976",1,"Guntersville","AL",34.350835,-86.30475
"766","36003",1,"Autaugaville","AL",32.439967,-86.68801
"767","36010",1,"Brundidge","AL",31.678393,-85.82425
"768","36013",1,"Cecil","AL",32.295289,-85.99653
"769","36036",1,"Grady","AL",31.985456,-86.15741
"770","36075",1,"Shorter","AL",32.399994,-85.9237
"771","36083",1,"Tuskegee","AL",32.427987,-85.69542
"772","36092",1,"Wetumpka","AL",32.592889,-86.21902
"773","36104",1,"Montgomery","AL",32.377509,-86.31068
"774","36105",1,"Montgomery","AL",32.30234,-86.30504
"775","36108",1,"Montgomery","AL",32.353188,-86.36037
"776","36110",1,"Montgomery","AL",32.426372,-86.27007
"777","36116",1,"Montgomery","AL",32.31324,-86.23672
"778","36311",1,"Ariton","AL",31.589226,-85.69097
"779","36323",1,"Elba","AL",31.428389,-86.07271
"780","36340",1,"Geneva","AL",31.043454,-85.87941
"781","36346",1,"Jack","AL",31.567171,-85.93102
"782","36351",1,"New Brockton","AL",31.406536,-85.9175
"783","37023",1,"Big Rock","TN",36.574224,-87.79018
"784","37058",1,"Dover","TN",36.477136,-87.85877
"785","37207",1,"Nashville","TN",36.215535,-86.77317
"786","38450",1,"Collinwood","TN",35.187869,-87.77263
"787","38462",1,"Hohenwald","TN",35.535397,-87.54905
"788","38471",1,"Lutts","TN",35.083644,-87.91309
"789","38483",1,"Summertown","TN",35.43506,-87.33748
"790","38603",1,"Ashland","MS",34.839417,-89.15818
"791","38606",2,"Batesville","MS",34.309659,-89.963
"792","38611",1,"Byhalia","MS",34.862416,-89.68014
"793","38614",3,"Clarksdale","MS",34.196126,-90.59442
"794","38617",1,"Coahoma","MS",34.362729,-90.5035
"795","38619",1,"Como","MS",34.514853,-89.88781
"796","38623",1,"Darling","MS",34.360101,-90.2717
"797","38626",2,"Dundee","MS",34.48647,-90.45124
"798","38629",1,"Falkner","MS",34.879287,-88.99516
"799","38634",1,"Holly Springs","MS",34.74504,-89.484963
"800","38635",2,"Holly Springs","MS",34.762615,-89.46092
"801","38639",1,"Jonestown","MS",34.31465,-90.44966
"802","38642",1,"Lamar","MS",34.926974,-89.33214
"803","38643",2,"Lambert","MS",34.179708,-90.27846
"804","38645",2,"Lyon","MS",34.237759,-90.48669
"805","38646",2,"Marks","MS",34.261893,-90.27443
"806","38654",1,"Olive Branch","MS",34.954106,-89.83743
"807","38664",1,"Robinsonville","MS",34.818548,-90.29479
"808","38670",3,"Sledge","MS",34.417393,-90.27615
"809","38676",1,"Tunica","MS",34.687733,-90.36723
"810","38683",2,"Walnut","MS",34.937606,-88.85572
"811","38685",1,"Waterford","MS",34.549354,-89.61445
"812","38701",2,"Greenville","MS",33.380388,-91.05187
"813","38703",2,"Greenville","MS",33.442801,-91.02984
"814","38720",2,"Alligator","MS",34.127564,-90.73281
"815","38730",1,"Boyle","MS",33.701986,-90.76402
"816","38732",1,"Cleveland","MS",33.749149,-90.71329
"817","38746",1,"Gunnison","MS",34.036412,-90.87715
"818","38748",1,"Hollandale","MS",33.145438,-90.85634
"819","38756",1,"Leland","MS",33.407212,-90.87866
"820","38759",2,"Merigold","MS",33.822471,-90.72406
"821","38761",1,"Moorhead","MS",33.44504,-90.49719
"822","38762",1,"Mound Bayou","MS",33.887043,-90.73549
"823","38764",1,"Pace","MS",33.796844,-90.85561
"824","38769",1,"Rosedale","MS",33.850803,-90.9695
"825","38773",1,"Shaw","MS",33.613093,-90.77527
"826","38774",1,"Shelby","MS",33.947701,-90.76417
"827","38821",1,"Amory","MS",33.988235,-88.46783
"828","38860",1,"Okolona","MS",33.976464,-88.76008
"829","38928",1,"Glendora","MS",33.857538,-90.30001
"830","38957",1,"Sumner","MS",33.972212,-90.35668
"831","38963",1,"Tutwiler","MS",34.015686,-90.39034
"832","38966",1,"Webb","MS",33.934418,-90.34434
"833","39191",1,"Wesson","MS",31.714881,-90.39667
"834","39360",1,"Shubuta","MS",31.863493,-88.74923
"835","39367",1,"Waynesboro","MS",31.688901,-88.65623
"836","39401",1,"Hattiesburg","MS",31.285508,-89.2799
"837","39402",1,"Hattiesburg","MS",31.325437,-89.37926
"838","39423",1,"Beaumont","MS",31.176725,-88.91223
"839","39426",1,"Carriere","MS",30.641521,-89.65929
"840","39429",1,"Columbia","MS",31.255242,-89.79264
"841","39440",1,"Laurel","MS",31.701492,-89.1393
"842","39441",1,"Laurel","MS",31.727664,-89.075482
"843","39442",1,"Laurel","MS",31.682254,-89.040622
"844","39443",1,"Laurel","MS",31.719947,-89.11948
"845","39452",1,"Lucedale","MS",30.873353,-88.58869
"846","39456",3,"McLain","MS",31.072789,-88.80915
"847","39462",1,"New Augusta","MS",31.215709,-89.04494
"848","39464",1,"Ovett","MS",31.487531,-89.05842
"849","39465",2,"Petal","MS",31.358823,-89.2279
"850","39466",1,"Picayune","MS",30.52798,-89.66611
"851","39470",1,"Poplarville","MS",30.810936,-89.56435
"852","39476",1,"Richton","MS",31.355717,-88.85881
"853","39483",1,"Foxworth","MS",31.218509,-89.90761
"854","39503",1,"Gulfport","MS",30.461786,-89.10381
"855","39525",1,"Diamondhead","MS",30.382544,-89.36958
"856","39532",1,"Biloxi","MS",30.462388,-88.93293
"857","39553",1,"Gautier","MS",30.400599,-88.65092
"858","39563",1,"Moss Point","MS",30.410999,-88.52514
"859","39571",1,"Pass Christian","MS",30.371623,-89.27038
"860","39577",1,"Wiggins","MS",30.94336,-89.17912
"861","39667",1,"Tylertown","MS",31.131018,-90.12856
"862","39730",1,"Aberdeen","MS",33.833689,-88.55463
"863","39746",1,"Hamilton","MS",33.743856,-88.42703
"864","40447",1,"McKee","KY",37.457017,-84.03435
"865","42025",1,"Benton","KY",36.854812,-88.33515
"866","42134",1,"Franklin","KY",36.718074,-86.58202
"867","42220",1,"Elkton","KY",36.887716,-87.18526
"868","42240",1,"Hopkinsville","KY",36.866845,-87.47617
"869","46371",1,"Rolling Prairie","IN",41.677087,-86.60481
"870","46530",2,"Granger","IN",41.741872,-86.13717
"871","46537",1,"Lapaz","IN",41.458188,-86.3076
"872","46544",1,"Mishawaka","IN",41.650672,-86.16002
"873","46545",1,"Mishawaka","IN",41.681487,-86.16811
"874","46554",1,"North Liberty","IN",41.547845,-86.42047
"875","46601",1,"South Bend","IN",41.671197,-86.25253
"876","46613",1,"South Bend","IN",41.654547,-86.25043
"877","46614",1,"South Bend","IN",41.626588,-86.24804
"878","46615",1,"South Bend","IN",41.671848,-86.21105
"879","46616",1,"South Bend","IN",41.69248,-86.26514
"880","46617",1,"South Bend","IN",41.684504,-86.23576
"881","46619",1,"South Bend","IN",41.667797,-86.31341
"882","46635",1,"South Bend","IN",41.708505,-86.20906
"883","46637",1,"South Bend","IN",41.73104,-86.24391
"884","46901",1,"Kokomo","IN",40.501576,-86.14677
"885","46902",1,"Kokomo","IN",40.450623,-86.12127
"886","46947",1,"Logansport","IN",40.754787,-86.36684
"887","46979",1,"Russiaville","IN",40.427588,-86.26918
"888","49111",1,"Eau Claire","MI",42.022092,-86.29071
"889","49120",1,"Niles","MI",41.828055,-86.23981
"890","52101",1,"Decorah","IA",43.345879,-91.77187
"891","52161",1,"Ossian","IA",43.130438,-91.74913
"892","52168",1,"Spillville","IA",43.203977,-91.95204
"893","52175",2,"West Union","IA",42.983744,-91.81803
"894","54610",1,"Alma","WI",44.362741,-91.85287
"895","54612",1,"Arcadia","WI",44.253423,-91.48885
"896","54622",1,"Cochrane","WI",44.248179,-91.83124
"897","54629",1,"Fountain City","WI",44.13288,-91.67722
"898","54755",1,"Mondovi","WI",44.584633,-91.68767
"899","54770",1,"Strum","WI",44.545046,-91.38753
"900","60901",1,"Kankakee","IL",41.114132,-87.86784
"901","60938",1,"Gilman","IL",40.767194,-87.98929
"902","60963",1,"Rossville","IL",40.372447,-87.6603
"903","62540",1,"Kincaid","IL",39.58755,-89.41265
"904","62568",1,"Taylorville","IL",39.548928,-89.29692
"905","63010",1,"Arnold","MO",38.42727,-90.38515
"906","63011",2,"Ballwin","MO",38.601403,-90.55209
"907","63016",1,"Cedar Hill","MO",38.352825,-90.63595
"908","63017",1,"Chesterfield","MO",38.647023,-90.53918
"909","63019",1,"Crystal City","MO",38.226997,-90.38215
"910","63021",2,"Ballwin","MO",38.576253,-90.53117
"911","63025",4,"Eureka","MO",38.494203,-90.61304
"912","63026",2,"Fenton","MO",38.502854,-90.46088
"913","63028",1,"Festus","MO",38.187767,-90.4077
"914","63031",1,"Florissant","MO",38.8016,-90.33662
"915","63033",2,"Florissant","MO",38.79505,-90.28578
"916","63034",1,"Florissant","MO",38.832863,-90.29051
"917","63040",2,"Grover","MO",38.575835,-90.61878
"918","63042",1,"Hazelwood","MO",38.7785,-90.37005
"919","63043",1,"Maryland Heights","MO",38.725331,-90.44451
"920","63044",1,"Bridgeton","MO",38.757318,-90.42335
"921","63050",1,"Hillsboro","MO",38.259946,-90.5666
"922","63051",1,"House Springs","MO",38.405287,-90.57059
"923","63052",1,"Imperial","MO",38.385265,-90.40339
"924","63056",1,"Leslie","MO",38.404826,-91.22652
"925","63060",1,"Lonedell","MO",38.247062,-90.85642
"926","63069",3,"Pacific","MO",38.482353,-90.73892
"927","63070",1,"Pevely","MO",38.279016,-90.40862
"928","63072",1,"Robertsville","MO",38.369435,-90.81792
"929","63074",1,"Saint Ann","MO",38.727184,-90.38551
"930","63077",1,"Saint Clair","MO",38.336093,-90.98902
"931","63080",1,"Sullivan","MO",38.200244,-91.14089
"932","63084",1,"Union","MO",38.434806,-91.00353
"933","63088",1,"Valley Park","MO",38.553253,-90.49157
"934","63089",1,"Villa Ridge","MO",38.46292,-90.88421
"935","63090",1,"Washington","MO",38.535499,-91.02348
"936","63114",1,"Saint Louis","MO",38.702651,-90.36109
"937","63115",1,"Saint Louis","MO",38.676851,-90.24009
"938","63119",1,"Saint Louis","MO",38.590652,-90.35168
"939","63120",1,"Saint Louis","MO",38.691901,-90.25992
"940","63121",1,"Saint Louis","MO",38.706301,-90.29609
"941","63124",1,"Saint Louis","MO",38.645802,-90.37687
"942","63126",1,"Saint Louis","MO",38.552303,-90.37921
"943","63127",1,"Saint Louis","MO",38.53987,-90.40024
"944","63128",1,"Saint Louis","MO",38.500734,-90.37113
"945","63129",1,"Saint Louis","MO",38.469953,-90.32161
"946","63130",2,"Saint Louis","MO",38.663951,-90.32348
"947","63131",1,"Saint Louis","MO",38.618582,-90.43643
"948","63133",1,"Saint Louis","MO",38.679684,-90.30186
"949","63134",2,"Saint Louis","MO",38.738217,-90.33904
"950","63135",2,"Saint Louis","MO",38.74785,-90.30258
"951","63136",1,"Saint Louis","MO",38.73835,-90.26154
"952","63137",1,"Saint Louis","MO",38.748183,-90.21864
"953","63138",3,"Saint Louis","MO",38.787849,-90.21041
"954","63144",1,"Saint Louis","MO",38.619152,-90.34964
"955","63146",1,"Saint Louis","MO",38.688585,-90.44689
"956","63301",1,"Saint Charles","MO",38.808583,-90.50687
"957","63303",1,"Saint Charles","MO",38.762715,-90.53903
"958","63304",2,"Saint Charles","MO",38.72926,-90.65332
"959","63341",1,"Defiance","MO",38.68879,-90.78593
"960","63362",1,"Moscow Mills","MO",38.952724,-90.89199
"961","63366",1,"O Fallon","MO",38.786335,-90.72121
"962","63368",1,"O Fallon","MO",38.78,-90.7
"963","63369",1,"Old Monroe","MO",38.935776,-90.77801
"964","63373",1,"Portage Des Sioux","MO",38.935496,-90.3683
"965","63376",1,"Saint Peters","MO",38.778579,-90.62045
"966","63386",1,"West Alton","MO",38.876781,-90.23706
"967","63389",1,"Winfield","MO",39.00006,-90.77209
"968","63601",1,"Park Hills","MO",37.844197,-90.53
"969","63627",1,"Bloomsdale","MO",38.051824,-90.25527
"970","63628",1,"Bonne Terre","MO",37.929597,-90.5614
"971","63640",1,"Farmington","MO",37.779206,-90.41404
"972","63670",1,"Sainte Genevieve","MO",37.91259,-90.15155
"973","63701",1,"Cape Girardeau","MO",37.32564,-89.5659
"974","63740",1,"Chaffee","MO",37.182556,-89.68379
"975","63742",1,"Commerce","MO",37.157131,-89.44651
"976","63780",1,"Scott City","MO",37.21183,-89.52687
"977","64759",1,"Lamar","MO",37.507321,-94.2761
"978","64804",1,"Joplin","MO",37.047161,-94.51124
"979","64831",1,"Anderson","MO",36.658583,-94.44972
"980","64836",1,"Carthage","MO",37.168985,-94.31164
"981","64840",1,"Diamond","MO",37.002574,-94.32419
"982","64850",1,"Neosho","MO",36.86429,-94.39016
"983","64854",1,"Noel","MO",36.547736,-94.47579
"984","64856",1,"Pineville","MO",36.571849,-94.28956
"985","65020",1,"Camdenton","MO",38.032648,-92.78269
"986","65024",1,"Chamois","MO",38.633533,-91.78052
"987","65037",1,"Gravois Mills","MO",38.232201,-92.82494
"988","65041",1,"Hermann","MO",38.659798,-91.47293
"989","65049",1,"Lake Ozark","MO",38.192972,-92.67262
"990","65051",1,"Linn","MO",38.477953,-91.81695
"991","65061",1,"Morrison","MO",38.607257,-91.64049
"992","65072",1,"Rocky Mount","MO",38.248494,-92.71511
"993","65078",1,"Stover","MO",38.364491,-93.00645
"994","65084",1,"Versailles","MO",38.428609,-92.84968
"995","65101",1,"Jefferson City","MO",38.535897,-92.13905
"996","65109",1,"Jefferson City","MO",38.568287,-92.25329
"997","65401",1,"Rolla","MO",37.94384,-91.77105
"998","65441",1,"Bourbon","MO",38.126316,-91.20688
"999","65444",1,"Bucyrus","MO",37.365975,-92.07367
"1000","65457",1,"Devils Elbow","MO",37.829068,-92.05671
"1001","65459",3,"Dixon","MO",37.990962,-92.09833
"1002","65463",1,"Eldridge","MO",37.84762,-92.7831
"1003","65529",1,"Jerome","MO",37.926116,-91.98054
"1004","65534",1,"Laquey","MO",37.689335,-92.28363
"1005","65542",1,"Licking","MO",37.489718,-91.87351
"1006","65550",2,"Newburg","MO",37.862197,-91.93811
"1007","65556",1,"Richland","MO",37.828549,-92.40512
"1008","65583",1,"Waynesville","MO",37.820367,-92.19165
"1009","65604",1,"Ash Grove","MO",37.270684,-93.59815
"1010","65610",1,"Billings","MO",37.042293,-93.52526
"1011","65612",2,"Bois D Arc","MO",37.218244,-93.53629
"1012","65616",1,"Branson","MO",36.64417,-93.25668
"1013","65619",2,"Brookline Station","MO",37.134829,-93.38497
"1014","65622",1,"Buffalo","MO",37.630577,-93.10129
"1015","65625",1,"Cassville","MO",36.681589,-93.85105
"1016","65633",1,"Crane","MO",36.901929,-93.53989
"1017","65647",1,"Exeter","MO",36.690297,-93.98011
"1018","65648",1,"Fair Grove","MO",37.391275,-93.16252
"1019","65653",1,"Forsyth","MO",36.706492,-93.11171
"1020","65656",1,"Galena","MO",36.771898,-93.48394
"1021","65672",1,"Hollister","MO",36.600309,-93.23552
"1022","65673",1,"Hollister","MO",36.617892,-93.216187
"1023","65679",1,"Kirbyville","MO",36.603318,-93.11007
"1024","65705",1,"Marionville","MO",37.007586,-93.61839
"1025","65706",1,"Marshfield","MO",37.330958,-92.90929
"1026","65717",1,"Norwood","MO",37.093694,-92.41231
"1027","65723",1,"Pierce City","MO",36.956471,-94.02134
"1028","65724",1,"Pittsburg","MO",37.85245,-93.31817
"1029","65734",1,"Purdy","MO",36.795164,-93.94164
"1030","65737",1,"Reeds Spring","MO",36.693007,-93.37153
"1031","65738",1,"Republic","MO",37.124302,-93.47407
"1032","65742",1,"Rogersville","MO",37.122896,-93.0784
"1033","65746",1,"Seymour","MO",37.157055,-92.78857
"1034","65757",1,"Strafford","MO",37.281619,-93.10971
"1035","65767",1,"Urbana","MO",37.844753,-93.17456
"1036","65770",1,"Walnut Grove","MO",37.410221,-93.54065
"1037","65781",1,"Willard","MO",37.340995,-93.4179
"1038","65786",1,"Macks Creek","MO",37.968547,-92.9428
"1039","65793",1,"Willow Springs","MO",36.996755,-91.95796
"1040","65802",1,"Springfield","MO",37.212639,-93.31817
"1041","65803",1,"Springfield","MO",37.257053,-93.29015
"1042","65804",1,"Springfield","MO",37.161299,-93.2519
"1043","65806",1,"Springfield","MO",37.206624,-93.29923
"1044","65807",1,"Springfield","MO",37.168435,-93.31297
"1045","65809",1,"Springfield","MO",37.167282,-93.20199
"1046","65810",1,"Springfield","MO",37.120301,-93.31461
"1047","66713",1,"Baxter Springs","KS",37.026091,-94.74929
"1048","67013",1,"Belle Plaine","KS",37.390809,-97.29152
"1049","67037",1,"Derby","KS",37.557434,-97.25167
"1050","67045",1,"Eureka","KS",37.854192,-96.32433
"1051","67060",1,"Haysville","KS",37.552425,-97.34785
"1052","67110",2,"Mulvane","KS",37.474542,-97.22812
"1053","70051",1,"Garyville","LA",30.058276,-90.61738
"1054","70052",1,"Gramercy","LA",30.053907,-90.68915
"1055","70068",1,"La Place","LA",30.073941,-90.48516
"1056","70071",1,"Lutcher","LA",30.04401,-90.69956
"1057","70072",1,"Marrero","LA",29.869283,-90.10933
"1058","70086",1,"Saint James","LA",30.013027,-90.85714
"1059","70090",1,"Vacherie","LA",29.979997,-90.71178
"1060","70341",1,"Belle Rose","LA",30.030819,-91.07576
"1061","70346",3,"Donaldsonville","LA",30.103905,-91.00104
"1062","70360",1,"Houma","LA",29.593377,-90.7475
"1063","70390",1,"Napoleonville","LA",29.91599,-91.02187
"1064","70391",1,"Paincourtville","LA",29.990967,-91.05456
"1065","70393",1,"Plattenville","LA",29.995157,-91.02586
"1066","70401",2,"Hammond","LA",30.517866,-90.47254
"1067","70403",4,"Hammond","LA",30.484785,-90.4762
"1068","70420",1,"Abita Springs","LA",30.482725,-90.00103
"1069","70421",1,"Akers","LA",30.612371,-90.405312
"1070","70422",6,"Amite","LA",30.723034,-90.52108
"1071","70426",2,"Angie","LA",30.932125,-89.86251
"1072","70427",4,"Bogalusa","LA",30.762908,-89.87774
"1073","70431",1,"Bush","LA",30.613004,-89.93089
"1074","70433",2,"Covington","LA",30.470793,-90.10491
"1075","70435",2,"Covington","LA",30.53978,-90.07953
"1076","70436",1,"Fluker","LA",30.793858,-90.51026
"1077","70437",3,"Folsom","LA",30.616777,-90.1898
"1078","70438",3,"Franklinton","LA",30.844465,-90.12066
"1079","70441",2,"Greensburg","LA",30.867259,-90.74688
"1080","70443",6,"Independence","LA",30.628735,-90.51744
"1081","70444",3,"Kentwood","LA",30.923938,-90.50206
"1082","70446",2,"Loranger","LA",30.623502,-90.35689
"1083","70447",1,"Madisonville","LA",30.424049,-90.18519
"1084","70448",2,"Mandeville","LA",30.367119,-90.05999
"1085","70449",2,"Maurepas","LA",30.272335,-90.72701
"1086","70450",3,"Mount Hermon","LA",30.944302,-90.26252
"1087","70451",3,"Natalbany","LA",30.546528,-90.48375
"1088","70452",1,"Pearl River","LA",30.401481,-89.76917
"1089","70453",1,"Pine Grove","LA",30.702471,-90.77604
"1090","70454",2,"Ponchatoula","LA",30.427599,-90.41728
"1091","70455",2,"Robert","LA",30.520782,-90.30638
"1092","70456",2,"Roseland","LA",30.769493,-90.51064
"1093","70457",1,"Saint Benedict","LA",30.42551,-89.881256
"1094","70458",2,"Slidell","LA",30.269565,-89.77587
"1095","70460",2,"Slidell","LA",30.298048,-89.81176
"1096","70461",1,"Slidell","LA",30.266707,-89.73049
"1097","70462",3,"Springfield","LA",30.386031,-90.57297
"1098","70463",2,"Sun","LA",30.658471,-89.90398
"1099","70465",2,"Tangipahoa","LA",30.875453,-90.51254
"1100","70466",7,"Tickfaw","LA",30.560995,-90.50196
"1101","70471",1,"Mandeville","LA",30.400949,-90.08105
"1102","70501",1,"Lafayette","LA",30.2334,-92.00959
"1103","70502",1,"Lafayette","LA",30.319799,-92.026969
"1104","70503",1,"Lafayette","LA",30.185867,-92.04706
"1105","70505",1,"Lafayette","LA",30.202251,-92.01877
"1106","70506",1,"Lafayette","LA",30.211901,-92.05912
"1107","70507",1,"Lafayette","LA",30.2786,-92.02759
"1108","70508",1,"Lafayette","LA",30.163368,-92.01974
"1109","70510",1,"Abbeville","LA",29.943573,-92.14872
"1110","70512",2,"Arnaudville","LA",30.411741,-91.91702
"1111","70516",1,"Branch","LA",30.365586,-92.30363
"1112","70517",3,"Breaux Bridge","LA",30.301254,-91.86169
"1113","70518",3,"Broussard","LA",30.134801,-91.95251
"1114","70519",1,"Cade","LA",30.079692,-91.911387
"1115","70520",2,"Carencro","LA",30.327199,-92.0433
"1116","70524",1,"Chataignier","LA",30.566122,-92.32115
"1117","70525",3,"Church Point","LA",30.414588,-92.21772
"1118","70526",2,"Crowley","LA",30.213767,-92.37921
"1119","70527",1,"Crowley","LA",30.228409,-92.301795
"1120","70528",1,"Delcambre","LA",29.945707,-91.98682
"1121","70529",2,"Duson","LA",30.198258,-92.16211
"1122","70531",1,"Egan","LA",30.237007,-92.51199
"1123","70532",1,"Elton","LA",30.477275,-92.69691
"1124","70533",2,"Erath","LA",29.941157,-92.03811
"1125","70534",1,"Estherwood","LA",30.182784,-92.46576
"1126","70535",3,"Eunice","LA",30.492895,-92.41578
"1127","70538",1,"Franklin","LA",29.759314,-91.52561
"1128","70541",1,"Grand Coteau","LA",30.419571,-92.04753
"1129","70542",1,"Gueydan","LA",30.005408,-92.54417
"1130","70543",1,"Iota","LA",30.328683,-92.49549
"1131","70544",1,"Jeanerette","LA",29.910582,-91.6698
"1132","70546",1,"Jennings","LA",30.242533,-92.66375
"1133","70548",1,"Kaplan","LA",29.984184,-92.3207
"1134","70549",1,"Lake Arthur","LA",30.082515,-92.72596
"1135","70554",1,"Mamou","LA",30.63,-92.42652
"1136","70555",2,"Maurice","LA",30.101305,-92.13152
"1137","70558",1,"Milton","LA",30.101464,-92.06338
"1138","70559",2,"Morse","LA",30.142775,-92.51166
"1139","70560",1,"New Iberia","LA",29.975453,-91.84073
"1140","70563",1,"New Iberia","LA",30.022348,-91.78314
"1141","70570",2,"Opelousas","LA",30.530965,-92.09521
"1142","70571",1,"Opelousas","LA",30.57445,-92.086077
"1143","70575",1,"Perry","LA",29.866543,-92.158982
"1144","70577",1,"Port Barre","LA",30.549089,-91.93006
"1145","70578",3,"Rayne","LA",30.234581,-92.26431
"1146","70581",1,"Roanoke","LA",30.24711,-92.73951
"1147","70582",5,"Saint Martinville","LA",30.148473,-91.8003
"1148","70583",2,"Scott","LA",30.244311,-92.10099
"1149","70584",2,"Sunset","LA",30.394648,-92.07786
"1150","70586",1,"Ville Platte","LA",30.710639,-92.30628
"1151","70589",2,"Washington","LA",30.653805,-92.05479
"1152","70591",1,"Welsh","LA",30.246368,-92.83199
"1153","70592",3,"Youngsville","LA",30.103107,-91.99993
"1154","70601",1,"Lake Charles","LA",30.226399,-93.20496
"1155","70607",1,"Lake Charles","LA",30.129908,-93.19632
"1156","70639",1,"Evans","LA",30.994164,-93.49998
"1157","70647",1,"Iowa","LA",30.243213,-93.00386
"1158","70648",1,"Kinder","LA",30.494379,-92.85992
"1159","70653",2,"Merryville","LA",30.685274,-93.55827
"1160","70657",1,"Ragley","LA",30.472103,-93.13957
"1161","70658",1,"Reeves","LA",30.518748,-93.02735
"1162","70661",2,"Starks","LA",30.338939,-93.66472
"1163","70668",1,"Vinton","LA",30.183689,-93.59815
"1164","70706",5,"Denham Springs","LA",30.608471,-90.92758
"1165","70711",3,"Albany","LA",30.508318,-90.58546
"1166","70714",1,"Baker","LA",30.584787,-91.14763
"1167","70715",1,"Batchelor","LA",30.822847,-91.70531
"1168","70721",1,"Carville","LA",30.216906,-91.07975
"1169","70722",2,"Clinton","LA",30.823174,-90.921
"1170","70723",2,"Convent","LA",30.063433,-90.84644
"1171","70725",2,"Darrow","LA",30.130584,-90.95909
"1172","70726",10,"Denham Springs","LA",30.468526,-90.92827
"1173","70727",1,"Denham Springs","LA",30.337495,-90.843449
"1174","70730",1,"Ethel","LA",30.810733,-91.11541
"1175","70733",2,"French Settlement","LA",30.307865,-90.80054
"1176","70734",1,"Geismar","LA",30.211172,-91.00875
"1177","70736",2,"Glynn","LA",30.633678,-91.33786
"1178","70737",2,"Gonzales","LA",30.229237,-90.92251
"1179","70739",4,"Greenwell Springs","LA",30.585687,-90.98014
"1180","70744",4,"Holden","LA",30.535477,-90.67464
"1181","70748",1,"Jackson","LA",30.826285,-91.22812
"1182","70749",1,"Jarreau","LA",30.622391,-91.41468
"1183","70753",1,"Lettsworth","LA",30.917437,-91.7126
"1184","70754",2,"Livingston","LA",30.447866,-90.75228
"1185","70755",1,"Livonia","LA",30.568308,-91.55075
"1186","70756",1,"Lottie","LA",30.548421,-91.6325
"1187","70757",1,"Maringouin","LA",30.483791,-91.51619
"1188","70759",1,"Morganza","LA",30.720494,-91.58029
"1189","70760",1,"New Roads","LA",30.700337,-91.44032
"1190","70761",1,"Norwood","LA",30.972292,-91.07895
"1191","70762",1,"Oscar","LA",30.609979,-91.46181
"1192","70763",1,"Paulina","LA",30.03318,-90.73674
"1193","70764",1,"Plaquemine","LA",30.270694,-91.24853
"1194","70767",1,"Port Allen","LA",30.473536,-91.26324
"1195","70769",4,"Prairieville","LA",30.31144,-90.93955
"1196","70770",1,"Pride","LA",30.642585,-90.99489
"1197","70774",4,"Saint Amant","LA",30.212699,-90.81947
"1198","70775",3,"Saint Francisville","LA",30.857355,-91.37308
"1199","70776",2,"Saint Gabriel","LA",30.264611,-91.09595
"1200","70777",2,"Slaughter","LA",30.722133,-91.10915
"1201","70778",1,"Sorrento","LA",30.182068,-90.85707
"1202","70780",1,"Sunshine","LA",30.287104,-91.15362
"1203","70783",1,"Ventress","LA",30.680083,-91.39852
"1204","70785",3,"Walker","LA",30.521962,-90.84035
"1205","70788",1,"White Castle","LA",30.153959,-91.1593
"1206","70791",2,"Zachary","LA",30.655578,-91.14015
"1207","70802",1,"Baton Rouge","LA",30.44629,-91.17305
"1208","70805",2,"Baton Rouge","LA",30.485639,-91.15612
"1209","70806",1,"Baton Rouge","LA",30.44495,-91.13806
"1210","70807",1,"Baton Rouge","LA",30.534088,-91.17865
"1211","70808",1,"Baton Rouge","LA",30.411391,-91.1497
"1212","70809",1,"Baton Rouge","LA",30.403341,-91.08035
"1213","70810",2,"Baton Rouge","LA",30.361609,-91.09041
"1214","70811",1,"Baton Rouge","LA",30.525121,-91.13185
"1215","70812",1,"Baton Rouge","LA",30.504989,-91.1188
"1216","70814",4,"Baton Rouge","LA",30.484756,-91.06862
"1217","70815",6,"Baton Rouge","LA",30.45514,-91.06358
"1218","70816",5,"Baton Rouge","LA",30.425791,-91.03815
"1219","70817",2,"Baton Rouge","LA",30.387642,-90.99921
"1220","70818",1,"Baton Rouge","LA",30.537938,-91.04812
"1221","70819",1,"Baton Rouge","LA",30.46534,-91.01659
"1222","70820",1,"Baton Rouge","LA",30.373865,-91.17065
"1223","70821",1,"Baton Rouge","LA",30.461252,-91.044723
"1224","70874",1,"Baton Rouge","LA",30.590238,-91.2054
"1225","70879",1,"Baton Rouge","LA",30.51589,-91.080373
"1226","70895",1,"Baton Rouge","LA",30.51589,-91.080373
"1227","70896",1,"Baton Rouge","LA",30.51589,-91.080373
"1228","71004",1,"Belcher","LA",32.765739,-93.88028
"1229","71006",1,"Benton","LA",32.697056,-93.6991
"1230","71016",1,"Castor","LA",32.204949,-93.10383
"1231","71019",1,"Coushatta","LA",32.050033,-93.31928
"1232","71021",1,"Cullen","LA",32.969535,-93.44959
"1233","71023",3,"Doyline","LA",32.487485,-93.39035
"1234","71024",2,"Dubberly","LA",32.502528,-93.21326
"1235","71028",1,"Gibsland","LA",32.518748,-93.05705
"1236","71031",2,"Goldonna","LA",32.01716,-92.9059
"1237","71033",1,"Greenwood","LA",32.453029,-93.99683
"1238","71037",1,"Haughton","LA",32.569798,-93.55133
"1239","71039",2,"Heflin","LA",32.429157,-93.29549
"1240","71040",1,"Homer","LA",32.78288,-93.03176
"1241","71045",1,"Jamestown","LA",32.342739,-93.16075
"1242","71047",1,"Keithville","LA",32.309864,-93.87089
"1243","71049",1,"Logansport","LA",31.991863,-93.98356
"1244","71051",1,"Elm Grove","LA",32.31718,-93.50366
"1245","71052",2,"Mansfield","LA",32.031067,-93.68585
"1246","71055",2,"Minden","LA",32.631009,-93.28751
"1247","71058",1,"Minden","LA",32.576948,-93.250705
"1248","71060",1,"Mooringsport","LA",32.679068,-93.97534
"1249","71061",1,"Oil City","LA",32.748354,-93.97188
"1250","71064",1,"Plain Dealing","LA",32.913383,-93.68912
"1251","71067",1,"Princeton","LA",32.596886,-93.5026
"1252","71068",1,"Ringgold","LA",32.304429,-93.33008
"1253","71070",1,"Saline","LA",32.122435,-92.98414
"1254","71073",1,"Sibley","LA",32.535107,-93.30297
"1255","71078",1,"Stonewall","LA",32.278422,-93.79469
"1256","71082",1,"Vivian","LA",32.849008,-93.97599
"1257","71101",1,"Shreveport","LA",32.505352,-93.74861
"1258","71103",1,"Shreveport","LA",32.490777,-93.76761
"1259","71105",1,"Shreveport","LA",32.457903,-93.7133
"1260","71106",1,"Shreveport","LA",32.426104,-93.74542
"1261","71107",1,"Shreveport","LA",32.56443,-93.8305
"1262","71108",1,"Shreveport","LA",32.449286,-93.78
"1263","71109",1,"Shreveport","LA",32.474453,-93.80022
"1264","71111",1,"Bossier City","LA",32.552315,-93.70836
"1265","71112",1,"Bossier City","LA",32.478752,-93.6704
"1266","71115",2,"Shreveport","LA",32.350987,-93.62938
"1267","71118",1,"Shreveport","LA",32.397255,-93.8043
"1268","71119",1,"Shreveport","LA",32.487601,-93.89064
"1269","71129",1,"Shreveport","LA",32.42067,-93.8877
"1270","71201",1,"Monroe","LA",32.519393,-92.10755
"1271","71202",2,"Monroe","LA",32.456862,-92.08881
"1272","71203",1,"Monroe","LA",32.547067,-92.04384
"1273","71210",1,"Monroe","LA",32.490777,-92.159354
"1274","71211",1,"Monroe","LA",32.490777,-92.159354
"1275","71219",1,"Baskin","LA",32.308243,-91.71527
"1276","71220",2,"Bastrop","LA",32.814969,-91.90678
"1277","71222",2,"Bernice","LA",32.829213,-92.65296
"1278","71223",1,"Bonita","LA",32.919093,-91.67737
"1279","71225",1,"Calhoun","LA",32.507942,-92.34923
"1280","71226",1,"Chatham","LA",32.277816,-92.45283
"1281","71227",2,"Choudrant","LA",32.533389,-92.49164
"1282","71229",2,"Collinston","LA",32.678312,-91.89546
"1283","71232",1,"Delhi","LA",32.438621,-91.50809
"1284","71234",1,"Downsville","LA",32.641967,-92.3529
"1285","71235",1,"Dubach","LA",32.683644,-92.67179
"1286","71237",1,"Epps","LA",32.597244,-91.47664
"1287","71238",2,"Eros","LA",32.361562,-92.37517
"1288","71241",2,"Farmerville","LA",32.764289,-92.37657
"1289","71245",1,"Grambling","LA",32.526277,-92.71794
"1290","71250",1,"Jones","LA",32.978295,-91.61945
"1291","71251",1,"Jonesboro","LA",32.229884,-92.69763
"1292","71253",1,"Kilbourne","LA",32.995821,-91.31686
"1293","71254",2,"Lake Providence","LA",32.806899,-91.20759
"1294","71259",2,"Mangham","LA",32.286179,-91.80804
"1295","71260",1,"Marion","LA",32.885372,-92.23581
"1296","71261",1,"Mer Rouge","LA",32.770852,-91.74361
"1297","71263",1,"Oak Grove","LA",32.887552,-91.4107
"1298","71264",2,"Oak Ridge","LA",32.601149,-91.79917
"1299","71266",2,"Pioneer","LA",32.714211,-91.45776
"1300","71268",1,"Quitman","LA",32.341112,-92.72027
"1301","71269",2,"Rayville","LA",32.457301,-91.78754
"1302","71270",1,"Ruston","LA",32.52476,-92.64696
"1303","71277",1,"Spearsville","LA",32.957393,-92.57935
"1304","71279",1,"Start","LA",32.49191,-91.856326
"1305","71280",3,"Sterlington","LA",32.700356,-92.08283
"1306","71282",2,"Tallulah","LA",32.397286,-91.17657
"1307","71291",1,"West Monroe","LA",32.526944,-92.1599
"1308","71292",1,"West Monroe","LA",32.456034,-92.18276
"1309","71294",1,"West Monroe","LA",32.490777,-92.159354
"1310","71295",1,"Winnsboro","LA",32.156791,-91.72874
"1311","71301",1,"Alexandria","LA",31.294532,-92.46015
"1312","71302",2,"Alexandria","LA",31.261716,-92.42469
"1313","71303",1,"Alexandria","LA",31.302432,-92.50515
"1314","71327",1,"Cottonport","LA",30.98676,-92.04319
"1315","71328",1,"Deville","LA",31.365331,-92.19546
"1316","71340",1,"Harrisonburg","LA",31.765818,-91.82382
"1317","71342",1,"Jena","LA",31.654792,-92.12872
"1318","71343",2,"Jonesville","LA",31.586986,-91.86725
"1319","71346",1,"Lecompte","LA",31.114462,-92.40455
"1320","71350",1,"Mansura","LA",31.067379,-92.05447
"1321","71351",2,"Marksville","LA",31.140727,-92.08056
"1322","71353",1,"Melville","LA",30.698425,-91.75288
"1323","71355",1,"Moreauville","LA",31.05305,-91.91001
"1324","71358",1,"Palmetto","LA",30.717386,-91.89085
"1325","71360",1,"Pineville","LA",31.352105,-92.4006
"1326","71368",1,"Sicily Island","LA",31.85889,-91.67463
"1327","71369",1,"Simmesport","LA",30.966506,-91.82242
"1328","71371",1,"Trout","LA",31.695553,-92.22751
"1329","71378",1,"Wisner","LA",31.938233,-91.70832
"1330","71403",1,"Anacoco","LA",31.215039,-93.42301
"1331","71409",1,"Boyce","LA",31.332031,-92.67485
"1332","71411",1,"Campti","LA",31.903462,-93.09805
"1333","71414",1,"Clarence","LA",31.817257,-93.02552
"1334","71416",1,"Cloutierville","LA",31.541077,-92.89842
"1335","71417",1,"Colfax","LA",31.5254,-92.6815
"1336","71418",4,"Columbia","LA",32.130124,-92.06755
"1337","71419",1,"Converse","LA",31.80442,-93.71835
"1338","71423",1,"Dry Prong","LA",31.563093,-92.54954
"1339","71429",1,"Florien","LA",31.398236,-93.44422
"1340","71432",1,"Georgetown","LA",31.759474,-92.38927
"1341","71435",1,"Grayson","LA",32.024884,-92.16421
"1342","71439",1,"Hornbeck","LA",31.330255,-93.38882
"1343","71446",1,"Leesville","LA",31.138723,-93.22745
"1344","71447",1,"Lena","LA",31.452874,-92.79465
"1345","71449",1,"Many","LA",31.514631,-93.54869
"1346","71454",1,"Montgomery","LA",31.671252,-92.85932
"1347","71456",1,"Natchez","LA",31.660742,-92.98886
"1348","71457",4,"Natchitoches","LA",31.751287,-93.09021
"1349","71461",1,"Newllano","LA",31.114793,-93.27979
"1350","71462",1,"Noble","LA",31.672295,-93.71997
"1351","71463",1,"Oakdale","LA",30.806617,-92.65224
"1352","71465",1,"Olla","LA",31.861406,-92.19259
"1353","71467",1,"Pollock","LA",31.529155,-92.39418
"1354","71469",1,"Robeline","LA",31.693192,-93.29586
"1355","71479",1,"Tullos","LA",31.823038,-92.34017
"1356","71480",1,"Urania","LA",31.861708,-92.29141
"1357","71483",1,"Winnfield","LA",31.915828,-92.6445
"1358","71486",1,"Zwolle","LA",31.597407,-93.66397
"1359","71601",1,"Pine Bluff","AR",34.215648,-91.98841
"1360","71602",2,"White Hall","AR",34.261359,-92.09592
"1361","71603",1,"Pine Bluff","AR",34.189398,-92.04495
"1362","71635",1,"Crossett","AR",33.125032,-91.97037
"1363","71638",2,"Dermott","AR",33.525266,-91.47922
"1364","71639",1,"Dumas","AR",33.900515,-91.50041
"1365","71640",1,"Eudora","AR",33.118147,-91.26107
"1366","71646",1,"Hamburg","AR",33.224814,-91.79176
"1367","71653",1,"Lake Village","AR",33.351501,-91.27133
"1368","71654",2,"McGehee","AR",33.628723,-91.38236
"1369","71655",1,"Monticello","AR",33.62086,-91.76272
"1370","71661",1,"Parkdale","AR",33.133126,-91.53103
"1371","71676",1,"Wilmot","AR",33.059255,-91.55866
"1372","71841",1,"Gillham","AR",34.163393,-94.3049
"1373","71866",1,"Winthrop","AR",33.865609,-94.38408
"1374","72004",1,"Altheimer","AR",34.252213,-91.7679
"1375","72016",1,"Bigelow","AR",34.993579,-92.62183
"1376","72032",1,"Conway","AR",35.075467,-92.43401
"1377","72046",1,"England","AR",34.53785,-91.92159
"1378","72070",1,"Houston","AR",35.023369,-92.71047
"1379","72106",1,"Mayflower","AR",34.969848,-92.42483
"1380","72112",1,"Newport","AR",35.586065,-91.24695
"1381","72132",1,"Redfield","AR",34.443452,-92.1854
"1382","72182",1,"Wright","AR",34.429059,-92.059863
"1383","72312",1,"Barton","AR",34.546696,-90.767879
"1384","72342",1,"Helena","AR",34.485028,-90.64636
"1385","72360",1,"Marianna","AR",34.764904,-90.77793
"1386","72366",1,"Marvell","AR",34.550982,-90.94433
"1387","72390",1,"West Helena","AR",34.546274,-90.65869
"1388","72632",1,"Eureka Springs","AR",36.392122,-93.7476
"1389","72712",1,"Bentonville","AR",36.362525,-94.23308
"1390","72714",1,"Bella Vista","AR",36.458041,-94.23551
"1391","72715",1,"Bella Vista","AR",36.472567,-94.31606
"1392","72718",1,"Cave Springs","AR",36.267484,-94.22806
"1393","72722",1,"Decatur","AR",36.3389,-94.46394
"1394","72734",1,"Gentry","AR",36.269478,-94.46137
"1395","72756",1,"Rogers","AR",36.342235,-94.07141
"1396","72761",1,"Siloam Springs","AR",36.179905,-94.50208
"1397","72901",1,"Fort Smith","AR",35.373791,-94.41371
"1398","72908",1,"Fort Smith","AR",35.301623,-94.41283
"1399","72916",1,"Fort Smith","AR",35.265119,-94.37789
"1400","72921",1,"Alma","AR",35.48891,-94.20897
"1401","72940",1,"Huntington","AR",35.105477,-94.26995
"1402","72941",1,"Lavaca","AR",35.348089,-94.17279
"1403","73030",1,"Davis","OK",34.485896,-97.14753
"1404","73086",1,"Sulphur","OK",34.49284,-96.98606
"1405","73098",1,"Wynnewood","OK",34.634693,-97.16322
"1406","73501",1,"Lawton","OK",34.608348,-98.39414
"1407","73505",1,"Lawton","OK",34.613973,-98.46255
"1408","73507",1,"Lawton","OK",34.621373,-98.4001
"1409","73533",1,"Duncan","OK",34.502833,-97.95185
"1410","73538",1,"Elgin","OK",34.747379,-98.27805
"1411","74101",1,"Tulsa","OK",36.039147,-95.868667
"1412","74106",1,"Tulsa","OK",36.184692,-95.98512
"1413","74126",1,"Tulsa","OK",36.236691,-95.98674
"1414","74330",1,"Adair","OK",36.434328,-95.25512
"1415","74367",1,"Strang","OK",36.412084,-95.12924
"1416","74370",2,"Wyandotte","OK",36.777702,-94.68768
"1417","74441",1,"Hulbert","OK",35.966254,-95.15436
"1418","74447",1,"Okmulgee","OK",35.628612,-95.9734
"1419","74457",1,"Proctor","OK",36.053046,-94.7768
"1420","74464",1,"Tahlequah","OK",35.923658,-94.97185
"1421","74865",1,"Roff","OK",34.618331,-96.81397
"1422","74948",1,"Muldrow","OK",35.431711,-94.56575
"1423","74964",1,"Watts","OK",36.114272,-94.6335
"1424","75023",1,"Plano","TX",33.054671,-96.73506
"1425","75040",1,"Garland","TX",32.920574,-96.62639
"1426","75043",2,"Garland","TX",32.854893,-96.60211
"1427","75048",1,"Garland","TX",32.975723,-96.58661
"1428","75075",1,"Plano","TX",33.024721,-96.74038
"1429","75088",2,"Rowlett","TX",32.897459,-96.5497
"1430","75089",2,"Rowlett","TX",32.923924,-96.54697
"1431","75090",1,"Sherman","TX",33.632806,-96.59106
"1432","75098",1,"Wylie","TX",33.011975,-96.53607
"1433","75102",1,"Barry","TX",32.075079,-96.64311
"1434","75104",1,"Cedar Hill","TX",32.588536,-96.94949
"1435","75109",1,"Angus","TX",32.03049,-96.383005
"1436","75110",1,"Corsicana","TX",32.078228,-96.44612
"1437","75115",1,"Desoto","TX",32.599286,-96.85882
"1438","75124",1,"Eustace","TX",32.310343,-96.00312
"1439","75144",1,"Kerens","TX",32.120271,-96.22474
"1440","75148",1,"Malakoff","TX",32.183649,-96.01862
"1441","75153",1,"Powell","TX",32.142925,-96.32632
"1442","75154",2,"Red Oak","TX",32.526123,-96.82325
"1443","75155",1,"Rice","TX",32.226257,-96.48147
"1444","75173",1,"Nevada","TX",33.048275,-96.42153
"1445","75182",1,"Sunnyvale","TX",32.803646,-96.56965
"1446","75601",1,"Longview","TX",32.505248,-94.73172
"1447","75602",1,"Longview","TX",32.474499,-94.712
"1448","75603",1,"Longview","TX",32.396207,-94.70063
"1449","75604",1,"Longview","TX",32.523779,-94.80692
"1450","75605",2,"Longview","TX",32.557684,-94.74353
"1451","75657",1,"Jefferson","TX",32.768011,-94.34908
"1452","75661",1,"Karnack","TX",32.66797,-94.16846
"1453","75662",1,"Kilgore","TX",32.387151,-94.87439
"1454","75670",1,"Marshall","TX",32.547424,-94.37958
"1455","75672",1,"Marshall","TX",32.513986,-94.30704
"1456","75692",1,"Waskom","TX",32.472069,-94.09556
"1457","75702",1,"Tyler","TX",32.360498,-95.3071
"1458","75703",1,"Tyler","TX",32.264365,-95.31347
"1459","75705",1,"Tyler","TX",32.364281,-95.08971
"1460","75707",1,"Tyler","TX",32.292394,-95.20749
"1461","75750",1,"Arp","TX",32.254414,-95.06517
"1462","75751",1,"Athens","TX",32.184027,-95.84625
"1463","75752",1,"Winona","TX",32.223828,-95.785482
"1464","75762",1,"Flint","TX",32.207845,-95.41859
"1465","75763",1,"Frankston","TX",32.072339,-95.50433
"1466","75765",1,"Hawkins","TX",32.617073,-95.22445
"1467","75766",1,"Jacksonville","TX",31.953855,-95.25281
"1468","75770",1,"Larue","TX",32.132651,-95.64632
"1469","75771",1,"Lindale","TX",32.522902,-95.42126
"1470","75773",1,"Mineola","TX",32.674657,-95.46982
"1471","75783",1,"Quitman","TX",32.810076,-95.4355
"1472","75785",1,"Rusk","TX",31.79364,-95.16761
"1473","75789",1,"Troup","TX",32.137225,-95.10105
"1474","75791",1,"Whitehouse","TX",32.226082,-95.21751
"1475","75801",1,"Palestine","TX",31.779481,-95.63325
"1476","75803",1,"Palestine","TX",31.760418,-95.656779
"1477","75925",1,"Alto","TX",31.626263,-95.05495
"1478","75928",1,"Bon Wier","TX",30.680344,-93.68535
"1479","75932",1,"Burkeville","TX",31.067439,-93.61936
"1480","75933",1,"Call","TX",30.580648,-93.81112
"1481","75938",1,"Colmesneil","TX",30.916106,-94.35108
"1482","75951",1,"Jasper","TX",30.941282,-94.03455
"1483","75954",1,"Joaquin","TX",31.95015,-94.05761
"1484","75956",2,"Kirbyville","TX",30.670556,-93.93811
"1485","75966",1,"Newton","TX",30.831678,-93.74869
"1486","75979",3,"Woodville","TX",30.768601,-94.40671
"1487","76008",1,"Aledo","TX",32.690922,-97.64013
"1488","76020",2,"Azle","TX",32.905693,-97.54845
"1489","76048",1,"Granbury","TX",32.424695,-97.78894
"1490","76049",1,"Granbury","TX",32.440376,-97.72002
"1491","76066",1,"Millsap","TX",32.715412,-98.00165
"1492","76082",1,"Springtown","TX",32.964932,-97.69803
"1493","76087",4,"Weatherford","TX",32.703008,-97.74814
"1494","76088",1,"Weatherford","TX",32.842085,-97.90477
"1495","76401",1,"Stephenville","TX",32.242816,-98.21058
"1496","76424",1,"Breckenridge","TX",32.761058,-98.92225
"1497","76435",1,"Carbon","TX",32.236449,-98.83268
"1498","76437",1,"Cisco","TX",32.39492,-98.99444
"1499","76448",1,"Eastland","TX",32.398681,-98.7959
"1500","76449",1,"Graford","TX",32.908714,-98.35727
"1501","76453",1,"Gordon","TX",32.572618,-98.36399
"1502","76471",1,"Rising Star","TX",32.105459,-98.96537
"1503","76475",1,"Strawn","TX",32.628147,-98.48517
"1504","76476",2,"Tolar","TX",32.387648,-97.93959
"1505","76484",1,"Palo Pinto","TX",32.722689,-98.33271
"1506","76626",1,"Blooming Grove","TX",32.098474,-96.71501
"1507","76639",1,"Dawson","TX",31.881324,-96.70164
"1508","76641",1,"Frost","TX",32.044273,-96.78624
"1509","76667",1,"Mexia","TX",31.669823,-96.48721
"1510","76679",1,"Purdon","TX",31.949312,-96.61514
"1511","76681",1,"Richland","TX",31.90869,-96.40744
"1512","77002",1,"Houston","TX",29.755578,-95.36531
"1513","77004",2,"Houston","TX",29.728779,-95.3657
"1514","77007",1,"Houston","TX",29.772627,-95.40319
"1515","77008",1,"Houston","TX",29.798777,-95.40951
"1516","77009",1,"Houston","TX",29.79326,-95.36735
"1517","77011",1,"Houston","TX",29.742378,-95.30726
"1518","77012",1,"Houston","TX",29.719778,-95.27906
"1519","77013",2,"Houston","TX",29.78146,-95.24289
"1520","77014",1,"Houston","TX",29.979063,-95.47294
"1521","77016",2,"Houston","TX",29.857007,-95.30886
"1522","77018",1,"Houston","TX",29.825476,-95.42619
"1523","77019",1,"Houston","TX",29.752528,-95.39923
"1524","77021",1,"Houston","TX",29.695879,-95.3573
"1525","77022",1,"Houston","TX",29.825176,-95.37798
"1526","77023",1,"Houston","TX",29.725961,-95.3227
"1527","77024",1,"Houston","TX",29.773994,-95.51771
"1528","77025",1,"Houston","TX",29.69023,-95.43474
"1529","77027",1,"Houston","TX",29.739029,-95.44364
"1530","77028",2,"Houston","TX",29.827315,-95.28631
"1531","77032",1,"Houston","TX",29.944922,-95.34152
"1532","77033",2,"Houston","TX",29.66913,-95.33834
"1533","77035",1,"Houston","TX",29.654108,-95.47692
"1534","77036",1,"Houston","TX",29.70053,-95.53514
"1535","77037",2,"Houston","TX",29.885451,-95.39552
"1536","77038",2,"Houston","TX",29.917814,-95.44138
"1537","77039",2,"Houston","TX",29.909123,-95.33683
"1538","77040",4,"Houston","TX",29.878345,-95.53337
"1539","77041",2,"Houston","TX",29.85873,-95.57243
"1540","77042",1,"Houston","TX",29.741565,-95.55996
"1541","77043",1,"Houston","TX",29.802473,-95.5618
"1542","77044",1,"Houston","TX",29.88277,-95.16782
"1543","77045",2,"Houston","TX",29.629111,-95.43841
"1544","77047",1,"Houston","TX",29.616182,-95.37767
"1545","77048",1,"Houston","TX",29.633081,-95.33761
"1546","77049",2,"Houston","TX",29.832668,-95.1742
"1547","77050",1,"Houston","TX",29.896156,-95.28687
"1548","77053",2,"Houston","TX",29.596666,-95.45981
"1549","77054",1,"Houston","TX",29.683865,-95.39772
"1550","77055",1,"Houston","TX",29.798877,-95.49629
"1551","77056",1,"Houston","TX",29.747328,-95.46931
"1552","77057",1,"Houston","TX",29.745129,-95.49131
"1553","77060",1,"Houston","TX",29.933367,-95.39916
"1554","77061",1,"Houston","TX",29.66028,-95.28446
"1555","77062",1,"Houston","TX",29.57493,-95.13238
"1556","77063",1,"Houston","TX",29.734379,-95.52269
"1557","77064",2,"Houston","TX",29.923638,-95.55919
"1558","77065",2,"Houston","TX",29.927675,-95.60547
"1559","77066",1,"Houston","TX",29.959439,-95.49694
"1560","77067",1,"Houston","TX",29.952354,-95.45065
"1561","77068",2,"Houston","TX",30.007886,-95.48532
"1562","77069",1,"Houston","TX",29.984672,-95.52887
"1563","77070",2,"Houston","TX",29.978801,-95.57655
"1564","77071",2,"Houston","TX",29.647637,-95.51718
"1565","77072",1,"Houston","TX",29.700898,-95.59002
"1566","77073",2,"Houston","TX",30.008745,-95.41273
"1567","77074",1,"Houston","TX",29.689781,-95.51161
"1568","77075",2,"Houston","TX",29.620881,-95.26018
"1569","77076",2,"Houston","TX",29.858525,-95.38178
"1570","77077",1,"Houston","TX",29.750897,-95.61255
"1571","77078",2,"Houston","TX",29.849424,-95.25951
"1572","77079",1,"Houston","TX",29.773018,-95.60125
"1573","77080",1,"Houston","TX",29.816866,-95.52309
"1574","77081",1,"Houston","TX",29.70828,-95.48361
"1575","77082",1,"Houston","TX",29.722704,-95.6314
"1576","77083",2,"Houston","TX",29.691714,-95.64978
"1577","77084",1,"Houston","TX",29.839155,-95.66391
"1578","77086",2,"Houston","TX",29.920981,-95.49556
"1579","77087",1,"Houston","TX",29.686579,-95.30386
"1580","77088",2,"Houston","TX",29.879213,-95.45028
"1581","77089",1,"Houston","TX",29.589831,-95.22251
"1582","77090",2,"Houston","TX",30.012711,-95.45132
"1583","77091",3,"Houston","TX",29.852975,-95.43586
"1584","77092",1,"Houston","TX",29.833326,-95.47644
"1585","77093",1,"Houston","TX",29.862024,-95.33967
"1586","77094",1,"Houston","TX",29.770722,-95.6988
"1587","77095",2,"Houston","TX",29.896656,-95.64842
"1588","77096",2,"Houston","TX",29.674336,-95.48123
"1589","77098",1,"Houston","TX",29.735529,-95.41405
"1590","77099",1,"Houston","TX",29.668489,-95.5869
"1591","77301",2,"Conroe","TX",30.313308,-95.45085
"1592","77302",2,"Conroe","TX",30.238563,-95.38927
"1593","77303",2,"Conroe","TX",30.368543,-95.40217
"1594","77304",3,"Conroe","TX",30.33146,-95.50703
"1595","77306",2,"Conroe","TX",30.289893,-95.32698
"1596","77316",2,"Montgomery","TX",30.329017,-95.64985
"1597","77318",2,"Willis","TX",30.434486,-95.55009
"1598","77327",3,"Cleveland","TX",30.35469,-95.04514
"1599","77328",3,"Cleveland","TX",30.188885,-94.804065
"1600","77331",2,"Coldspring","TX",30.619313,-95.13802
"1601","77336",1,"Huffman","TX",30.045495,-95.10714
"1602","77338",2,"Humble","TX",30.005691,-95.28488
"1603","77339",2,"Humble","TX",30.053368,-95.21807
"1604","77345",1,"Humble","TX",30.062436,-95.16945
"1605","77346",1,"Humble","TX",30.001902,-95.16962
"1606","77354",2,"Magnolia","TX",30.194267,-95.63918
"1607","77355",5,"Magnolia","TX",30.158706,-95.74464
"1608","77356",2,"Montgomery","TX",30.412229,-95.6529
"1609","77357",6,"New Caney","TX",30.170751,-95.17832
"1610","77362",2,"Pinehurst","TX",30.152265,-95.67556
"1611","77363",3,"Plantersville","TX",30.281863,-95.85326
"1612","77365",2,"Porter","TX",30.102209,-95.25748
"1613","77371",2,"Shepherd","TX",30.488028,-94.99963
"1614","77372",3,"Splendora","TX",30.220237,-95.16723
"1615","77373",2,"Spring","TX",30.056394,-95.38961
"1616","77375",2,"Tomball","TX",30.073775,-95.61882
"1617","77377",2,"Tomball","TX",29.83399,-95.434241
"1618","77378",3,"Willis","TX",30.439428,-95.44677
"1619","77379",4,"Spring","TX",30.024749,-95.53215
"1620","77380",4,"Spring","TX",30.143485,-95.46821
"1621","77381",3,"Spring","TX",30.17873,-95.5021
"1622","77382",1,"Spring","TX",30.214741,-95.53212
"1623","77384",2,"Conroe","TX",30.233865,-95.49679
"1624","77385",2,"Conroe","TX",30.18771,-95.43893
"1625","77386",3,"Spring","TX",30.128862,-95.41896
"1626","77388",3,"Spring","TX",30.055195,-95.46826
"1627","77389",2,"Spring","TX",30.10824,-95.51716
"1628","77396",3,"Humble","TX",29.951621,-95.26785
"1629","77401",1,"Bellaire","TX",29.70403,-95.46099
"1630","77406",2,"Richmond","TX",29.50401,-95.919107
"1631","77407",1,"Richmond","TX",29.68,-95.7
"1632","77418",2,"Bellville","TX",29.983095,-96.26843
"1633","77422",1,"Brazoria","TX",29.011241,-95.58071
"1634","77423",6,"Brookshire","TX",29.80038,-95.98452
"1635","77429",2,"Cypress","TX",29.982746,-95.66597
"1636","77430",2,"Damon","TX",29.290602,-95.70739
"1637","77433",2,"Cypress","TX",29.884175,-95.72219
"1638","77434",2,"Eagle Lake","TX",29.575458,-96.32079
"1639","77435",2,"East Bernard","TX",29.520049,-96.08527
"1640","77436",1,"Egypt","TX",29.375762,-96.227967
"1641","77441",1,"Fulshear","TX",29.685917,-95.91804
"1642","77443",1,"Glen Flora","TX",29.346878,-96.19287
"1643","77445",2,"Hempstead","TX",30.096649,-96.06979
"1644","77446",1,"Prairie View","TX",30.082131,-95.99178
"1645","77447",5,"Hockley","TX",30.065152,-95.8144
"1646","77449",2,"Katy","TX",29.825908,-95.7301
"1647","77450",1,"Katy","TX",29.758799,-95.74751
"1648","77459",2,"Missouri City","TX",29.564347,-95.54762
"1649","77466",1,"Pattison","TX",29.818871,-95.99945
"1650","77469",3,"Richmond","TX",29.584172,-95.747
"1651","77471",2,"Rosenberg","TX",29.549455,-95.81901
"1652","77473",2,"San Felipe","TX",29.799608,-96.10123
"1653","77474",3,"Sealy","TX",29.776375,-96.16474
"1654","77476",3,"Simonton","TX",29.686804,-95.99738
"1655","77477",2,"Stafford","TX",29.626187,-95.57145
"1656","77478",1,"Sugar Land","TX",29.627737,-95.62444
"1657","77484",6,"Waller","TX",30.068888,-95.92499
"1658","77485",5,"Wallis","TX",29.632221,-96.07144
"1659","77488",1,"Wharton","TX",29.307347,-96.09055
"1660","77489",2,"Missouri City","TX",29.601141,-95.51772
"1661","77493",4,"Katy","TX",29.810279,-95.82011
"1662","77494",2,"Katy","TX",29.760833,-95.81104
"1663","77502",1,"Pasadena","TX",29.680079,-95.19966
"1664","77506",1,"Pasadena","TX",29.705678,-95.20216
"1665","77511",1,"Alvin","TX",29.41148,-95.24475
"1666","77515",3,"Angleton","TX",29.16866,-95.44541
"1667","77519",1,"Batson","TX",30.249734,-94.60291
"1668","77520",1,"Baytown","TX",29.74877,-94.94389
"1669","77521",2,"Baytown","TX",29.784579,-94.97588
"1670","77530",1,"Channelview","TX",29.786656,-95.12214
"1671","77532",3,"Crosby","TX",29.920121,-95.07327
"1672","77533",1,"Daisetta","TX",30.112587,-94.64704
"1673","77535",3,"Dayton","TX",30.044219,-94.88864
"1674","77536",1,"Deer Park","TX",29.687657,-95.1201
"1675","77541",4,"Freeport","TX",28.975247,-95.34357
"1676","77545",1,"Fresno","TX",29.526728,-95.45984
"1677","77546",2,"Friendswood","TX",29.516873,-95.19472
"1678","77547",1,"Galena Park","TX",29.737178,-95.23906
"1679","77562",1,"Highlands","TX",29.81953,-95.05298
"1680","77564",1,"Hull","TX",30.159698,-94.65504
"1681","77566",2,"Lake Jackson","TX",29.036879,-95.44103
"1682","77568",1,"La Marque","TX",29.366684,-94.97392
"1683","77571",1,"La Porte","TX",29.666781,-95.04487
"1684","77575",2,"Liberty","TX",30.066734,-94.76595
"1685","77578",1,"Manvel","TX",29.487395,-95.35807
"1686","77581",1,"Pearland","TX",29.56218,-95.26982
"1687","77582",1,"Raywood","TX",30.023932,-94.66678
"1688","77583",2,"Rosharon","TX",29.429256,-95.45332
"1689","77584",1,"Pearland","TX",29.543654,-95.34036
"1690","77612",2,"Buna","TX",30.433087,-93.96897
"1691","77614",2,"Deweyville","TX",30.293684,-93.74329
"1692","77624",1,"Hillister","TX",30.664543,-94.30391
"1693","77625",1,"Kountze","TX",30.372553,-94.33671
"1694","77626",1,"Mauriceville","TX",30.203996,-93.886646
"1695","77630",1,"Orange","TX",30.089757,-93.77408
"1696","77631",1,"Orange","TX",30.054793,-93.903108
"1697","77632",3,"Orange","TX",30.182584,-93.79964
"1698","77656",1,"Silsbee","TX",30.390569,-94.18056
"1699","77657",1,"Lumberton","TX",30.240473,-94.20172
"1700","77659",1,"Sour Lake","TX",30.150405,-94.41515
"1701","77662",1,"Vidor","TX",30.142953,-94.00797
"1702","77802",1,"Bryan","TX",30.655348,-96.34056
"1703","77803",1,"Bryan","TX",30.678097,-96.37639
"1704","77807",1,"Bryan","TX",30.68416,-96.46101
"1705","77808",1,"Bryan","TX",30.762815,-96.31744
"1706","77833",1,"Brenham","TX",30.183651,-96.40258
"1707","77834",1,"Brenham","TX",30.231333,-96.290358
"1708","77835",1,"Burton","TX",30.181677,-96.61373
"1709","77836",1,"Caldwell","TX",30.517099,-96.67247
"1710","77840",1,"College Station","TX",30.614647,-96.32641
"1711","77845",1,"College Station","TX",30.571905,-96.29882
"1712","77868",2,"Navasota","TX",30.374501,-96.07999
"1713","77878",1,"Snook","TX",30.490162,-96.4698
"1714","77879",1,"Somerville","TX",30.368922,-96.52359
"1715","77880",1,"Washington","TX",30.281022,-96.16922
"1716","78070",1,"Spring Branch","TX",29.898176,-98.40135
"1717","78114",1,"Floresville","TX",29.150937,-98.17929
"1718","78130",1,"New Braunfels","TX",29.699844,-98.10754
"1719","78131",1,"New Braunfels","TX",29.79918,-98.338419
"1720","78132",2,"New Braunfels","TX",29.749204,-98.17653
"1721","78133",1,"Canyon Lake","TX",29.883884,-98.25219
"1722","78155",2,"Seguin","TX",29.56478,-97.96283
"1723","78163",1,"Bulverde","TX",29.758619,-98.44199
"1724","78266",1,"San Antonio","TX",29.641132,-98.30856
"1725","78335",1,"Aransas Pass","TX",27.912454,-97.188437
"1726","78336",2,"Aransas Pass","TX",27.915764,-97.15436
"1727","78362",1,"Ingleside","TX",27.866143,-97.20712
"1728","78363",1,"Kingsville","TX",27.496472,-97.86808
"1729","78379",1,"Riviera","TX",27.299073,-97.78433
"1730","78382",1,"Rockport","TX",28.047744,-97.04818
"1731","78390",1,"Taft","TX",27.977641,-97.37032
"1732","78404",1,"Corpus Christi","TX",27.770056,-97.4001
"1733","78409",1,"Corpus Christi","TX",27.806753,-97.50971
"1734","78411",1,"Corpus Christi","TX",27.733058,-97.38542
"1735","78412",1,"Corpus Christi","TX",27.709309,-97.35225
"1736","78415",1,"Corpus Christi","TX",27.727083,-97.4289
"1737","78416",1,"Corpus Christi","TX",27.752356,-97.43465
"1738","78501",2,"Mcallen","TX",26.213105,-98.23579
"1739","78503",1,"Mcallen","TX",26.172018,-98.25042
"1740","78516",2,"Alamo","TX",26.175021,-98.11969
"1741","78520",1,"Brownsville","TX",25.928274,-97.51618
"1742","78521",1,"Brownsville","TX",25.918758,-97.42739
"1743","78526",1,"Brownsville","TX",25.969007,-97.47211
"1744","78537",2,"Donna","TX",26.165352,-98.05568
"1745","78538",1,"Edcouch","TX",26.344688,-97.96961
"1746","78539",1,"Edinburg","TX",26.344128,-98.18011
"1747","78541",2,"Edinburg","TX",26.319427,-98.154881
"1748","78542",2,"Edinburg","TX",26.35,-98.11
"1749","78550",1,"Harlingen","TX",26.206602,-97.68776
"1750","78552",1,"Harlingen","TX",26.195591,-97.75321
"1751","78557",1,"Hidalgo","TX",26.105725,-98.24639
"1752","78562",1,"La Villa","TX",26.301385,-97.92547
"1753","78569",1,"Lyford","TX",26.39381,-97.7113
"1754","78570",2,"Mercedes","TX",26.169728,-97.91232
"1755","78572",3,"Mission","TX",26.234417,-98.34205
"1756","78574",2,"Sebastian","TX",26.244013,-98.31176
"1757","78575",1,"Olmito","TX",26.023905,-97.54457
"1758","78576",1,"Penitas","TX",26.24901,-98.45014
"1759","78577",1,"Pharr","TX",26.201284,-98.18619
"1760","78580",2,"Raymondville","TX",26.500175,-97.81013
"1761","78583",1,"Rio Hondo","TX",26.259032,-97.52948
"1762","78586",1,"San Benito","TX",26.111261,-97.63519
"1763","78589",2,"San Juan","TX",26.190444,-98.15301
"1764","78590",1,"San Perlita","TX",26.455519,-97.585805
"1765","78594",1,"Sebastian","TX",26.344765,-97.80031
"1766","78596",1,"Weslaco","TX",26.162609,-97.98512
"1767","78599",1,"Weslaco","TX",26.409709,-98.224206
"1768","78602",2,"Bastrop","TX",30.120443,-97.30991
"1769","78610",5,"Buda","TX",30.07703,-97.8178
"1770","78612",3,"Cedar Creek","TX",30.130116,-97.49055
"1771","78616",3,"Dale","TX",29.928764,-97.56317
"1772","78617",3,"Del Valle","TX",30.166225,-97.62496
"1773","78619",1,"Driftwood","TX",30.103644,-98.03875
"1774","78621",1,"Elgin","TX",30.338279,-97.36611
"1775","78623",1,"Fischer","TX",29.960139,-98.21846
"1776","78638",1,"Kingsbury","TX",29.655639,-97.77219
"1777","78640",3,"Kyle","TX",29.996916,-97.84756
"1778","78652",2,"Manchaca","TX",30.12848,-97.8438
"1779","78653",2,"Manor","TX",30.351225,-97.54731
"1780","78655",2,"Martindale","TX",29.838163,-97.84178
"1781","78656",1,"Maxwell","TX",29.887939,-97.83613
"1782","78659",1,"Paige","TX",30.210685,-97.11662
"1783","78662",1,"Red Rock","TX",29.950887,-97.42728
"1784","78666",2,"San Marcos","TX",29.876944,-97.94668
"1785","78667",1,"San Marcos","TX",30.054378,-98.003574
"1786","78676",1,"Wimberley","TX",30.022492,-98.13294
"1787","78704",1,"Austin","TX",30.246309,-97.76087
"1788","78719",2,"Austin","TX",30.163458,-97.67711
"1789","78734",1,"Austin","TX",30.378675,-97.95028
"1790","78741",2,"Austin","TX",30.231252,-97.716
"1791","78744",1,"Austin","TX",30.188377,-97.74038
"1792","78745",1,"Austin","TX",30.207559,-97.79575
"1793","78747",1,"Austin","TX",30.132855,-97.76187
"1794","78748",1,"Austin","TX",30.17202,-97.82265
"1795","78750",1,"Austin","TX",30.438933,-97.80383
"1796","78757",1,"Austin","TX",30.349455,-97.73328
"1797","78759",1,"Austin","TX",30.406169,-97.75743
"1798","78852",1,"Eagle Pass","TX",28.716242,-100.48058
"1799","78931",1,"Bleiblerville","TX",29.849283,-96.313271
"1800","78932",1,"Carmine","TX",30.141287,-96.6909
"1801","78933",1,"Cat Spring","TX",29.773128,-96.39342
"1802","78934",1,"Columbus","TX",29.712052,-96.56134
"1803","78940",1,"Fayetteville","TX",29.941521,-96.65977
"1804","78942",1,"Giddings","TX",30.182175,-96.93171
"1805","78945",1,"La Grange","TX",29.909764,-96.8745
"1806","78946",1,"Ledbetter","TX",30.186858,-96.78185
"1807","78948",1,"Lincoln","TX",30.2984,-96.95358
"1808","78954",1,"Round Top","TX",30.057137,-96.67796
"1809","78956",1,"Schulenburg","TX",29.680723,-96.91964
"1810","78957",3,"Smithville","TX",30.010487,-97.16036
"1811","92371",1,"Phelan","CA",34.453465,-117.53392
"1812","92395",1,"Victorville","CA",34.48,-117.36
"1813","92397",1,"Wrightwood","CA",34.35876,-117.62752
"1814","92407",1,"San Bernardino","CA",34.198189,-117.35826
"1815","93240",2,"Lake Isabella","CA",35.617148,-118.45299
"1816","93283",1,"Weldon","CA",35.614134,-118.27824
"1817","93532",2,"Lake Hughes","CA",34.676708,-118.45592
"1818","93536",2,"Lancaster","CA",34.728857,-118.32683
"1819","93550",1,"Palmdale","CA",34.56548,-118.08549
"1820","93551",2,"Palmdale","CA",34.606146,-118.18495
"1821","93552",1,"Palmdale","CA",34.561207,-118.0375
"1822","93922",1,"Carmel","CA",36.543261,-121.926315
"1823","93923",1,"Carmel","CA",36.517261,-121.89436
"1824","94110",1,"San Francisco","CA",37.74873,-122.41545
"1825","95457",1,"Lower Lake","CA",38.911393,-122.599
"1826","97019",1,"Corbett","OR",45.514515,-122.23283
"1827","97027",1,"Gladstone","OR",45.385642,-122.59272
"1828","97038",1,"Molalla","OR",45.10799,-122.56555
"1829","97045",1,"Oregon City","OR",45.344246,-122.58464
"1830","97086",1,"Happy Valley","OR",45.44,-122.52
"1831","97131",1,"Nehalem","OR",45.715015,-123.88233
"1832","97136",1,"Rockaway Beach","OR",45.620062,-123.93449
"1833","97141",1,"Tillamook","OR",45.459109,-123.80389
"1834","97212",1,"Portland","OR",45.54424,-122.64353
"1835","97214",1,"Portland","OR",45.51379,-122.6458
"1836","97220",1,"Portland","OR",45.546205,-122.56027
"1837","97222",1,"Portland","OR",45.442634,-122.61833
"1838","97223",1,"Portland","OR",45.43884,-122.78224
"1839","97267",1,"Portland","OR",45.408882,-122.61476
"1840","97341",1,"Depoe Bay","OR",44.821446,-124.05729
"1841","97343",1,"Eddyville","OR",44.643659,-123.76213
"1842","97365",1,"Newport","OR",44.649252,-124.05039
"1843","97368",1,"Otis","OR",45.009935,-123.91182
"1844","97380",1,"Siletz","OR",44.738154,-123.91023
"1845","97391",1,"Toledo","OR",44.626888,-123.91515
"1846","98361",1,"Packwood","WA",46.580048,-121.61674
"1847","98604",1,"Battle Ground","WA",45.791345,-122.51789
"1848","98606",1,"Brush Prairie","WA",45.73451,-122.48034
"1849","98607",1,"Camas","WA",45.60916,-122.40547
"1850","98625",1,"Kalama","WA",46.015873,-122.79718
"1851","98626",1,"Kelso","WA",46.150433,-122.88566
"1852","98632",1,"Longview","WA",46.156082,-122.98043
"1853","98661",1,"Vancouver","WA",45.63873,-122.62846
"1854","98814",1,"Carlton","WA",48.231421,-120.12065
"1855","98840",1,"Okanogan","WA",48.343356,-119.57656
"1856","98841",1,"Omak","WA",48.403174,-119.39066
"1857","98849",1,"Riverside","WA",48.528793,-119.45276
"1858","98855",1,"Tonasket","WA",48.689509,-119.32169
