"","zip","Freq","city","state","latitude","longitude"
"1","",2,NA,NA,NA,NA
"2","00715",1,"Mercedita","PR",18.003492,-66.55868
"3","00718",1,"Naguabo","PR",18.22048,-65.74293
"4","00744",1,"Rio Blanco","PR",18.206329,-65.743058
"5","00767",1,"Yabucoa","PR",18.072752,-65.89703
"6","00795",1,"Juana Diaz","PR",18.036253,-66.50289
"7","01752",1,"Marlborough","MA",42.350909,-71.54753
"8","01890",1,"Winchester","MA",42.451945,-71.14276
"9","01902",1,"Lynn","MA",42.469946,-70.94113
"10","01904",1,"Lynn","MA",42.490421,-70.96579
"11","01905",1,"Lynn","MA",42.464879,-70.97411
"12","01907",2,"Swampscott","MA",42.474409,-70.90588
"13","01915",1,"Beverly","MA",42.560995,-70.8757
"14","01945",1,"Marblehead","MA",42.497146,-70.86323
"15","01960",1,"Peabody","MA",42.534045,-70.96146
"16","01970",1,"Salem","MA",42.516845,-70.8985
"17","02446",1,"Brookline","MA",42.344747,-71.12141
"18","08046",1,"Willingboro","NJ",40.029011,-74.88257
"19","08071",1,"Pitman","NJ",39.730964,-75.13009
"20","08075",1,"Riverside","NJ",40.029361,-74.9541
"21","08083",1,"Somerdale","NJ",39.842613,-75.02496
"22","08086",1,"Thorofare","NJ",39.849156,-75.18159
"23","08094",1,"Williamstown","NJ",39.647598,-74.95927
"24","08205",1,"Absecon","NJ",39.471263,-74.502457
"25","08215",1,"Egg Harbor City","NJ",39.548049,-74.62171
"26","08221",1,"Linwood","NJ",39.348616,-74.57387
"27","08225",1,"Northfield","NJ",39.370083,-74.55211
"28","08232",1,"Pleasantville","NJ",39.394616,-74.52212
"29","08234",4,"Egg Harbor Township","NJ",39.398172,-74.59667
"30","08244",1,"Somers Point","NJ",39.319901,-74.5999
"31","08302",1,"Bridgeton","NJ",39.445164,-75.24215
"32","08317",1,"Dorothy","NJ",39.406518,-74.82706
"33","08318",1,"Elmer","NJ",39.553504,-75.16843
"34","08330",2,"Mays Landing","NJ",39.478771,-74.7581
"35","08332",1,"Millville","NJ",39.379382,-75.03923
"36","08340",1,"Milmay","NJ",39.437265,-74.87926
"37","08360",3,"Vineland","NJ",39.492265,-75.01887
"38","08401",1,"Atlantic City","NJ",39.364966,-74.43903
"39","08830",1,"Iselin","NJ",40.571504,-74.3183
"40","09107",1,"Apo","AE",NA,NA
"41","16823",1,"Bellefonte","PA",40.91255,-77.77387
"42","19124",1,"Philadelphia","PA",40.017362,-75.08769
"43","20112",1,"Manassas","VA",38.685117,-77.44796
"44","20124",1,"Clifton","VA",38.797424,-77.39237
"45","20175",1,"Leesburg","VA",39.080037,-77.58025
"46","20191",1,"Reston","VA",38.934709,-77.3469
"47","20705",1,"Beltsville","MD",39.044509,-76.9133
"48","20744",1,"Fort Washington","MD",38.756347,-76.99034
"49","20748",1,"Temple Hills","MD",38.822163,-76.93974
"50","20772",1,"Upper Marlboro","MD",38.792281,-76.781
"51","20878",1,"Gaithersburg","MD",39.11755,-77.23548
"52","21904",1,"Port Deposit","MD",39.61881,-76.0853
"53","22030",1,"Fairfax","VA",38.846212,-77.32787
"54","22031",2,"Fairfax","VA",38.859675,-77.26167
"55","22039",1,"Fairfax Station","VA",38.760747,-77.31684
"56","22041",1,"Falls Church","VA",38.849136,-77.14081
"57","22042",1,"Falls Church","VA",38.864669,-77.18781
"58","22079",1,"Lorton","VA",38.695915,-77.20122
"59","22124",1,"Oakton","VA",38.88619,-77.32402
"60","22150",1,"Springfield","VA",38.778243,-77.18562
"61","22151",1,"Springfield","VA",38.803813,-77.20821
"62","22152",1,"Springfield","VA",38.775716,-77.23131
"63","22172",1,"Triangle","VA",38.557527,-77.35726
"64","22191",2,"Woodbridge","VA",38.63275,-77.26786
"65","22192",1,"Woodbridge","VA",38.678451,-77.30657
"66","22193",2,"Woodbridge","VA",38.646375,-77.34469
"67","22315",1,"Alexandria","VA",38.757924,-77.15284
"68","22401",1,"Fredericksburg","VA",38.301829,-77.47077
"69","22407",1,"Fredericksburg","VA",38.271028,-77.5559
"70","22408",1,"Fredericksburg","VA",38.236023,-77.46111
"71","22485",1,"King George","VA",38.277837,-77.1642
"72","22508",2,"Locust Grove","VA",38.326624,-77.76987
"73","22534",1,"Partlow","VA",38.08157,-77.66795
"74","22542",1,"Rhoadesville","VA",38.296355,-77.88379
"75","22551",1,"Spotsylvania","VA",38.17,-77.7
"76","22553",1,"Spotsylvania","VA",38.207275,-77.64378
"77","22567",1,"Unionville","VA",38.233223,-77.91258
"78","22580",1,"Woodford","VA",38.095772,-77.44404
"79","22701",1,"Culpeper","VA",38.459521,-77.99875
"80","22714",1,"Brandy Station","VA",38.512989,-77.89529
"81","22733",1,"Rapidan","VA",38.324175,-78.05877
"82","22737",1,"Rixeyville","VA",38.588409,-77.98995
"83","22901",1,"Charlottesville","VA",38.072402,-78.50149
"84","22903",1,"Charlottesville","VA",38.026342,-78.5348
"85","22911",1,"Charlottesville","VA",38.07735,-78.42042
"86","22923",1,"Barboursville","VA",38.167465,-78.3259
"87","22937",1,"Esmont","VA",37.79922,-78.61263
"88","22942",4,"Gordonsville","VA",38.125214,-78.197
"89","22946",1,"Keene","VA",37.855103,-78.56162
"90","22947",1,"Keswick","VA",38.025346,-78.32925
"91","22960",1,"Orange","VA",38.231526,-78.07923
"92","22963",1,"Palmyra","VA",37.871021,-78.30837
"93","22974",2,"Troy","VA",37.959376,-78.26353
"94","23022",1,"Bremo Bluff","VA",37.728067,-78.26865
"95","23024",2,"Bumpass","VA",37.961187,-77.76824
"96","23038",2,"Columbia","VA",37.758949,-78.14009
"97","23039",1,"Crozier","VA",37.643406,-77.80709
"98","23055",1,"Fork Union","VA",37.782109,-78.23472
"99","23063",1,"Goochland","VA",37.69536,-77.99793
"100","23065",1,"Gum Spring","VA",37.801783,-77.92431
"101","23084",3,"Kents Store","VA",37.90198,-78.09647
"102","23093",2,"Louisa","VA",37.995103,-78.04612
"103","23103",1,"Manakin Sabot","VA",37.639354,-77.72841
"104","23117",3,"Mineral","VA",38.007186,-77.86809
"105","23136",1,NA,NA,NA,NA
"106","23153",1,"Sandy Hook","VA",37.787745,-77.96916
"107","23192",1,"Montpelier","VA",37.813901,-77.68952
"108","23238",1,"Richmond","VA",37.733844,-77.888082
"109","24590",1,"Scottsville","VA",37.806508,-78.48134
"110","24701",2,"Bluefield","WV",37.2757,-81.2145
"111","24736",1,"Matoaka","WV",37.425866,-81.27625
"112","24739",1,"Oakvale","WV",37.336554,-80.95523
"113","24740",1,"Princeton","WV",37.368167,-81.07307
"114","24853",1,"Kimball","WV",37.427781,-81.48654
"115","24901",1,"Lewisburg","WV",37.80848,-80.44493
"116","24910",2,"Alderson","WV",37.731717,-80.65942
"117","24946",1,"Hillsboro","WV",38.114627,-80.22808
"118","24954",1,"Marlinton","WV",38.196374,-80.05957
"119","24986",1,"White Sulphur Springs","WV",37.861237,-80.24008
"120","24991",1,"Williamsburg","WV",38.001124,-80.48027
"121","25003",1,"Alum Creek","WV",38.254483,-81.79045
"122","25007",1,"Arnett","WV",37.832443,-81.42991
"123","25015",1,"Belle","WV",38.224918,-81.5151
"124","25043",1,"Clay","WV",38.46791,-81.0082
"125","25045",1,"Clendenin","WV",38.464079,-81.33836
"126","25059",1,"Dixie","WV",38.260339,-81.19697
"127","25064",1,"Dunbar","WV",38.367255,-81.74473
"128","25071",1,"Elkview","WV",38.451344,-81.46602
"129","25081",1,"Foster","WV",38.092103,-81.75855
"130","25093",1,"Gordon","WV",37.997105,-81.71704
"131","25107",1,"Hernshaw","WV",38.211477,-81.60468
"132","25118",1,"Kimberly","WV",38.135059,-81.30312
"133","25124",1,"Liberty","WV",38.619376,-81.76361
"134","25125",1,"Lizemores","WV",38.323058,-81.19769
"135","25132",1,"Mammoth","WV",38.293438,-81.34526
"136","25134",1,"Miami","WV",38.153818,-81.44962
"137","25136",1,"Montgomery","WV",38.175742,-81.33047
"138","25173",1,"Robson","WV",38.072309,-81.2457
"139","25174",1,"Rock Creek","WV",37.850007,-81.4451
"140","25177",2,"Saint Albans","WV",38.378841,-81.82633
"141","25264",1,"Mount Alto","WV",38.853643,-81.8985
"142","25275",1,"Sandyville","WV",38.926713,-81.6196
"143","25286",1,"Walton","WV",38.617139,-81.39537
"144","25301",1,"Charleston","WV",38.350647,-81.63028
"145","25302",1,"Charleston","WV",38.375397,-81.62367
"146","25303",1,"Charleston","WV",38.362374,-81.6863
"147","25306",1,"Charleston","WV",38.310827,-81.53106
"148","25309",1,"Charleston","WV",38.329768,-81.73418
"149","25311",1,"Charleston","WV",38.351204,-81.58198
"150","25312",1,"Charleston","WV",38.414155,-81.66166
"151","25313",1,"Charleston","WV",38.425721,-81.76168
"152","25314",1,"Charleston","WV",38.335969,-81.66084
"153","25506",1,"Branchland","WV",38.214232,-82.191
"154","25508",1,"Chapmanville","WV",37.962522,-82.01954
"155","25511",1,"Dunlow","WV",38.011587,-82.38072
"156","25514",1,"Fort Gay","WV",38.101664,-82.5456
"157","25517",1,"Genoa","WV",38.116605,-82.46238
"158","25521",1,"Griffithsville","WV",38.238045,-81.98991
"159","25524",1,"Harts","WV",38.02644,-82.1086
"160","25534",1,"Kiahsville","WV",38.082632,-82.27115
"161","25541",1,"Milton","WV",38.440316,-82.13535
"162","25545",1,"Ona","WV",38.44068,-82.22311
"163","25547",1,"Pecks Mill","WV",37.925145,-81.95826
"164","25555",1,"Prichard","WV",38.238942,-82.58178
"165","25564",1,"Sod","WV",38.268079,-81.88769
"166","25567",1,"Sumerco","WV",38.219996,-81.85414
"167","25573",1,"Yawkey","WV",38.229352,-81.94543
"168","25601",1,"Logan","WV",37.833826,-82.00011
"169","25614",1,"Cora","WV",37.833204,-81.902401
"170","25625",1,"Holden","WV",37.827404,-82.06382
"171","25637",1,"Mount Gay","WV",37.849418,-82.02174
"172","25646",1,"Stollings","WV",37.837136,-81.95921
"173","25649",1,"Verdunville","WV",37.852728,-82.06678
"174","25653",1,"Wilkinson","WV",37.828926,-81.99936
"175","25671",1,"Dingess","WV",37.863118,-82.21671
"176","25674",1,"Kermit","WV",37.860845,-82.37574
"177","25676",1,"Lenore","WV",37.818843,-82.27267
"178","25678",1,"Matewan","WV",37.617949,-82.16397
"179","25705",1,"Huntington","WV",38.410745,-82.36995
"180","25801",2,"Beckley","WV",37.79064,-81.19958
"181","25812",1,"Ansted","WV",38.138419,-81.10403
"182","25823",2,"Coal City","WV",37.679582,-81.20968
"183","25827",1,"Crab Orchard","WV",37.733391,-81.23769
"184","25840",1,"Fayetteville","WV",38.059415,-81.11208
"185","25849",1,"Glen White","WV",37.731521,-81.28108
"186","25854",1,"Hico","WV",38.128245,-80.99151
"187","25862",1,"Lansing","WV",38.079509,-81.06238
"188","25868",1,"Lookout","WV",38.073479,-80.9522
"189","25880",1,"Mount Hope","WV",37.88169,-81.19273
"190","25901",1,"Oak Hill","WV",37.982775,-81.14533
"191","25921",1,"Sophia","WV",37.70708,-81.26263
"192","25938",1,"Victor","WV",38.151832,-81.05101
"193","25962",1,"Rainelle","WV",37.966816,-80.7889
"194","25976",1,"Meadow Bridge","WV",37.854735,-80.84199
"195","25981",1,"Quinwood","WV",38.07743,-80.72476
"196","26101",1,"Parkersburg","WV",39.265408,-81.53706
"197","26104",1,"Parkersburg","WV",39.285724,-81.52639
"198","26105",1,"Vienna","WV",39.323907,-81.54206
"199","26149",1,"Middlebourne","WV",39.481247,-80.87533
"200","26164",1,"Ravenswood","WV",38.977445,-81.72789
"201","26181",1,"Washington","WV",39.220948,-81.66508
"202","26205",1,"Craigsville","WV",38.330842,-80.64803
"203","26206",1,"Cowen","WV",38.424309,-80.53771
"204","26440",1,"Thornton","WV",39.329797,-79.90371
"205","26554",2,"Fairmont","WV",39.470949,-80.13936
"206","26591",1,"Worthington","WV",39.452034,-80.27599
"207","26651",1,"Summersville","WV",38.30696,-80.87329
"208","26662",1,"Canvas","WV",38.245298,-80.75434
"209","26667",1,"Drennen","WV",38.268633,-80.98148
"210","26676",1,"Leivasy","WV",38.153472,-80.66112
"211","26679",1,"Mount Nebo","WV",38.1755,-80.80897
"212","27292",1,"Lexington","NC",35.775789,-80.23174
"213","27360",1,"Thomasville","NC",35.871,-80.08603
"214","27370",1,"Trinity","NC",35.843856,-79.9849
"215","27832",1,"Gaston","NC",36.502541,-77.68887
"216","27842",1,"Henrico","NC",36.531252,-77.86277
"217","27870",3,"Roanoke Rapids","NC",36.448592,-77.67144
"218","27890",1,"Weldon","NC",36.421387,-77.60825
"219","28018",1,"Bostic","NC",35.441168,-81.7995
"220","28040",1,"Ellenboro","NC",35.346886,-81.75621
"221","28602",2,"Hickory","NC",35.70701,-81.3534
"222","28905",1,"Marble","NC",35.152197,-83.94231
"223","28906",1,"Murphy","NC",35.091332,-84.09018
"224","31548",1,"Kingsland","GA",30.793409,-81.68428
"225","31562",2,"Saint George","GA",30.5,-82.12
"226","31757",1,"Thomasville","GA",30.883208,-83.91237
"227","31792",1,"Thomasville","GA",30.817654,-83.98919
"228","31794",1,"Tifton","GA",31.459666,-83.51083
"229","32009",1,"Bryceville","FL",30.421425,-81.95741
"230","32024",2,"Lake City","FL",30.108128,-82.72529
"231","32025",1,"Lake City","FL",30.155229,-82.62165
"232","32034",1,"Fernandina Beach","FL",30.641487,-81.46092
"233","32038",2,"Fort White","FL",29.922221,-82.71425
"234","32040",3,"Glen Saint Mary","FL",30.272356,-82.21351
"235","32043",1,"Green Cove Springs","FL",29.97289,-81.72195
"236","32044",1,"Hampton","FL",29.863141,-82.15623
"237","32046",1,"Hilliard","FL",30.685319,-81.93061
"238","32054",1,"Lake Butler","FL",30.005135,-82.38103
"239","32055",1,"Lake City","FL",30.216073,-82.6396
"240","32058",1,"Lawtey","FL",30.061174,-82.0943
"241","32060",1,"Live Oak","FL",30.285127,-83.04106
"242","32061",1,"Lulu","FL",30.101542,-82.50337
"243","32062",2,"McAlpin","FL",30.13762,-82.98732
"244","32063",2,"Macclenny","FL",30.267664,-82.12457
"245","32064",1,"Live Oak","FL",30.331517,-82.957151
"246","32065",1,"Orange Park","FL",30.133007,-81.77904
"247","32066",2,"Mayo","FL",30.084849,-83.21849
"248","32068",1,"Middleburg","FL",30.074926,-81.87932
"249","32071",1,"O Brien","FL",30.039096,-82.94481
"250","32073",1,"Orange Park","FL",30.160965,-81.72916
"251","32087",1,"Sanderson","FL",30.390734,-82.26039
"252","32091",1,"Starke","FL",29.937512,-82.11706
"253","32094",1,"Wellborn","FL",30.203153,-82.81421
"254","32096",1,"White Springs","FL",30.366085,-82.76055
"255","32202",1,"Jacksonville","FL",30.328539,-81.65101
"256","32205",1,"Jacksonville","FL",30.307439,-81.72044
"257","32207",1,"Jacksonville","FL",30.294389,-81.6374
"258","32208",1,"Jacksonville","FL",30.392888,-81.67933
"259","32209",1,"Jacksonville","FL",30.354588,-81.69113
"260","32210",1,"Jacksonville","FL",30.268572,-81.73987
"261","32211",1,"Jacksonville","FL",30.333022,-81.586
"262","32216",1,"Jacksonville","FL",30.28374,-81.58359
"263","32217",1,"Jacksonville","FL",30.24354,-81.62098
"264","32218",1,"Jacksonville","FL",30.449096,-81.65651
"265","32219",1,"Jacksonville","FL",30.411564,-81.76653
"266","32221",1,"Jacksonville","FL",30.292631,-81.80502
"267","32225",1,"Jacksonville","FL",30.348585,-81.49965
"268","32234",1,"Jacksonville","FL",30.226463,-81.98364
"269","32244",1,"Jacksonville","FL",30.222489,-81.74894
"270","32246",1,"Jacksonville","FL",30.296911,-81.52228
"271","32250",2,"Jacksonville Beach","FL",30.284641,-81.39844
"272","32254",1,"Jacksonville","FL",30.336038,-81.72509
"273","32256",1,"Jacksonville","FL",30.206922,-81.54604
"274","32257",1,"Jacksonville","FL",30.192434,-81.60597
"275","32258",1,"Jacksonville","FL",30.148209,-81.56882
"276","32304",1,"Tallahassee","FL",30.446766,-84.32394
"277","32320",1,"Apalachicola","FL",29.71877,-85.02704
"278","32322",1,"Carrabelle","FL",29.912584,-84.6407
"279","32327",1,"Crawfordville","FL",30.194939,-84.35533
"280","32328",2,"Eastpoint","FL",29.825252,-84.89247
"281","32346",2,"Panacea","FL",29.983931,-84.38798
"282","32347",1,"Perry","FL",30.080602,-83.58119
"283","32348",1,"Perry","FL",29.966454,-83.659371
"284","32358",2,"Sopchoppy","FL",30.029899,-84.50595
"285","32359",1,"Steinhatchee","FL",29.673459,-83.38416
"286","32505",1,"Pensacola","FL",30.441994,-87.25472
"287","32506",1,"Pensacola","FL",30.408807,-87.31919
"288","32507",1,"Pensacola","FL",30.360887,-87.33451
"289","32534",1,"Pensacola","FL",30.526345,-87.27734
"290","32563",1,"Harold","FL",30.659159,-87.04972
"291","32643",1,"High Springs","FL",29.823616,-82.60407
"292","33021",1,"Hollywood","FL",26.023634,-80.18922
"293","33023",1,"Hollywood","FL",25.989119,-80.21318
"294","33025",1,"Hollywood","FL",25.990494,-80.27326
"295","33033",1,"Homestead","FL",25.487988,-80.42692
"296","33071",1,"Pompano Beach","FL",26.242559,-80.26564
"297","33142",1,"Miami","FL",25.812625,-80.2369
"298","33145",1,"Miami","FL",25.753177,-80.23327
"299","33169",1,"Miami","FL",25.94267,-80.21276
"300","33304",1,"Fort Lauderdale","FL",26.137693,-80.12646
"301","33305",3,"Fort Lauderdale","FL",26.153728,-80.12606
"302","33311",3,"Fort Lauderdale","FL",26.13883,-80.16865
"303","33312",1,"Fort Lauderdale","FL",26.094665,-80.17987
"304","33315",3,"Fort Lauderdale","FL",26.094385,-80.15422
"305","33321",1,"Fort Lauderdale","FL",26.211122,-80.2631
"306","33323",1,"Fort Lauderdale","FL",26.156854,-80.31408
"307","33324",1,"Fort Lauderdale","FL",26.110631,-80.27469
"308","33325",2,"Fort Lauderdale","FL",26.112924,-80.32097
"309","33334",1,"Fort Lauderdale","FL",26.182161,-80.13341
"310","33523",1,"Dade City","FL",28.433019,-82.19736
"311","33530",1,"Durant","FL",27.906823,-82.176749
"312","33540",1,"Zephyrhills","FL",28.235313,-82.16868
"313","33542",1,"Zephyrhills","FL",28.238489,-82.181913
"314","33543",1,"Zephyrhills","FL",28.187356,-82.31601
"315","33544",1,"Zephyrhills","FL",28.26658,-82.34222
"316","33549",1,"Lutz","FL",28.142694,-82.46629
"317","33559",1,"Land O' Lakes","FL",28.156536,-82.415275
"318","33563",1,"Plant City","FL",28.016971,-82.128584
"319","33569",1,"Riverview","FL",27.847802,-82.31799
"320","33573",1,"Sun City Center","FL",27.713353,-82.35965
"321","33579",1,"Riverview","FL",27.79,-82.29
"322","33596",1,"Valrico","FL",27.88,-82.24
"323","33602",1,"Tampa","FL",27.956149,-82.45723
"324","33603",1,"Tampa","FL",27.984198,-82.4627
"325","33604",1,"Tampa","FL",28.016846,-82.4566
"326","33605",1,"Tampa","FL",27.963849,-82.43193
"327","33609",1,"Tampa","FL",27.943549,-82.50656
"328","33610",1,"Tampa","FL",27.993498,-82.40914
"329","33611",1,"Tampa","FL",27.891151,-82.50581
"330","33612",1,"Tampa","FL",28.048595,-82.45171
"331","33613",1,"Tampa","FL",28.077994,-82.44989
"332","33615",1,"Tampa","FL",28.005446,-82.57776
"333","33617",1,"Tampa","FL",28.039096,-82.39371
"334","33619",1,"Tampa","FL",27.94605,-82.37525
"335","33624",1,"Tampa","FL",28.07506,-82.52355
"336","33626",1,"Tampa","FL",28.052799,-82.61135
"337","33629",1,"Tampa","FL",27.92085,-82.50916
"338","33634",1,"Tampa","FL",28.005497,-82.54936
"339","33647",1,"Tampa","FL",28.127973,-82.36123
"340","33655",1,"Tampa","FL",27.871964,-82.438841
"341","33702",2,"Saint Petersburg","FL",27.843052,-82.6449
"342","33703",2,"Saint Petersburg","FL",27.816977,-82.62795
"343","33704",2,"Saint Petersburg","FL",27.796454,-82.63751
"344","33705",4,"Saint Petersburg","FL",27.741306,-82.64349
"345","33706",1,"Saint Petersburg","FL",27.741505,-82.75179
"346","33707",2,"Saint Petersburg","FL",27.756505,-82.71764
"347","33708",4,"Saint Petersburg","FL",27.811626,-82.79321
"348","33710",3,"Saint Petersburg","FL",27.788637,-82.72244
"349","33712",3,"Saint Petersburg","FL",27.745355,-82.66572
"350","33713",1,"Saint Petersburg","FL",27.787904,-82.68039
"351","33714",1,"Saint Petersburg","FL",27.817323,-82.67612
"352","33715",2,"Saint Petersburg","FL",27.68301,-82.72096
"353","33716",1,"Saint Petersburg","FL",27.874324,-82.64515
"354","33755",1,"Clearwater","FL",27.979114,-82.78166
"355","33756",1,"Clearwater","FL",27.944631,-82.78702
"356","33761",1,"Clearwater","FL",28.032827,-82.72596
"357","33765",1,"Clearwater","FL",27.971362,-82.74482
"358","33770",1,"Largo","FL",27.916149,-82.80122
"359","33771",1,"Largo","FL",27.906088,-82.7553
"360","33772",1,"Seminole","FL",27.843349,-82.79307
"361","33773",1,"Largo","FL",27.883188,-82.75633
"362","33774",1,"Largo","FL",27.885283,-82.82607
"363","33777",2,"Largo","FL",27.851052,-82.76111
"364","33781",1,"Pinellas Park","FL",27.839802,-82.71094
"365","33782",1,"Pinellas Park","FL",27.861925,-82.71145
"366","33785",1,"Indian Rocks Beach","FL",27.887923,-82.84703
"367","33803",1,"Lakeland","FL",28.015032,-81.95206
"368","33805",1,"Lakeland","FL",28.071564,-81.95802
"369","33825",1,"Avon Park","FL",27.60047,-81.50932
"370","33844",1,"Haines City","FL",28.101527,-81.6235
"371","33852",1,"Lake Placid","FL",27.293327,-81.38206
"372","33857",1,"Lorida","FL",27.397067,-81.1411
"373","33860",1,"Mulberry","FL",27.884256,-81.97697
"374","33870",1,"Sebring","FL",27.483817,-81.42131
"375","33880",1,"Winter Haven","FL",27.997276,-81.74554
"376","33881",1,"Winter Haven","FL",28.051985,-81.72457
"377","33956",1,"Saint James City","FL",26.536435,-82.0915
"378","34203",1,"Bradenton","FL",27.448369,-82.52324
"379","34205",1,"Bradenton","FL",27.485617,-82.58294
"380","34207",1,"Bradenton","FL",27.438719,-82.57646
"381","34208",1,"Bradenton","FL",27.486448,-82.535
"382","34209",1,"Bradenton","FL",27.488866,-82.62737
"383","34210",1,"Bradenton","FL",27.455543,-82.63372
"384","34217",2,"Bradenton Beach","FL",27.499982,-82.7129
"385","34221",1,"Palmetto","FL",27.549314,-82.55981
"386","34222",1,"Ellenton","FL",27.532098,-82.5009
"387","34223",1,"Englewood","FL",26.974858,-82.3665
"388","34233",1,"Sarasota","FL",27.285142,-82.47363
"389","34234",1,"Sarasota","FL",27.365622,-82.53556
"390","34235",1,"Sarasota","FL",27.365549,-82.48659
"391","34272",1,"Laurel","FL",27.146963,-82.425512
"392","34275",1,"Nokomis","FL",27.136731,-82.45241
"393","34285",1,"Venice","FL",27.091783,-82.44846
"394","34292",1,"Venice","FL",27.098474,-82.41481
"395","34293",1,"Venice","FL",27.055013,-82.3973
"396","34428",1,"Crystal River","FL",28.95138,-82.61213
"397","34429",1,"Crystal River","FL",28.872108,-82.5961
"398","34446",1,"Homosassa","FL",28.746912,-82.53331
"399","34448",1,"Homosassa","FL",28.797979,-82.5912
"400","34452",1,"Inverness","FL",28.793722,-82.35021
"401","34461",1,"Lecanto","FL",28.848776,-82.48108
"402","34465",1,"Beverly Hills","FL",28.932403,-82.47641
"403","34601",2,"Brooksville","FL",28.566183,-82.38002
"404","34602",2,"Brooksville","FL",28.51589,-82.26576
"405","34604",3,"Spring Hill","FL",28.478994,-82.453508
"406","34606",1,"Spring Hill","FL",28.470236,-82.59741
"407","34607",1,"Spring Hill","FL",28.516609,-82.61302
"408","34608",1,"Spring Hill","FL",28.484316,-82.55181
"409","34609",1,"Brooksville","FL",28.475662,-82.50199
"410","34610",1,"Brooksville","FL",28.397791,-82.53084
"411","34613",2,"Brooksville","FL",28.555346,-82.53601
"412","34614",2,"Brooksville","FL",28.632101,-82.52181
"413","34638",1,"Land O Lakes","FL",28.27,-82.52
"414","34652",1,"New Port Richey","FL",28.237582,-82.72818
"415","34653",1,"New Port Richey","FL",28.248558,-82.69869
"416","34654",1,"New Port Richey","FL",28.295714,-82.61782
"417","34655",3,"New Port Richey","FL",28.209833,-82.66973
"418","34667",1,"Hudson","FL",28.372441,-82.66603
"419","34668",1,"Port Richey","FL",28.30073,-82.69698
"420","34669",1,"Hudson","FL",28.348507,-82.61937
"421","34677",2,"Oldsmar","FL",28.042799,-82.67737
"422","34683",1,"Palm Harbor","FL",28.076744,-82.76116
"423","34684",1,"Palm Harbor","FL",28.081325,-82.72751
"424","34685",1,"Palm Harbor","FL",28.099485,-82.69532
"425","34689",1,"Tarpon Springs","FL",28.149691,-82.75339
"426","34690",1,"Holiday","FL",28.190181,-82.72696
"427","34691",1,"Holiday","FL",28.19006,-82.75735
"428","34695",1,"Safety Harbor","FL",28.005639,-82.69511
"429","34698",1,"Dunedin","FL",28.025395,-82.77534
"430","35006",1,"Adger","AL",33.451714,-87.23957
"431","35023",1,"Bessemer","AL",33.443039,-87.0193
"432","35045",1,"Clanton","AL",32.834501,-86.64355
"433","35126",1,"Pinson","AL",33.728568,-86.66052
"434","35173",1,"Trussville","AL",33.623485,-86.58546
"435","35215",3,"Birmingham","AL",33.636102,-86.69506
"436","36024",1,"Eclectic","AL",32.697561,-86.016
"437","36091",1,"Verbena","AL",32.759543,-86.51111
"438","36502",1,"Atmore","AL",31.090528,-87.49715
"439","36750",1,"Maplesville","AL",32.789726,-86.8496
"440","36756",2,"Marion","AL",32.665966,-87.33889
"441","37303",1,"Athens","TN",35.441378,-84.61975
"442","37311",1,"Cleveland","TN",35.146362,-84.88723
"443","37312",1,"Cleveland","TN",35.219532,-84.86489
"444","37325",1,"Delano","TN",35.245578,-84.58812
"445","37331",1,"Etowah","TN",35.325991,-84.53015
"446","37341",1,"Harrison","TN",35.19154,-85.09827
"447","37353",1,"McDonald","TN",35.114036,-84.98535
"448","37363",1,"Ooltewah","TN",35.087881,-85.06005
"449","37385",1,"Tellico Plains","TN",35.345237,-84.27728
"450","37404",1,"Chattanooga","TN",35.030474,-85.2749
"451","37405",1,"Chattanooga","TN",35.081323,-85.31903
"452","37406",1,"Chattanooga","TN",35.065723,-85.25014
"453","37411",1,"Chattanooga","TN",35.023824,-85.2333
"454","37419",1,"Chattanooga","TN",35.031674,-85.37276
"455","37601",2,"Johnson City","TN",36.331006,-82.3386
"456","37604",1,"Johnson City","TN",36.312633,-82.3802
"457","37616",1,"Afton","TN",36.218863,-82.74704
"458","37641",1,"Chuckey","TN",36.21503,-82.6744
"459","37643",1,"Elizabethton","TN",36.355251,-82.18843
"460","37650",1,"Erwin","TN",36.128301,-82.4273
"461","37659",2,"Jonesborough","TN",36.293805,-82.49704
"462","37694",1,"Watauga","TN",36.376371,-82.278
"463","37743",1,"Greeneville","TN",36.102325,-82.85446
"464","37752",1,"Harrogate","TN",36.581713,-83.61278
"465","38501",1,"Cookeville","TN",36.1832,-85.52054
"466","38570",1,"Livingston","TN",36.376289,-85.32585
"467","38571",1,"Crossville","TN",36.04347,-85.094842
"468","39066",1,"Edwards","MS",32.295098,-90.60286
"469","39069",1,"Fayette","MS",31.707145,-91.05349
"470","39083",1,"Hazlehurst","MS",31.841281,-90.42995
"471","39120",1,"Natchez","MS",31.535545,-91.35434
"472","39154",1,"Raymond","MS",32.230592,-90.45709
"473","39168",1,"Taylorsville","MS",31.816868,-89.41533
"474","39175",1,"Utica","MS",32.105647,-90.61749
"475","39183",1,"Vicksburg","MS",32.386653,-90.84485
"476","39191",2,"Wesson","MS",31.714881,-90.39667
"477","39203",1,"Jackson","MS",32.308695,-90.19915
"478","39204",2,"Jackson","MS",32.284829,-90.22778
"479","39206",1,"Jackson","MS",32.365794,-90.17182
"480","39209",1,"Jackson","MS",32.325512,-90.25709
"481","39330",1,"Enterprise","MS",32.170432,-88.83866
"482","39355",1,"Quitman","MS",32.057969,-88.67069
"483","39360",1,"Shubuta","MS",31.863493,-88.74923
"484","39363",1,"Stonewall","MS",32.134826,-88.78589
"485","39401",1,"Hattiesburg","MS",31.285508,-89.2799
"486","39402",2,"Hattiesburg","MS",31.325437,-89.37926
"487","39426",3,"Carriere","MS",30.641521,-89.65929
"488","39429",1,"Columbia","MS",31.255242,-89.79264
"489","39437",1,"Ellisville","MS",31.588327,-89.21431
"490","39443",1,"Laurel","MS",31.719947,-89.11948
"491","39452",2,"Lucedale","MS",30.873353,-88.58869
"492","39455",1,"Lumberton","MS",31.035015,-89.49561
"493","39457",1,"McNeill","MS",30.666936,-89.673392
"494","39465",1,"Petal","MS",31.358823,-89.2279
"495","39466",2,"Picayune","MS",30.52798,-89.66611
"496","39470",1,"Poplarville","MS",30.810936,-89.56435
"497","39478",1,"Sandy Hook","MS",31.054236,-89.85553
"498","39479",1,"Seminary","MS",31.543388,-89.4648
"499","39482",1,"Sumrall","MS",31.376358,-89.58558
"500","39483",1,"Foxworth","MS",31.218509,-89.90761
"501","39501",3,"Gulfport","MS",30.380597,-89.09626
"502","39502",1,"Gulfport","MS",30.415795,-89.068448
"503","39503",1,"Gulfport","MS",30.461786,-89.10381
"504","39506",1,"Gulfport","MS",30.415795,-89.068448
"505","39507",1,"Gulfport","MS",30.397044,-89.03998
"506","39520",6,"Bay Saint Louis","MS",30.304327,-89.40705
"507","39525",1,"Diamondhead","MS",30.382544,-89.36958
"508","39529",1,"Stennis Space Center","MS",30.403156,-89.49821
"509","39530",1,"Biloxi","MS",30.399148,-88.88917
"510","39531",1,"Biloxi","MS",30.405831,-88.96219
"511","39532",2,"Biloxi","MS",30.462388,-88.93293
"512","39540",1,"D'Iberville","MS",30.444267,-88.899207
"513","39552",2,"Escatawpa","MS",30.441072,-88.634482
"514","39553",1,"Gautier","MS",30.400599,-88.65092
"515","39556",1,"Kiln","MS",30.429334,-89.43471
"516","39560",2,"Long Beach","MS",30.356147,-89.16346
"517","39561",1,"McHenry","MS",30.704034,-89.15395
"518","39562",2,"Moss Point","MS",30.522009,-88.50312
"519","39563",1,"Moss Point","MS",30.410999,-88.52514
"520","39564",1,"Ocean Springs","MS",30.403286,-88.77565
"521","39565",2,"Ocean Springs","MS",30.566715,-88.76018
"522","39567",1,"Pascagoula","MS",30.362203,-88.5469
"523","39571",1,"Pass Christian","MS",30.371623,-89.27038
"524","39572",1,"Pearlington","MS",30.249994,-89.60493
"525","39573",4,"Perkinston","MS",30.710795,-89.09325
"526","39574",2,"Saucier","MS",30.600244,-89.11948
"527","39576",1,"Waveland","MS",30.289646,-89.38349
"528","39577",2,"Wiggins","MS",30.94336,-89.17912
"529","39581",2,"Pascagoula","MS",30.36298,-88.52901
"530","39601",1,"Brookhaven","MS",31.574319,-90.45029
"531","39629",1,"Bogue Chitto","MS",31.441613,-90.45281
"532","39631",1,"Centreville","MS",31.078189,-91.07723
"533","39633",1,"Crosby","MS",31.296257,-91.12921
"534","39641",2,"Jayess","MS",31.363848,-90.17457
"535","39643",1,"Kokomo","MS",31.231448,-90.02263
"536","39644",1,NA,NA,NA,NA
"537","39645",1,"Liberty","MS",31.148177,-90.79859
"538","39647",1,"McCall Creek","MS",31.509919,-90.69788
"539","39648",1,"Mccomb","MS",31.225598,-90.43327
"540","39649",1,"Mccomb","MS",31.17494,-90.403987
"541","39652",3,"Magnolia","MS",31.117097,-90.45287
"542","39657",2,"Osyka","MS",31.028259,-90.4588
"543","39661",1,"Roxie","MS",31.487982,-91.08403
"544","39664",1,"Smithdale","MS",31.328058,-90.67792
"545","39666",1,"Summit","MS",31.292262,-90.45228
"546","39667",2,"Tylertown","MS",31.131018,-90.12856
"547","39669",1,"Woodville","MS",31.120979,-91.35511
"548","40006",1,"Bedford","KY",38.597624,-85.33889
"549","40313",1,"Clearfield","KY",38.156248,-83.41586
"550","40316",1,"Denniston","KY",37.933123,-83.52303
"551","40322",1,"Frenchburg","KY",37.937105,-83.63429
"552","40337",1,"Jeffersonville","KY",37.9615,-83.8438
"553","40351",1,"Morehead","KY",38.19056,-83.4321
"554","40353",1,"Mount Sterling","KY",38.061248,-83.92964
"555","40371",1,"Salt Lick","KY",38.087867,-83.61146
"556","40387",1,"Wellington","KY",37.929101,-83.49464
"557","40729",1,"East Bernstadt","KY",37.231717,-84.13026
"558","40741",1,"London","KY",37.143828,-84.07839
"559","41006",2,"Butler","KY",38.796981,-84.33792
"560","41007",3,"California","KY",38.910255,-84.28194
"561","41008",1,"Carrollton","KY",38.663328,-85.16803
"562","41030",2,"Crittenden","KY",38.788439,-84.602
"563","41031",1,"Cynthiana","KY",38.397678,-84.2939
"564","41033",1,"De Mossville","KY",38.773111,-84.44889
"565","41063",2,"Morning View","KY",38.842166,-84.48802
"566","41124",1,"Blaine","KY",38.028476,-82.84781
"567","41159",1,"Martha","KY",38.019104,-82.9507
"568","41201",1,"Adams","KY",38.076051,-82.73975
"569","41203",1,"Beauty","KY",37.846064,-82.44835
"570","41214",1,"Debord","KY",37.775385,-82.57034
"571","41222",3,"Hagerhill","KY",37.780917,-82.82744
"572","41224",1,"Inez","KY",37.866327,-82.52903
"573","41226",1,"Keaton","KY",37.992794,-82.94551
"574","41230",1,"Louisa","KY",38.071237,-82.64062
"575","41231",1,"Lovely","KY",37.810757,-82.39411
"576","41234",1,"Meally","KY",37.795418,-82.7337
"577","41240",3,"Paintsville","KY",37.823275,-82.78167
"578","41254",1,"River","KY",37.887278,-82.73688
"579","41256",1,"Staffordsville","KY",37.832617,-82.86299
"580","41260",1,"Thelma","KY",37.831324,-82.76039
"581","41262",1,"Tomahawk","KY",37.855873,-82.62091
"582","41268",2,"West Van Lear","KY",37.789291,-82.78437
"583","41301",1,"Campton","KY",37.716311,-83.51835
"584","41332",2,"Hazel Green","KY",37.797688,-83.36866
"585","41352",1,"Mize","KY",37.914002,-83.233761
"586","41365",1,"Rogers","KY",37.711278,-83.63647
"587","41408",1,"Cannel City","KY",37.792272,-83.28137
"588","41425",1,"Ezel","KY",37.891486,-83.44413
"589","41465",1,"Salyersville","KY",37.736751,-83.08652
"590","41472",1,"West Liberty","KY",37.932283,-83.23821
"591","42642",1,"Russell Springs","KY",37.05401,-85.06142
"592","42726",1,"Clarkson","KY",37.429456,-86.16448
"593","42748",1,"Hodgenville","KY",37.566527,-85.71452
"594","45106",1,"Bethel","OH",38.956484,-84.08093
"595","45130",2,"Hamersville","OH",38.914118,-83.99496
"596","45153",1,"Moscow","OH",38.8702,-84.2025
"597","45205",1,"Cincinnati","OH",39.11071,-84.57438
"598","45863",1,"Middle Point","OH",40.892251,-84.45548
"599","45880",1,"Payne","OH",41.072614,-84.7317
"600","45891",1,"Van Wert","OH",40.874092,-84.57871
"601","46153",1,NA,NA,NA,NA
"602","46733",1,"Decatur","IN",40.831351,-84.93704
"603","46743",1,"Harlan","IN",41.215338,-84.85575
"604","46748",1,"Huntertown","IN",41.243248,-85.16711
"605","46788",1,"Spencerville","IN",41.267553,-84.93525
"606","46802",1,"Fort Wayne","IN",41.071681,-85.15101
"607","46803",1,"Fort Wayne","IN",41.070498,-85.10706
"608","46805",2,"Fort Wayne","IN",41.098248,-85.12061
"609","46806",2,"Fort Wayne","IN",41.048148,-85.11114
"610","46807",1,"Fort Wayne","IN",41.046848,-85.14481
"611","46815",1,"Fort Wayne","IN",41.105691,-85.06509
"612","46816",1,"Fort Wayne","IN",41.006281,-85.0692
"613","46818",1,"Fort Wayne","IN",41.148298,-85.22159
"614","46819",1,"Fort Wayne","IN",40.993914,-85.14262
"615","46825",1,"Fort Wayne","IN",41.150677,-85.12181
"616","47023",1,"Holton","IN",39.07308,-85.38747
"617","47106",2,"Borden","IN",38.457573,-85.91774
"618","47120",1,"Fredericksburg","IN",38.435326,-86.18702
"619","47125",1,"Hardinsburg","IN",38.461255,-86.2983
"620","47126",1,"Henryville","IN",38.544777,-85.7737
"621","47138",2,"Lexington","IN",38.678365,-85.6097
"622","47141",1,"Marysville","IN",38.543388,-85.60373
"623","47143",1,"Memphis","IN",38.473919,-85.76702
"624","47147",2,"Nabb","IN",38.591735,-85.53195
"625","47163",1,"Otisco","IN",38.544512,-85.66831
"626","47165",2,"Pekin","IN",38.49903,-86.01293
"627","47167",1,"Salem","IN",38.605039,-86.08928
"628","47170",1,"Scottsburg","IN",38.684426,-85.80304
"629","47177",1,"Underwood","IN",38.603451,-85.76711
"630","47243",1,"Hanover","IN",38.699654,-85.47234
"631","47610",1,"Chandler","IN",38.047188,-87.39041
"632","47630",1,"Newburgh","IN",37.958873,-87.37998
"633","47660",2,"Oakland City","IN",38.323439,-87.34145
"634","48411",1,"Atlas","MI",42.940019,-83.536923
"635","48428",1,"Dryden","MI",42.936145,-83.13471
"636","48438",1,"Goodrich","MI",42.911611,-83.48421
"637","48439",1,"Grand Blanc","MI",42.925677,-83.63585
"638","48473",1,"Swartz Creek","MI",42.950128,-83.82612
"639","48503",1,"Flint","MI",43.011227,-83.69291
"640","48504",1,"Flint","MI",43.043627,-83.73126
"641","48505",1,"Flint","MI",43.062076,-83.69728
"642","48507",1,"Flint","MI",42.973263,-83.70142
"643","48532",1,"Flint","MI",43.005477,-83.76098
"644","51040",1,"Onawa","IA",42.027176,-96.11875
"645","51055",1,"Sloan","IA",42.221763,-96.24606
"646","51063",1,"Whiting","IA",42.137272,-96.16648
"647","51501",1,"Council Bluffs","IA",41.251631,-95.87447
"648","51503",2,"Council Bluffs","IA",41.2544,-95.79062
"649","51510",1,"Carter Lake","IA",41.292647,-95.91398
"650","51523",1,"Blencoe","IA",41.9134,-96.085
"651","51526",1,"Crescent","IA",41.362096,-95.87321
"652","51542",1,"Honey Creek","IA",41.427994,-95.84004
"653","51555",2,"Missouri Valley","IA",41.557887,-95.90651
"654","51556",1,"Modale","IA",41.64243,-96.02872
"655","51557",1,"Mondamin","IA",41.739005,-95.99657
"656","51561",3,"Pacific Junction","IA",41.022849,-95.80303
"657","51640",1,"Hamburg","IA",40.622159,-95.66736
"658","51648",1,"Percival","IA",40.741715,-95.7976
"659","51654",1,"Thurman","IA",40.836473,-95.76463
"660","54843",1,"Hayward","WI",46.005082,-91.35255
"661","54874",1,"South Range","WI",46.58521,-91.95129
"662","54880",4,"Superior","WI",46.684273,-92.09474
"663","55616",1,"Two Harbors","MN",47.077723,-91.66464
"664","55707",4,"Barnum","MN",46.533977,-92.62697
"665","55711",1,"Brookston","MN",46.870672,-92.65082
"666","55718",4,"Carlton","MN",46.649697,-92.48477
"667","55720",3,"Cloquet","MN",46.727077,-92.48612
"668","55726",2,"Cromwell","MN",46.667284,-92.87081
"669","55733",3,"Esko","MN",46.708371,-92.36434
"670","55736",2,"Floodwood","MN",46.929033,-92.90614
"671","55748",1,"Hill City","MN",46.956138,-93.60042
"672","55757",1,"Kettle River","MN",46.512349,-92.92803
"673","55760",1,"Mcgregor","MN",46.67746,-93.28391
"674","55767",2,"Moose Lake","MN",46.44429,-92.7699
"675","55779",3,"Saginaw","MN",46.908416,-92.44913
"676","55783",2,"Sturgeon Lake","MN",46.379971,-92.82748
"677","55787",1,"Tamarack","MN",46.679313,-93.13241
"678","55795",4,"Willow River","MN",46.317812,-92.84315
"679","55797",2,"Wrenshall","MN",46.534005,-92.41983
"680","55798",1,"Wright","MN",46.723028,-92.96594
"681","55801",1,"Duluth","MN",47.005566,-92.001934
"682","55802",1,"Duluth","MN",46.774593,-92.09206
"683","55803",2,"Duluth","MN",46.972432,-92.10105
"684","55804",2,"Duluth","MN",46.86242,-91.98342
"685","55805",2,"Duluth","MN",46.798339,-92.09568
"686","55806",2,"Duluth","MN",46.770773,-92.12718
"687","55807",2,"Duluth","MN",46.738841,-92.16969
"688","55808",2,"Duluth","MN",46.674141,-92.2276
"689","55810",6,"Duluth","MN",46.753414,-92.24355
"690","55811",5,"Duluth","MN",46.821489,-92.18242
"691","55812",2,"Duluth","MN",46.809438,-92.07319
"692","56431",1,"Aitkin","MN",46.507241,-93.66458
"693","59003",1,"Ashland","MT",45.486308,-106.33169
"694","59072",1,"Roundup","MT",46.53932,-108.53775
"695","62922",1,"Creal Springs","IL",37.613705,-88.83922
"696","62946",1,"Harrisburg","IL",37.725834,-88.54208
"697","63301",2,"Saint Charles","MO",38.808583,-90.50687
"698","65590",1,"Long Lane","MO",37.61082,-92.94184
"699","65616",1,"Branson","MO",36.64417,-93.25668
"700","65622",1,"Buffalo","MO",37.630577,-93.10129
"701","65644",1,"Elkland","MO",37.509611,-93.03846
"702","65672",1,"Hollister","MO",36.600309,-93.23552
"703","65686",1,"Kimberling City","MO",36.63101,-93.43392
"704","65737",2,"Reeds Spring","MO",36.693007,-93.37153
"705","66431",1,"Harveyville","KS",38.810071,-95.98397
"706","67031",1,"Conway Springs","KS",37.400431,-97.65338
"707","67207",1,"Wichita","KS",37.669803,-97.23289
"708","67208",1,"Wichita","KS",37.701997,-97.28114
"709","67210",1,"Wichita","KS",37.638946,-97.26652
"710","67216",1,"Wichita","KS",37.619858,-97.31751
"711","70001",2,"Metairie","LA",29.984096,-90.16902
"712","70002",1,"Metairie","LA",30.011517,-90.16245
"713","70003",1,"Metairie","LA",29.997168,-90.2138
"714","70005",1,"Metairie","LA",29.999453,-90.13398
"715","70006",1,"Metairie","LA",30.013985,-90.19128
"716","70030",4,"Des Allemands","LA",29.810193,-90.44769
"717","70031",1,"Ama","LA",29.942703,-90.29969
"718","70032",1,"Arabi","LA",29.958802,-89.99902
"719","70036",1,"Barataria","LA",29.715795,-90.12419
"720","70037",7,"Belle Chasse","LA",29.822707,-90.00616
"721","70038",2,"Boothville","LA",29.307982,-89.38007
"722","70039",3,"Boutte","LA",29.900075,-90.38655
"723","70040",5,"Braithwaite","LA",29.749706,-89.94043
"724","70041",4,"Buras","LA",29.351783,-89.51381
"725","70043",3,"Chalmette","LA",29.946404,-89.96118
"726","70047",1,"Destrehan","LA",29.969128,-90.37563
"727","70049",1,"Edgard","LA",30.033974,-90.5538
"728","70050",1,"Empire","LA",29.384033,-89.59696
"729","70051",1,"Garyville","LA",30.058276,-90.61738
"730","70052",1,"Gramercy","LA",30.053907,-90.68915
"731","70053",1,"Gretna","LA",29.915355,-90.05335
"732","70054",1,"Gretna","LA",29.677893,-90.0901
"733","70056",6,"Gretna","LA",29.894261,-90.03072
"734","70057",2,"Hahnville","LA",29.967081,-90.41012
"735","70058",5,"Harvey","LA",29.878578,-90.06903
"736","70059",1,"Harvey","LA",29.677893,-90.0901
"737","70062",3,"Kenner","LA",29.991051,-90.2469
"738","70065",3,"Kenner","LA",30.022853,-90.25133
"739","70067",5,"Lafitte","LA",29.652752,-90.1012
"740","70068",11,"La Place","LA",30.073941,-90.48516
"741","70069",1,"La Place","LA",30.091158,-90.483189
"742","70070",1,"Luling","LA",29.907162,-90.35142
"743","70071",1,"Lutcher","LA",30.04401,-90.69956
"744","70072",7,"Marrero","LA",29.869283,-90.10933
"745","70075",1,"Meraux","LA",29.935089,-89.92089
"746","70076",3,"Mount Airy","LA",30.055429,-90.64073
"747","70078",1,"New Sarpy","LA",29.981674,-90.38595
"748","70079",1,"Norco","LA",30.007089,-90.41389
"749","70080",1,"Paradis","LA",29.878373,-90.43063
"750","70082",5,"Pointe A La Hache","LA",29.572751,-89.78139
"751","70083",9,"Port Sulphur","LA",29.529091,-89.7883
"752","70084",2,"Reserve","LA",30.059516,-90.55987
"753","70085",5,"Saint Bernard","LA",29.86089,-89.82225
"754","70086",4,"Saint James","LA",30.013027,-90.85714
"755","70087",5,"Saint Rose","LA",29.962601,-90.30965
"756","70090",3,"Vacherie","LA",29.979997,-90.71178
"757","70091",2,"Venice","LA",29.277457,-89.35898
"758","70092",4,"Violet","LA",29.902193,-89.89726
"759","70094",7,"Westwego","LA",29.91534,-90.17737
"760","70112",1,"New Orleans","LA",29.956804,-90.07757
"761","70113",1,"New Orleans","LA",29.943505,-90.08408
"762","70114",4,"New Orleans","LA",29.938155,-90.03667
"763","70115",2,"New Orleans","LA",29.927305,-90.10197
"764","70116",1,"New Orleans","LA",29.968054,-90.06403
"765","70117",1,"New Orleans","LA",29.970404,-90.03036
"766","70118",1,"New Orleans","LA",29.952305,-90.12347
"767","70119",2,"New Orleans","LA",29.974504,-90.08747
"768","70121",2,"New Orleans","LA",29.961875,-90.16037
"769","70122",2,"New Orleans","LA",30.006353,-90.06264
"770","70123",4,"New Orleans","LA",29.952605,-90.20536
"771","70124",1,"New Orleans","LA",30.006003,-90.10947
"772","70125",1,"New Orleans","LA",29.951705,-90.10411
"773","70126",1,"New Orleans","LA",30.016002,-90.01972
"774","70127",1,"New Orleans","LA",30.033475,-89.97736
"775","70128",1,"New Orleans","LA",30.05031,-89.95638
"776","70129",1,"New Orleans","LA",30.063059,-89.88511
"777","70130",2,"New Orleans","LA",29.938005,-90.07195
"778","70131",5,"New Orleans","LA",29.917005,-89.98982
"779","70141",1,"New Orleans","LA",29.677893,-90.0901
"780","70148",1,"New Orleans","LA",30.030902,-90.068022
"781","70174",1,"New Orleans","LA",30.032997,-89.882564
"782","70216",1,NA,NA,NA,NA
"783","70231",1,NA,NA,NA,NA
"784","70301",3,"Thibodaux","LA",29.797776,-90.81809
"785","70340",1,"Amelia","LA",29.688425,-91.220844
"786","70341",1,"Belle Rose","LA",30.030819,-91.07576
"787","70342",1,"Berwick","LA",29.692515,-91.22938
"788","70343",2,"Bourg","LA",29.553952,-90.59881
"789","70344",2,"Chauvin","LA",29.385126,-90.61939
"790","70345",2,"Cut Off","LA",29.523897,-90.34043
"791","70346",1,"Donaldsonville","LA",30.103905,-91.00104
"792","70353",1,"Dulac","LA",29.384672,-90.69689
"793","70354",1,"Galliano","LA",29.435146,-90.30479
"794","70355",1,"Gheens","LA",29.670214,-90.46202
"795","70356",1,"Gibson","LA",29.658394,-90.97455
"796","70357",1,"Golden Meadow","LA",29.275485,-90.24378
"797","70358",1,"Grand Isle","LA",29.227769,-90.01211
"798","70359",2,"Gray","LA",29.696636,-90.77238
"799","70360",1,"Houma","LA",29.593377,-90.7475
"800","70363",1,"Houma","LA",29.560581,-90.6903
"801","70364",2,"Houma","LA",29.626988,-90.72076
"802","70372",1,"Labadieville","LA",29.829135,-90.9636
"803","70373",1,"Larose","LA",29.535139,-90.44546
"804","70374",2,"Lockport","LA",29.620122,-90.49218
"805","70375",1,"Mathews","LA",29.697038,-90.55223
"806","70377",2,"Montegut","LA",29.428462,-90.52556
"807","70380",2,"Morgan City","LA",29.694806,-91.18252
"808","70381",1,"Morgan City","LA",29.694629,-91.259347
"809","70390",2,"Napoleonville","LA",29.91599,-91.02187
"810","70391",1,"Paincourtville","LA",29.990967,-91.05456
"811","70392",1,"Patterson","LA",29.69828,-91.31347
"812","70393",1,"Plattenville","LA",29.995157,-91.02586
"813","70394",1,"Raceland","LA",29.715302,-90.6097
"814","70395",1,"Schriever","LA",29.718856,-90.83425
"815","70397",2,"Theriot","LA",29.352141,-90.82604
"816","70401",1,"Hammond","LA",30.517866,-90.47254
"817","70403",3,"Hammond","LA",30.484785,-90.4762
"818","70404",1,"Hammond","LA",30.505061,-90.422504
"819","70420",1,"Abita Springs","LA",30.482725,-90.00103
"820","70421",5,"Akers","LA",30.612371,-90.405312
"821","70422",4,"Amite","LA",30.723034,-90.52108
"822","70426",1,"Angie","LA",30.932125,-89.86251
"823","70427",2,"Bogalusa","LA",30.762908,-89.87774
"824","70431",1,"Bush","LA",30.613004,-89.93089
"825","70433",1,"Covington","LA",30.470793,-90.10491
"826","70435",1,"Covington","LA",30.53978,-90.07953
"827","70436",1,"Fluker","LA",30.793858,-90.51026
"828","70437",2,"Folsom","LA",30.616777,-90.1898
"829","70438",1,"Franklinton","LA",30.844465,-90.12066
"830","70441",1,"Greensburg","LA",30.867259,-90.74688
"831","70442",2,"Husser","LA",30.686968,-90.32332
"832","70443",3,"Independence","LA",30.628735,-90.51744
"833","70444",2,"Kentwood","LA",30.923938,-90.50206
"834","70445",4,"Lacombe","LA",30.327126,-89.93118
"835","70446",2,"Loranger","LA",30.623502,-90.35689
"836","70447",1,"Madisonville","LA",30.424049,-90.18519
"837","70448",1,"Mandeville","LA",30.367119,-90.05999
"838","70449",2,"Maurepas","LA",30.272335,-90.72701
"839","70450",2,"Mount Hermon","LA",30.944302,-90.26252
"840","70451",1,"Natalbany","LA",30.546528,-90.48375
"841","70452",1,"Pearl River","LA",30.401481,-89.76917
"842","70454",1,"Ponchatoula","LA",30.427599,-90.41728
"843","70455",1,"Robert","LA",30.520782,-90.30638
"844","70456",1,"Roseland","LA",30.769493,-90.51064
"845","70458",2,"Slidell","LA",30.269565,-89.77587
"846","70460",1,"Slidell","LA",30.298048,-89.81176
"847","70461",1,"Slidell","LA",30.266707,-89.73049
"848","70462",3,"Springfield","LA",30.386031,-90.57297
"849","70463",1,"Sun","LA",30.658471,-89.90398
"850","70465",1,"Tangipahoa","LA",30.875453,-90.51254
"851","70466",1,"Tickfaw","LA",30.560995,-90.50196
"852","70471",1,"Mandeville","LA",30.400949,-90.08105
"853","70507",1,"Lafayette","LA",30.2786,-92.02759
"854","70510",1,"Abbeville","LA",29.943573,-92.14872
"855","70512",2,"Arnaudville","LA",30.411741,-91.91702
"856","70514",2,"Baldwin","LA",29.841827,-91.54679
"857","70517",1,"Breaux Bridge","LA",30.301254,-91.86169
"858","70520",2,"Carencro","LA",30.327199,-92.0433
"859","70525",2,"Church Point","LA",30.414588,-92.21772
"860","70538",1,"Franklin","LA",29.759314,-91.52561
"861","70544",2,"Jeanerette","LA",29.910582,-91.6698
"862","70549",1,"Lake Arthur","LA",30.082515,-92.72596
"863","70560",1,"New Iberia","LA",29.975453,-91.84073
"864","70570",1,"Opelousas","LA",30.530965,-92.09521
"865","70584",1,"Sunset","LA",30.394648,-92.07786
"866","70634",1,"Deridder","LA",30.835881,-93.27071
"867","70706",1,"Denham Springs","LA",30.608471,-90.92758
"868","70714",1,"Baker","LA",30.584787,-91.14763
"869","70715",1,"Batchelor","LA",30.822847,-91.70531
"870","70719",1,"Brusly","LA",30.384402,-91.25549
"871","70723",1,"Convent","LA",30.063433,-90.84644
"872","70725",1,"Darrow","LA",30.130584,-90.95909
"873","70726",4,"Denham Springs","LA",30.468526,-90.92827
"874","70730",1,"Ethel","LA",30.810733,-91.11541
"875","70733",1,"French Settlement","LA",30.307865,-90.80054
"876","70734",1,"Geismar","LA",30.211172,-91.00875
"877","70737",1,"Gonzales","LA",30.229237,-90.92251
"878","70739",1,"Greenwell Springs","LA",30.585687,-90.98014
"879","70740",1,"Grosse Tete","LA",30.399271,-91.42148
"880","70743",1,"Hester","LA",30.019278,-90.77619
"881","70744",2,"Holden","LA",30.535477,-90.67464
"882","70754",2,"Livingston","LA",30.447866,-90.75228
"883","70755",1,"Livonia","LA",30.568308,-91.55075
"884","70757",2,"Maringouin","LA",30.483791,-91.51619
"885","70760",1,"New Roads","LA",30.700337,-91.44032
"886","70761",1,"Norwood","LA",30.972292,-91.07895
"887","70763",1,"Paulina","LA",30.03318,-90.73674
"888","70764",1,"Plaquemine","LA",30.270694,-91.24853
"889","70767",1,"Port Allen","LA",30.473536,-91.26324
"890","70769",2,"Prairieville","LA",30.31144,-90.93955
"891","70770",1,"Pride","LA",30.642585,-90.99489
"892","70772",1,"Rosedale","LA",30.439483,-91.46806
"893","70774",2,"Saint Amant","LA",30.212699,-90.81947
"894","70775",1,"Saint Francisville","LA",30.857355,-91.37308
"895","70776",1,"Saint Gabriel","LA",30.264611,-91.09595
"896","70777",1,"Slaughter","LA",30.722133,-91.10915
"897","70778",1,"Sorrento","LA",30.182068,-90.85707
"898","70785",1,"Walker","LA",30.521962,-90.84035
"899","70788",1,"White Castle","LA",30.153959,-91.1593
"900","70791",1,"Zachary","LA",30.655578,-91.14015
"901","70802",1,"Baton Rouge","LA",30.44629,-91.17305
"902","70805",1,"Baton Rouge","LA",30.485639,-91.15612
"903","70806",1,"Baton Rouge","LA",30.44495,-91.13806
"904","70807",1,"Baton Rouge","LA",30.534088,-91.17865
"905","70808",1,"Baton Rouge","LA",30.411391,-91.1497
"906","70810",1,"Baton Rouge","LA",30.361609,-91.09041
"907","70811",1,"Baton Rouge","LA",30.525121,-91.13185
"908","70814",1,"Baton Rouge","LA",30.484756,-91.06862
"909","70815",1,"Baton Rouge","LA",30.45514,-91.06358
"910","70816",1,"Baton Rouge","LA",30.425791,-91.03815
"911","70817",1,"Baton Rouge","LA",30.387642,-90.99921
"912","70818",1,"Baton Rouge","LA",30.537938,-91.04812
"913","70819",1,"Baton Rouge","LA",30.46534,-91.01659
"914","70820",1,"Baton Rouge","LA",30.373865,-91.17065
"915","71031",1,"Goldonna","LA",32.01716,-92.9059
"916","71446",1,"Leesville","LA",31.138723,-93.22745
"917","71454",1,"Montgomery","LA",31.671252,-92.85932
"918","73012",1,"Bray","OK",34.48532,-97.852223
"919","73026",1,"Norman","OK",35.22704,-97.28198
"920","73068",1,"Noble","OK",35.138421,-97.32689
"921","73071",1,"Norman","OK",35.225702,-97.42394
"922","73103",1,"Oklahoma City","OK",35.489709,-97.51819
"923","73106",1,"Oklahoma City","OK",35.482309,-97.53499
"924","73107",1,"Oklahoma City","OK",35.484558,-97.57336
"925","73118",1,"Oklahoma City","OK",35.515008,-97.53106
"926","73135",1,"Oklahoma City","OK",35.40017,-97.43249
"927","73801",1,"Woodward","OK",36.433665,-99.40838
"928","73840",1,"Fargo","OK",36.403804,-99.64674
"929","74004",1,"Bartlesville","OK",36.711386,-95.894042
"930","74010",1,"Bristow","OK",35.843486,-96.38183
"931","74030",1,"Drumright","OK",35.987421,-96.58776
"932","74038",1,"Jennings","OK",36.164934,-96.56083
"933","74044",1,"Mannford","OK",36.111943,-96.37159
"934","74079",1,"Stroud","OK",35.744531,-96.66342
"935","74801",1,"Shawnee","OK",35.327341,-96.93544
"936","74804",1,"Shawnee","OK",35.375188,-96.93162
"937","74832",1,"Carney","OK",35.815581,-97.01061
"938","74834",1,"Chandler","OK",35.702159,-96.88961
"939","74851",2,"Mcloud","OK",35.4122,-97.0984
"940","74855",2,"Meeker","OK",35.507952,-96.89689
"941","74860",1,"Paden","OK",35.514019,-96.56969
"942","74864",1,"Prague","OK",35.490727,-96.69141
"943","74881",1,"Wellston","OK",35.694734,-97.07043
"944","75019",1,"Coppell","TX",32.967341,-96.98656
"945","75052",1,"Grand Prairie","TX",32.675604,-97.02346
"946","75126",1,"Forney","TX",32.745373,-96.46038
"947","75134",1,"Lancaster","TX",32.620385,-96.7812
"948","75146",1,"Lancaster","TX",32.590063,-96.75892
"949","75189",1,"Royse City","TX",32.960512,-96.31278
"950","75217",1,"Dallas","TX",32.72238,-96.67582
"951","75227",1,"Dallas","TX",32.77003,-96.69
"952","76001",1,"Arlington","TX",32.634203,-97.14403
"953","76010",1,"Arlington","TX",32.723382,-97.08498
"954","76014",1,"Arlington","TX",32.694666,-97.08748
"955","76016",1,"Arlington","TX",32.686863,-97.19234
"956","76017",1,"Arlington","TX",32.659277,-97.16435
"957","76018",1,"Arlington","TX",32.65392,-97.08724
"958","76058",1,"Joshua","TX",32.461964,-97.40774
"959","76060",1,"Kennedale","TX",32.645257,-97.21458
"960","77004",1,"Houston","TX",29.728779,-95.3657
"961","77021",1,"Houston","TX",29.695879,-95.3573
"962","77028",1,"Houston","TX",29.827315,-95.28631
"963","77037",1,"Houston","TX",29.885451,-95.39552
"964","77045",1,"Houston","TX",29.629111,-95.43841
"965","77047",1,"Houston","TX",29.616182,-95.37767
"966","77051",1,"Houston","TX",29.66543,-95.36871
"967","77088",1,"Houston","TX",29.879213,-95.45028
"968","77089",1,"Houston","TX",29.589831,-95.22251
"969","77096",1,"Houston","TX",29.674336,-95.48123
"970","77356",1,"Montgomery","TX",30.412229,-95.6529
"971","77447",1,"Hockley","TX",30.065152,-95.8144
"972","77489",1,"Missouri City","TX",29.601141,-95.51772
"973","80512",1,"Bellvue","CO",40.700258,-105.64876
"974","80517",1,"Estes Park","CO",40.370415,-105.51722
"975","80536",1,"Livermore","CO",40.878334,-105.40415
"976","80809",1,"Cascade","CO",38.911701,-104.98731
"977","80919",4,"Colorado Springs","CO",38.925451,-104.85255
"978","88312",2,"Alto","NM",33.420542,-105.63599
"979","88316",2,"Capitan","NM",33.722955,-105.41326
"980","88341",1,"Nogal","NM",33.520074,-105.73072
"981","88345",1,"Ruidoso","NM",33.350032,-105.66637
"982","89519",1,"Reno","NV",39.52,-119.81
"983","89521",1,"Reno","NV",39.395387,-119.72735
"984","89704",2,"Washoe Valley","NV",39.27521,-119.7908
"985","90003",1,"Los Angeles","CA",33.962714,-118.276
"986","90032",1,"Los Angeles","CA",34.08166,-118.17568
"987","90039",1,"Los Angeles","CA",34.110425,-118.25832
"988","90041",2,"Los Angeles","CA",34.137557,-118.20765
"989","90042",1,"Los Angeles","CA",34.114558,-118.19233
"990","90046",1,"Los Angeles","CA",34.098908,-118.36241
"991","90047",1,"Los Angeles","CA",33.958464,-118.30998
"992","90063",1,"Los Angeles","CA",34.045161,-118.1865
"993","90065",1,"Los Angeles","CA",34.107559,-118.22663
"994","90305",1,"Inglewood","CA",33.960263,-118.3252
"995","91001",1,"Altadena","CA",34.192102,-118.14206
"996","91006",1,"Arcadia","CA",34.134057,-118.02662
"997","91007",1,"Arcadia","CA",34.126957,-118.05216
"998","91008",1,"Duarte","CA",34.14,-117.96
"999","91016",1,"Monrovia","CA",34.140806,-118.00184
"1000","91024",1,"Sierra Madre","CA",34.164806,-118.0509
"1001","91101",1,"Pasadena","CA",34.146607,-118.1391
"1002","91103",1,"Pasadena","CA",34.166706,-118.159
"1003","91104",1,"Pasadena","CA",34.169356,-118.12392
"1004","91105",1,"Pasadena","CA",34.137857,-118.16329
"1005","91106",1,"Pasadena","CA",34.142557,-118.12715
"1006","91107",1,"Pasadena","CA",34.151066,-118.08974
"1007","91208",1,"Glendale","CA",34.189605,-118.22857
"1008","91326",1,"Northridge","CA",34.276154,-118.54581
"1009","91335",1,"Reseda","CA",34.200104,-118.54099
"1010","91506",1,"Burbank","CA",34.169663,-118.32364
"1011","91701",1,"Alta Loma","CA",34.131659,-117.5924
"1012","91730",1,"Rancho Cucamonga","CA",34.104555,-117.58734
"1013","91741",1,"Glendora","CA",34.140207,-117.85704
"1014","91775",1,"San Gabriel","CA",34.114041,-118.09035
"1015","91780",1,"Temple City","CA",34.101608,-118.05606
"1016","91789",1,"Walnut","CA",34.018361,-117.85438
"1017","91790",1,"West Covina","CA",34.068059,-117.93835
"1018","91801",1,"Alhambra","CA",34.090409,-118.127
"1019","92227",1,"Brawley","CA",32.98975,-115.50475
"1020","92277",1,"Twentynine Palms","CA",34.165696,-116.03343
"1021","92324",1,"Colton","CA",34.061931,-117.31995
"1022","92346",1,"Highland","CA",34.12716,-117.20073
"1023","92407",1,"San Bernardino","CA",34.198189,-117.35826
"1024","94115",1,"San Francisco","CA",37.786129,-122.43736
"1025","94704",1,"Berkeley","CA",37.868575,-122.25855
"1026","94705",1,"Berkeley","CA",37.856926,-122.25084
"1027","97128",1,"Mcminnville","OR",45.210104,-123.20747
"1028","97301",1,"Salem","OR",44.926644,-122.98694
"1029","97302",1,"Salem","OR",44.906492,-123.05129
"1030","97305",1,"Salem","OR",44.995029,-122.95801
"1031","97306",1,"Salem","OR",44.858446,-123.05368
"1032","97317",1,"Salem","OR",44.9,-122.89
"1033","97321",1,"Albany","OR",44.635395,-123.0896
"1034","97338",1,"Dallas","OR",44.920815,-123.33432
"1035","97374",1,"Scio","OR",44.702164,-122.81401
"1036","97383",2,"Stayton","OR",44.798379,-122.7601
"1037","97392",1,"Turner","OR",44.807739,-122.9485
"1038","99574",1,"Cordova","AK",60.474512,-145.40256
"1039","99577",1,"Eagle River","AK",61.310222,-149.51689
"1040","99611",1,"Kenai","AK",60.587598,-151.23355
"1041","99654",1,"Wasilla","AK",61.580187,-149.48821
"1042","99686",2,"Valdez","AK",61.128176,-146.2357
