"","zip","Freq","city","state","latitude","longitude"
"1","",2,NA,NA,NA,NA
"2","00693",1,"Vega Baja","PR",18.440667,-66.3921
"3","01453",1,"Leominster","MA",42.526523,-71.75358
"4","01572",1,NA,NA,NA,NA
"5","02072",1,"Stoughton","MA",42.125432,-71.10627
"6","02720",1,"Fall River","MA",41.716952,-71.13986
"7","02807",1,"Block Island","RI",41.171389,-71.58358
"8","02812",1,"Carolina","RI",41.46603,-71.66408
"9","02813",1,"Charlestown","RI",41.385256,-71.66813
"10","02832",1,"Hope Valley","RI",41.511414,-71.72737
"11","02840",1,"Newport","RI",41.488002,-71.31262
"12","02842",1,"Middletown","RI",41.511739,-71.28658
"13","02852",1,"North Kingstown","RI",41.589701,-71.454
"14","02871",2,"Portsmouth","RI",41.603929,-71.26099
"15","02878",1,"Tiverton","RI",41.629413,-71.18724
"16","02879",5,"Wakefield","RI",41.423601,-71.52322
"17","02882",1,"Narragansett","RI",41.432452,-71.46352
"18","02891",1,"Westerly","RI",41.354881,-71.80387
"19","06320",1,"New London","CT",41.352498,-72.10338
"20","06339",1,"Ledyard","CT",41.449482,-71.98233
"21","06340",1,"Groton","CT",41.345331,-72.04524
"22","06351",1,"Jewett City","CT",41.604341,-71.97599
"23","06355",1,"Mystic","CT",41.360798,-71.97281
"24","06357",1,"Niantic","CT",41.319649,-72.21064
"25","06359",2,"North Stonington","CT",41.456189,-71.86813
"26","06360",2,"Norwich","CT",41.533848,-72.06232
"27","06365",1,"Preston","CT",41.509586,-71.96621
"28","06370",1,"Oakdale","CT",41.464274,-72.19551
"29","06371",2,"Old Lyme","CT",41.339421,-72.31008
"30","06378",1,"Stonington","CT",41.351307,-71.91317
"31","06379",1,"Pawcatuck","CT",41.375701,-71.84876
"32","06382",1,"Uncasville","CT",41.457198,-72.11459
"33","06385",1,"Waterford","CT",41.347948,-72.14762
"34","06388",1,"West Mystic","CT",41.344098,-71.976467
"35","06401",1,"Ansonia","CT",41.34269,-73.07446
"36","06405",1,"Branford","CT",41.277763,-72.80542
"37","06413",1,"Clinton","CT",41.288599,-72.52728
"38","06418",1,"Derby","CT",41.323005,-73.08433
"39","06430",1,"Fairfield","CT",41.163445,-73.2629
"40","06437",1,"Guilford","CT",41.31353,-72.69791
"41","06443",1,"Madison","CT",41.298648,-72.60938
"42","06450",1,"Meriden","CT",41.532048,-72.78145
"43","06457",1,"Middletown","CT",41.553672,-72.6632
"44","06460",3,"Milford","CT",41.21953,-73.0554
"45","06461",1,"Milford","CT",41.23,-73.08
"46","06468",1,"Monroe","CT",41.336046,-73.22241
"47","06472",1,"Northford","CT",41.399873,-72.77975
"48","06475",1,"Old Saybrook","CT",41.289348,-72.38285
"49","06477",1,"Orange","CT",41.279547,-73.02541
"50","06483",1,"Seymour","CT",41.386584,-73.0792
"51","06484",1,"Shelton","CT",41.306396,-73.1292
"52","06498",1,"Westbrook","CT",41.289499,-72.46087
"53","06511",2,"New Haven","CT",41.317197,-72.92798
"54","06512",2,"East Haven","CT",41.276497,-72.87412
"55","06513",1,"New Haven","CT",41.315797,-72.8803
"56","06514",1,"Hamden","CT",41.357947,-72.93765
"57","06515",1,"New Haven","CT",41.327997,-72.96902
"58","06516",1,"West Haven","CT",41.272147,-72.96496
"59","06517",1,"Hamden","CT",41.348297,-72.90712
"60","06519",1,"New Haven","CT",41.295197,-72.93673
"61","06524",1,"Bethany","CT",41.417896,-73.00356
"62","06604",1,"Bridgeport","CT",41.178696,-73.20004
"63","06605",1,"Bridgeport","CT",41.163596,-73.21633
"64","06606",1,"Bridgeport","CT",41.209496,-73.20771
"65","06607",1,"Bridgeport","CT",41.177646,-73.16649
"66","06610",1,"Bridgeport","CT",41.202091,-73.1708
"67","06611",1,"Trumbull","CT",41.256129,-73.21227
"68","06612",1,"Easton","CT",41.253946,-73.28842
"69","06614",1,"Stratford","CT",41.219246,-73.13221
"70","06615",2,"Stratford","CT",41.175947,-73.13515
"71","06705",1,"Waterbury","CT",41.54903,-72.99861
"72","06706",1,"Waterbury","CT",41.537896,-73.02827
"73","06708",1,"Waterbury","CT",41.551601,-73.06262
"74","06710",1,"Waterbury","CT",41.569496,-73.04484
"75","06804",1,"Brookfield","CT",41.465811,-73.39982
"76","06807",1,"Cos Cob","CT",41.047627,-73.59508
"77","06810",1,"Danbury","CT",41.390194,-73.45441
"78","06811",1,"Danbury","CT",41.425594,-73.47006
"79","06812",1,"New Fairfield","CT",41.472227,-73.49673
"80","06820",1,"Darien","CT",41.075663,-73.48294
"81","06824",3,"Fairfield","CT",41.163879,-73.265744
"82","06825",1,"Bridgeport","CT",41.191685,-73.238012
"83","06830",1,"Greenwich","CT",41.03073,-73.62985
"84","06831",1,"Greenwich","CT",41.061296,-73.65866
"85","06840",1,"New Canaan","CT",41.150146,-73.49178
"86","06850",2,"Norwalk","CT",41.124546,-73.43658
"87","06851",1,"Norwalk","CT",41.134896,-73.4053
"88","06853",2,"Norwalk","CT",41.066196,-73.43819
"89","06854",1,"Norwalk","CT",41.092196,-73.42869
"90","06855",1,"Norwalk","CT",41.100496,-73.39918
"91","06859",1,"Norwalk","CT",41.308873,-73.363661
"92","06870",1,"Old Greenwich","CT",41.033347,-73.56804
"93","06877",1,"Ridgefield","CT",41.297911,-73.49178
"94","06878",1,"Riverside","CT",41.034264,-73.5842
"95","06880",1,"Westport","CT",41.140896,-73.35178
"96","06883",2,"Weston","CT",41.216454,-73.37308
"97","06890",1,"Fairfield","CT",41.142754,-73.288247
"98","06896",1,"Redding","CT",41.301007,-73.39857
"99","06897",1,"Wilton","CT",41.201446,-73.43758
"100","06902",1,"Stamford","CT",41.047996,-73.53688
"101","06903",1,"Stamford","CT",41.132096,-73.56423
"102","06905",1,"Stamford","CT",41.081396,-73.54506
"103","06906",1,"Stamford","CT",41.069298,-73.52182
"104","06907",1,"Stamford","CT",41.096846,-73.52128
"105","06951",1,NA,NA,NA,NA
"106","07001",1,"Avenel","NJ",40.578996,-74.27987
"107","07002",5,"Bayonne","NJ",40.666552,-74.11768
"108","07003",1,"Bloomfield","NJ",40.803,-74.18895
"109","07004",1,"Fairfield","NJ",40.879049,-74.29378
"110","07005",1,"Boonton","NJ",40.912798,-74.41516
"111","07006",2,"Caldwell","NJ",40.848999,-74.27917
"112","07008",1,"Carteret","NJ",40.582504,-74.22997
"113","07009",1,"Cedar Grove","NJ",40.855854,-74.22898
"114","07010",1,"Cliffside Park","NJ",40.82154,-73.98949
"115","07011",1,"Clifton","NJ",40.879699,-74.14263
"116","07013",1,"Clifton","NJ",40.868699,-74.17102
"117","07014",1,"Clifton","NJ",40.834049,-74.13669
"118","07016",1,"Cranford","NJ",40.656302,-74.30371
"119","07017",1,"East Orange","NJ",40.770933,-74.20589
"120","07018",1,"East Orange","NJ",40.75555,-74.21897
"121","07020",1,"Edgewater","NJ",40.830733,-73.97334
"122","07021",1,"Essex Fells","NJ",40.827499,-74.28091
"123","07022",1,"Fairview","NJ",40.816737,-74.00082
"124","07023",1,"Fanwood","NJ",40.641852,-74.38533
"125","07024",1,"Fort Lee","NJ",40.849879,-73.97501
"126","07026",1,"Garfield","NJ",40.879858,-74.10807
"127","07027",1,"Garwood","NJ",40.650802,-74.32351
"128","07028",1,"Glen Ridge","NJ",40.80495,-74.2047
"129","07029",2,"Harrison","NJ",40.745951,-74.15509
"130","07030",3,"Hoboken","NJ",40.744851,-74.03294
"131","07031",1,"North Arlington","NJ",40.791895,-74.13254
"132","07032",3,"Kearny","NJ",40.763051,-74.13718
"133","07033",1,"Kenilworth","NJ",40.674652,-74.2908
"134","07034",1,"Lake Hiawatha","NJ",40.881149,-74.38112
"135","07035",1,"Lincoln Park","NJ",40.923233,-74.29376
"136","07036",4,"Linden","NJ",40.633953,-74.25339
"137","07039",1,"Livingston","NJ",40.788733,-74.32134
"138","07040",1,"Maplewood","NJ",40.728901,-74.26821
"139","07041",1,"Millburn","NJ",40.724168,-74.29913
"140","07042",1,"Montclair","NJ",40.81315,-74.21576
"141","07043",2,"Montclair","NJ",40.844199,-74.20218
"142","07044",2,"Verona","NJ",40.832449,-74.24227
"143","07046",2,"Mountain Lakes","NJ",40.892021,-74.44022
"144","07047",2,"North Bergen","NJ",40.7946,-74.01963
"145","07050",1,"Orange","NJ",40.7683,-74.23603
"146","07052",1,"West Orange","NJ",40.78865,-74.25541
"147","07054",1,"Parsippany","NJ",40.860149,-74.4171
"148","07055",1,"Passaic","NJ",40.857384,-74.12899
"149","07057",1,"Wallington","NJ",40.852931,-74.10925
"150","07058",1,"Pine Brook","NJ",40.871299,-74.34331
"151","07059",1,"Warren","NJ",40.633652,-74.5008
"152","07060",3,"Plainfield","NJ",40.620102,-74.42481
"153","07062",3,"Plainfield","NJ",40.631252,-74.40383
"154","07063",2,"Plainfield","NJ",40.604252,-74.44612
"155","07064",2,"Port Reading","NJ",40.569504,-74.24774
"156","07065",2,"Rahway","NJ",40.607103,-74.28099
"157","07066",2,"Clark","NJ",40.620336,-74.30934
"158","07067",1,"Colonia","NJ",40.591653,-74.31341
"159","07068",1,"Roseland","NJ",40.821799,-74.30477
"160","07069",1,"Watchung","NJ",40.641207,-74.443695
"161","07070",1,"Rutherford","NJ",40.828922,-74.11064
"162","07071",2,"Lyndhurst","NJ",40.808416,-74.12111
"163","07072",2,"Carlstadt","NJ",40.836555,-74.08466
"164","07073",1,"East Rutherford","NJ",40.830158,-74.09707
"165","07074",3,"Moonachie","NJ",40.841668,-74.059
"166","07075",1,"Wood Ridge","NJ",40.847638,-74.08754
"167","07076",1,"Scotch Plains","NJ",40.637152,-74.37493
"168","07077",1,"Sewaren","NJ",40.553971,-74.25938
"169","07078",2,"Short Hills","NJ",40.73915,-74.32749
"170","07079",1,"South Orange","NJ",40.74765,-74.25881
"171","07080",2,"South Plainfield","NJ",40.580703,-74.41401
"172","07081",2,"Springfield","NJ",40.701801,-74.32216
"173","07082",1,"Towaco","NJ",40.92241,-74.34625
"174","07083",2,"Union","NJ",40.695401,-74.26933
"175","07086",1,"Union City","NJ",40.769796,-74.022351
"176","07087",1,"Union City","NJ",40.767751,-74.0302
"177","07088",1,"Vauxhall","NJ",40.718401,-74.28416
"178","07090",1,"Westfield","NJ",40.649202,-74.34567
"179","07092",2,"Mountainside","NJ",40.680301,-74.35601
"180","07093",2,"West New York","NJ",40.7895,-74.01223
"181","07094",2,"Secaucus","NJ",40.7885,-74.06
"182","07095",2,"Woodbridge","NJ",40.557104,-74.28316
"183","07102",1,"Newark","NJ",40.735257,-74.17326
"184","07103",1,"Newark","NJ",40.738501,-74.19507
"185","07104",1,"Newark","NJ",40.767702,-74.16831
"186","07105",1,"Newark","NJ",40.725801,-74.15206
"187","07106",2,"Newark","NJ",40.742251,-74.23006
"188","07107",1,"Newark","NJ",40.760667,-74.1879
"189","07108",1,"Newark","NJ",40.722751,-74.2014
"190","07109",1,"Belleville","NJ",40.7935,-74.16144
"191","07110",1,"Nutley","NJ",40.8196,-74.15877
"192","07111",1,"Irvington","NJ",40.725651,-74.23207
"193","07112",1,"Newark","NJ",40.711651,-74.21303
"194","07114",2,"Newark","NJ",40.707553,-74.17883
"195","07201",3,"Elizabeth","NJ",40.669502,-74.19889
"196","07202",1,"Elizabeth","NJ",40.652302,-74.21692
"197","07203",2,"Roselle","NJ",40.653502,-74.26058
"198","07204",2,"Roselle Park","NJ",40.665552,-74.26768
"199","07205",1,"Hillside","NJ",40.695552,-74.22856
"200","07206",1,"Elizabeth","NJ",40.653189,-74.19158
"201","07208",1,"Elizabeth","NJ",40.673102,-74.22834
"202","07302",3,"Jersey City","NJ",40.721602,-74.04703
"203","07303",1,"Jersey City","NJ",40.73276,-74.075485
"204","07304",2,"Jersey City","NJ",40.716452,-74.07253
"205","07305",3,"Jersey City","NJ",40.701302,-74.08843
"206","07306",1,"Jersey City","NJ",40.733751,-74.06582
"207","07307",1,"Jersey City","NJ",40.748001,-74.04943
"208","07310",1,"Jersey City","NJ",40.731901,-74.0402
"209","07401",1,"Allendale","NJ",41.031505,-74.13409
"210","07405",1,"Butler","NJ",40.99313,-74.35893
"211","07407",1,"Elmwood Park","NJ",40.905639,-74.1199
"212","07410",1,"Fair Lawn","NJ",40.933943,-74.11671
"213","07414",1,NA,NA,NA,NA
"214","07417",1,"Franklin Lakes","NJ",41.010433,-74.20847
"215","07420",1,"Haskell","NJ",41.026747,-74.29742
"216","07421",1,"Hewitt","NJ",41.173445,-74.37404
"217","07422",1,"Highland Lakes","NJ",41.180137,-74.45489
"218","07424",2,"Little Falls","NJ",40.886628,-74.21405
"219","07432",1,"Midland Park","NJ",40.99312,-74.14286
"220","07435",1,"Newfoundland","NJ",41.045897,-74.43677
"221","07436",1,"Oakland","NJ",41.028884,-74.23727
"222","07438",2,"Oak Ridge","NJ",41.029555,-74.5071
"223","07440",2,"Pequannock","NJ",40.946748,-74.29575
"224","07442",1,"Pompton Lakes","NJ",40.99948,-74.28807
"225","07444",1,"Pompton Plains","NJ",40.964548,-74.29813
"226","07446",1,"Ramsey","NJ",41.058819,-74.14238
"227","07450",1,"Ridgewood","NJ",40.983997,-74.11438
"228","07452",1,"Glen Rock","NJ",40.961109,-74.12576
"229","07458",3,"Saddle River","NJ",41.054568,-74.09616
"230","07461",2,"Sussex","NJ",41.229754,-74.60203
"231","07463",1,"Waldwick","NJ",41.013109,-74.12231
"232","07465",1,"Wanaque","NJ",41.052958,-74.28236
"233","07470",1,"Wayne","NJ",40.943608,-74.25004
"234","07480",1,"West Milford","NJ",41.102569,-74.37047
"235","07481",1,"Wyckoff","NJ",40.998583,-74.1671
"236","07501",1,"Paterson","NJ",40.912198,-74.16863
"237","07502",1,"Paterson","NJ",40.918948,-74.1939
"238","07503",1,"Paterson","NJ",40.896798,-74.15731
"239","07506",1,"Hawthorne","NJ",40.957498,-74.15627
"240","07508",2,"Haledon","NJ",40.945198,-74.18286
"241","07512",1,"Totowa","NJ",40.903348,-74.21763
"242","07513",1,"Paterson","NJ",40.906598,-74.14944
"243","07514",1,"Paterson","NJ",40.923648,-74.14321
"244","07522",2,"Paterson","NJ",40.925778,-74.17784
"245","07524",1,"Paterson","NJ",40.930398,-74.15829
"246","07601",1,"Hackensack","NJ",40.888678,-74.0488
"247","07603",1,"Bogota","NJ",40.873876,-74.02769
"248","07604",1,"Hasbrouck Heights","NJ",40.86289,-74.07506
"249","07605",1,"Leonia","NJ",40.862685,-73.98551
"250","07607",1,"Maywood","NJ",40.90503,-74.06279
"251","07608",1,"Teterboro","NJ",40.853723,-74.05987
"252","07621",1,"Bergenfield","NJ",40.923748,-73.99879
"253","07624",1,"Closter","NJ",40.971956,-73.96166
"254","07628",1,"Dumont","NJ",40.945173,-73.99342
"255","07631",1,"Englewood","NJ",40.893343,-73.9758
"256","07640",1,"Harrington Park","NJ",40.989357,-73.97958
"257","07641",1,"Haworth","NJ",40.958573,-73.98659
"258","07642",2,"Hillsdale","NJ",41.007389,-74.04247
"259","07643",2,"Little Ferry","NJ",40.850621,-74.04112
"260","07644",1,"Lodi","NJ",40.877999,-74.08265
"261","07646",1,"New Milford","NJ",40.936211,-74.0188
"262","07648",1,"Norwood","NJ",40.994442,-73.95586
"263","07649",1,"Oradell","NJ",40.953126,-74.03379
"264","07650",1,"Palisades Park","NJ",40.845742,-73.99479
"265","07652",2,"Paramus","NJ",40.947107,-74.07047
"266","07656",1,"Park Ridge","NJ",41.034672,-74.04065
"267","07657",1,"Ridgefield","NJ",40.832421,-74.00399
"268","07660",2,"Ridgefield Park","NJ",40.856749,-74.02278
"269","07661",1,"River Edge","NJ",40.927579,-74.03739
"270","07662",1,"Rochelle Park","NJ",40.906553,-74.07797
"271","07663",1,"Saddle Brook","NJ",40.904131,-74.09474
"272","07666",1,"Teaneck","NJ",40.890964,-74.01115
"273","07670",2,"Tenafly","NJ",40.92169,-73.96482
"274","07675",3,"Westwood","NJ",40.99904,-74.03291
"275","07677",1,"Woodcliff Lake","NJ",41.025101,-74.059762
"276","07701",3,"Red Bank","NJ",40.352953,-74.07703
"277","07702",2,"Shrewsbury","NJ",40.329128,-74.06315
"278","07704",1,"Fair Haven","NJ",40.360581,-74.03738
"279","07707",1,NA,NA,NA,NA
"280","07711",2,"Allenhurst","NJ",40.236916,-74.0069
"281","07712",3,"Asbury Park","NJ",40.232713,-74.03143
"282","07716",2,"Atlantic Highlands","NJ",40.407958,-74.03483
"283","07717",3,"Avon By The Sea","NJ",40.191809,-74.01688
"284","07718",1,"Belford","NJ",40.415902,-74.08689
"285","07719",7,"Belmar","NJ",40.175357,-74.04694
"286","07720",1,"Bradley Beach","NJ",40.202113,-74.01353
"287","07721",1,"Cliffwood","NJ",40.435961,-74.23734
"288","07722",1,"Colts Neck","NJ",40.300226,-74.18306
"289","07723",1,"Deal","NJ",40.250104,-74.00153
"290","07724",5,"Eatontown","NJ",40.301979,-74.06889
"291","07726",3,"Englishtown","NJ",40.294244,-74.34213
"292","07727",1,"Farmingdale","NJ",40.205367,-74.15767
"293","07728",2,"Freehold","NJ",40.241036,-74.27629
"294","07730",2,"Hazlet","NJ",40.423298,-74.179
"295","07731",2,"Howell","NJ",40.146597,-74.20815
"296","07732",1,"Highlands","NJ",40.404474,-73.9904
"297","07733",1,"Holmdel","NJ",40.384832,-74.17194
"298","07734",5,"Keansburg","NJ",40.444407,-74.13298
"299","07735",10,"Keyport","NJ",40.439714,-74.19374
"300","07736",1,NA,NA,NA,NA
"301","07737",2,"Leonardo","NJ",40.416772,-74.06058
"302","07738",3,"Lincroft","NJ",40.337374,-74.12059
"303","07739",3,"Little Silver","NJ",40.33517,-74.04059
"304","07740",5,"Long Branch","NJ",40.297932,-73.99097
"305","07741",1,NA,NA,NA,NA
"306","07746",1,"Marlboro","NJ",40.316876,-74.26112
"307","07747",4,"Matawan","NJ",40.411102,-74.23767
"308","07748",5,"Middletown","NJ",40.410213,-74.11718
"309","07750",5,"Monmouth Beach","NJ",40.332877,-73.97986
"310","07751",1,"Morganville","NJ",40.361014,-74.26595
"311","07752",1,"Navesink","NJ",40.402277,-74.027285
"312","07753",7,"Neptune","NJ",40.208945,-74.05261
"313","07755",2,"Oakhurst","NJ",40.263575,-74.02176
"314","07756",1,"Ocean Grove","NJ",40.211982,-74.00916
"315","07757",3,"Oceanport","NJ",40.318115,-74.01239
"316","07758",4,"Port Monmouth","NJ",40.427561,-74.1069
"317","07760",6,"Rumson","NJ",40.369145,-73.99576
"318","07762",4,"Spring Lake","NJ",40.153024,-74.03372
"319","07764",3,"West Long Branch","NJ",40.289985,-74.01671
"320","07801",1,"Dover","NJ",40.889166,-74.55462
"321","07803",2,"Mine Hill","NJ",40.878785,-74.60098
"322","07821",2,"Andover","NJ",40.966308,-74.74298
"323","07825",1,"Blairstown","NJ",40.96035,-74.96243
"324","07826",2,"Branchville","NJ",41.177457,-74.75904
"325","07828",1,"Budd Lake","NJ",40.878198,-74.73875
"326","07830",2,"Califon","NJ",40.723778,-74.81866
"327","07832",1,"Columbia","NJ",40.92976,-75.06193
"328","07834",1,"Denville","NJ",40.886149,-74.48704
"329","07836",2,"Flanders","NJ",40.84405,-74.70134
"330","07838",1,"Great Meadows","NJ",40.886474,-74.90089
"331","07840",1,"Hackettstown","NJ",40.861748,-74.83054
"332","07842",1,"Hibernia","NJ",40.940301,-74.49617
"333","07843",1,"Hopatcong","NJ",40.937206,-74.66147
"334","07844",1,"Hope","NJ",40.919658,-74.984628
"335","07848",1,"Lafayette","NJ",41.094159,-74.69036
"336","07849",1,"Lake Hopatcong","NJ",40.963959,-74.61414
"337","07850",1,"Landing","NJ",40.908198,-74.65749
"338","07851",1,"Layton","NJ",41.172968,-74.88301
"339","07852",2,"Ledgewood","NJ",40.876349,-74.65769
"340","07853",1,"Long Valley","NJ",40.788599,-74.78295
"341","07857",1,"Netcong","NJ",40.897398,-74.70301
"342","07860",1,"Newton","NJ",41.0714,-74.80199
"343","07863",1,"Oxford","NJ",40.815107,-74.96802
"344","07866",1,"Rockaway","NJ",40.926798,-74.50624
"345","07869",1,"Randolph","NJ",40.847649,-74.5748
"346","07871",1,"Sparta","NJ",41.035384,-74.63557
"347","07874",1,"Stanhope","NJ",40.917054,-74.71053
"348","07876",1,"Succasunna","NJ",40.855549,-74.65251
"349","07878",1,"Mount Tabor","NJ",40.872866,-74.47843
"350","07882",1,"Washington","NJ",40.753753,-74.99617
"351","07885",1,"Wharton","NJ",40.913298,-74.58246
"352","07901",1,"Summit","NJ",40.714501,-74.3633
"353","07920",1,"Basking Ridge","NJ",40.6789,-74.57039
"354","07922",1,"Berkeley Heights","NJ",40.675112,-74.43459
"355","07924",1,"Bernardsville","NJ",40.72344,-74.57753
"356","07928",2,"Chatham","NJ",40.7332,-74.39736
"357","07930",1,"Chester","NJ",40.786549,-74.68799
"358","07931",1,"Far Hills","NJ",40.696601,-74.63781
"359","07932",2,"Florham Park","NJ",40.77835,-74.39009
"360","07933",1,"Gillette","NJ",40.683934,-74.47079
"361","07935",1,"Green Village","NJ",40.739333,-74.45631
"362","07936",2,"East Hanover","NJ",40.820012,-74.36474
"363","07938",1,"Liberty Corner","NJ",40.655399,-74.586151
"364","07939",1,"Lyons","NJ",40.566553,-74.599801
"365","07940",1,"Madison","NJ",40.75875,-74.41609
"366","07945",2,"Mendham","NJ",40.782767,-74.59529
"367","07946",1,"Millington","NJ",40.672823,-74.52011
"368","07950",2,"Morris Plains","NJ",40.842399,-74.48223
"369","07954",1,NA,NA,NA,NA
"370","07960",1,"Morristown","NJ",40.79215,-74.48559
"371","07974",2,"New Providence","NJ",40.698268,-74.40225
"372","07976",1,"New Vernon","NJ",40.733739,-74.48851
"373","07977",1,"Peapack","NJ",40.707505,-74.65657
"374","08003",3,"Cherry Hill","NJ",39.879713,-74.9719
"375","08005",3,"Barnegat","NJ",39.759581,-74.27398
"376","08006",1,"Barnegat Light","NJ",39.75196,-74.11074
"377","08008",36,"Beach Haven","NJ",39.614596,-74.2005
"378","08009",2,"Berlin","NJ",39.779582,-74.9365
"379","08012",1,"Blackwood","NJ",39.784614,-75.05678
"380","08014",1,"Bridgeport","NJ",39.803646,-75.34421
"381","08015",2,"Browns Mills","NJ",39.960596,-74.5606
"382","08016",2,"Burlington","NJ",40.06834,-74.84463
"383","08020",1,"Clarksboro","NJ",39.800958,-75.2211
"384","08021",1,"Clementon","NJ",39.810485,-74.99574
"385","08022",1,"Columbus","NJ",40.079952,-74.70684
"386","08023",1,"Deepwater","NJ",39.683577,-75.48932
"387","08028",1,"Glassboro","NJ",39.700008,-75.11951
"388","08029",1,"Glendora","NJ",39.840463,-75.0687
"389","08030",1,"Gloucester City","NJ",39.891113,-75.11836
"390","08034",1,"Cherry Hill","NJ",39.908613,-74.99951
"391","08036",1,"Hainesport","NJ",39.985662,-74.83044
"392","08037",2,"Hammonton","NJ",39.625291,-74.77705
"393","08041",1,"Jobstown","NJ",40.038339,-74.6806
"394","08045",1,"Lawnside","NJ",39.866513,-75.03197
"395","08046",2,"Willingboro","NJ",40.029011,-74.88257
"396","08049",1,"Magnolia","NJ",39.85478,-75.03671
"397","08050",15,"Manahawkin","NJ",39.707575,-74.25933
"398","08053",1,"Marlton","NJ",39.88488,-74.90416
"399","08054",2,"Mount Laurel","NJ",39.949446,-74.90342
"400","08055",2,"Medford","NJ",39.865272,-74.8185
"401","08057",1,"Moorestown","NJ",39.968962,-74.9489
"402","08060",3,"Mount Holly","NJ",39.991562,-74.79747
"403","08068",1,"Pemberton","NJ",39.961183,-74.66266
"404","08069",3,"Penns Grove","NJ",39.712593,-75.46906
"405","08070",1,"Pennsville","NJ",39.645377,-75.51923
"406","08075",2,"Riverside","NJ",40.029361,-74.9541
"407","08079",1,"Salem","NJ",39.549912,-75.43943
"408","08080",2,"Sewell","NJ",39.74953,-75.10637
"409","08081",1,"Sicklerville","NJ",39.741385,-74.99035
"410","08083",1,"Somerdale","NJ",39.842613,-75.02496
"411","08087",17,"Tuckerton","NJ",39.59899,-74.36573
"412","08088",1,"Vincentown","NJ",39.871699,-74.70528
"413","08089",1,"Waterford Works","NJ",39.722622,-74.8503
"414","08092",3,"West Creek","NJ",39.658781,-74.28673
"415","08094",2,"Williamstown","NJ",39.647598,-74.95927
"416","08096",1,"Woodbury","NJ",39.830313,-75.13221
"417","08098",1,"Woodstown","NJ",39.637838,-75.32396
"418","08103",1,"Camden","NJ",39.936179,-75.11513
"419","08104",1,"Camden","NJ",39.918663,-75.10976
"420","08107",1,"Oaklyn","NJ",39.908163,-75.08618
"421","08109",1,"Merchantville","NJ",39.949979,-75.05024
"422","08110",1,"Pennsauken","NJ",39.966812,-75.05681
"423","08201",2,"Absecon","NJ",39.457517,-74.50914
"424","08202",1,"Avalon","NJ",39.092928,-74.72688
"425","08203",6,"Brigantine","NJ",39.401801,-74.38017
"426","08204",5,"Cape May","NJ",38.963652,-74.92319
"427","08205",3,"Absecon","NJ",39.471263,-74.502457
"428","08210",4,"Cape May Court House","NJ",39.081754,-74.83658
"429","08214",1,"Dennisville","NJ",39.056521,-74.816619
"430","08215",6,"Egg Harbor City","NJ",39.548049,-74.62171
"431","08217",1,"Elwood","NJ",39.575273,-74.72103
"432","08218",1,"Goshen","NJ",39.056521,-74.816619
"433","08221",1,"Linwood","NJ",39.348616,-74.57387
"434","08223",1,"Marmora","NJ",39.264412,-74.64986
"435","08224",3,"New Gretna","NJ",39.595957,-74.45628
"436","08225",1,"Northfield","NJ",39.370083,-74.55211
"437","08226",3,"Ocean City","NJ",39.265371,-74.59381
"438","08230",1,"Ocean View","NJ",39.20877,-74.70438
"439","08232",7,"Pleasantville","NJ",39.394616,-74.52212
"440","08234",6,"Egg Harbor Township","NJ",39.398172,-74.59667
"441","08241",1,"Port Republic","NJ",39.527903,-74.4917
"442","08242",1,"Rio Grande","NJ",39.017837,-74.87515
"443","08243",5,"Sea Isle City","NJ",39.145755,-74.69865
"444","08244",1,"Somers Point","NJ",39.319901,-74.5999
"445","08247",1,"Stone Harbor","NJ",39.051289,-74.76204
"446","08248",2,"Strathmere","NJ",39.197394,-74.65699
"447","08250",1,"Tuckahoe","NJ",39.056521,-74.816619
"448","08251",2,"Villas","NJ",39.022256,-74.93616
"449","08260",8,"Wildwood","NJ",38.987556,-74.822
"450","08270",4,"Woodbine","NJ",39.275059,-74.80041
"451","08302",1,"Bridgeton","NJ",39.445164,-75.24215
"452","08310",1,"Buena","NJ",39.522686,-74.89684
"453","08311",1,"Cedarville","NJ",39.337205,-75.18577
"454","08312",1,"Clayton","NJ",39.655964,-75.08736
"455","08314",1,"Delmont","NJ",39.219301,-74.94016
"456","08321",1,"Fortescue","NJ",39.239649,-75.17225
"457","08323",1,"Greenwich","NJ",39.402763,-75.3574
"458","08324",1,"Heislerville","NJ",39.218484,-74.99001
"459","08330",5,"Mays Landing","NJ",39.478771,-74.7581
"460","08332",1,"Millville","NJ",39.379382,-75.03923
"461","08345",2,"Newport","NJ",39.28341,-75.15464
"462","08348",1,"Port Elizabeth","NJ",39.314084,-74.97889
"463","08349",1,"Port Norris","NJ",39.25682,-75.06683
"464","08360",1,"Vineland","NJ",39.492265,-75.01887
"465","08361",2,"Vineland","NJ",39.464582,-74.96994
"466","08378",1,NA,NA,NA,NA
"467","08401",4,"Atlantic City","NJ",39.364966,-74.43903
"468","08402",4,"Margate City","NJ",39.329416,-74.50661
"469","08403",3,"Longport","NJ",39.314766,-74.52675
"470","08406",7,"Ventnor City","NJ",39.342299,-74.48192
"471","08472",1,NA,NA,NA,NA
"472","08501",3,"Allentown","NJ",40.164556,-74.57785
"473","08502",1,"Belle Mead","NJ",40.460137,-74.63592
"474","08505",1,"Bordentown","NJ",40.132784,-74.71778
"475","08506",1,NA,NA,NA,NA
"476","08510",2,"Clarksburg","NJ",40.18238,-74.42134
"477","08512",2,"Cranbury","NJ",40.306286,-74.52627
"478","08514",1,"Cream Ridge","NJ",40.134892,-74.48688
"479","08520",2,"Hightstown","NJ",40.262809,-74.53246
"480","08525",1,"Hopewell","NJ",40.386902,-74.78112
"481","08527",2,"Jackson","NJ",40.11597,-74.32251
"482","08530",1,"Lambertville","NJ",40.375039,-74.93184
"483","08533",1,"New Egypt","NJ",40.075185,-74.48433
"484","08534",1,"Pennington","NJ",40.32315,-74.78364
"485","08535",4,"Perrineville","NJ",40.228497,-74.45064
"486","08536",1,"Plainsboro","NJ",40.33371,-74.58512
"487","08540",1,"Princeton","NJ",40.357439,-74.64922
"488","08550",3,"Princeton Junction","NJ",40.292358,-74.60902
"489","08551",1,"Ringoes","NJ",40.449171,-74.84979
"490","08553",1,"Rocky Hill","NJ",40.400406,-74.63895
"491","08555",1,"Roosevelt","NJ",40.22142,-74.47378
"492","08559",1,"Stockton","NJ",40.435878,-74.96511
"493","08560",1,"Titusville","NJ",40.31049,-74.85947
"494","08562",1,"Wrightstown","NJ",40.062215,-74.58893
"495","08609",1,"Trenton","NJ",40.224441,-74.7421
"496","08610",2,"Trenton","NJ",40.199859,-74.72005
"497","08611",1,"Trenton","NJ",40.206959,-74.75136
"498","08618",1,"Trenton","NJ",40.238258,-74.7805
"499","08619",1,"Trenton","NJ",40.240558,-74.69588
"500","08624",1,NA,NA,NA,NA
"501","08629",1,"Trenton","NJ",40.219358,-74.73334
"502","08638",2,"Trenton","NJ",40.249908,-74.75953
"503","08648",1,"Trenton","NJ",40.276782,-74.72951
"504","08691",1,"Trenton","NJ",40.207034,-74.59364
"505","08701",1,"Lakewood","NJ",40.082782,-74.2094
"506","08721",4,"Bayville","NJ",39.902851,-74.16037
"507","08722",2,"Beachwood","NJ",39.931068,-74.19618
"508","08723",9,"Brick","NJ",40.042479,-74.123
"509","08724",3,"Brick","NJ",40.087794,-74.10981
"510","08725",1,NA,NA,NA,NA
"511","08728",1,NA,NA,NA,NA
"512","08730",2,"Brielle","NJ",40.108433,-74.06226
"513","08731",1,"Forked River","NJ",39.848035,-74.21297
"514","08732",4,"Island Heights","NJ",39.942616,-74.14689
"515","08733",2,"Lakehurst","NJ",40.017117,-74.30491
"516","08734",4,"Lanoka Harbor","NJ",39.862864,-74.16624
"517","08735",20,"Lavallette","NJ",39.982101,-74.06768
"518","08736",6,"Manasquan","NJ",40.120261,-74.05765
"519","08737",1,NA,NA,NA,NA
"520","08738",12,"Mantoloking","NJ",40.025258,-74.05579
"521","08739",10,"Normandy Beach","NJ",40.000759,-74.24928
"522","08740",2,"Ocean Gate","NJ",39.925301,-74.13488
"523","08741",1,"Pine Beach","NJ",39.934318,-74.16773
"524","08742",29,"Point Pleasant Beach","NJ",40.081165,-74.06003
"525","08750",2,"Sea Girt","NJ",40.133754,-74.04123
"526","08751",23,"Seaside Heights","NJ",39.948518,-74.0759
"527","08752",11,"Seaside Park","NJ",39.920268,-74.07967
"528","08753",13,"Toms River","NJ",39.974584,-74.15141
"529","08755",1,"Toms River","NJ",40.010092,-74.23032
"530","08757",3,"Toms River","NJ",39.975967,-74.25296
"531","08758",3,"Waretown","NJ",39.784513,-74.22376
"532","08759",4,"Whiting","NJ",39.943541,-74.36949
"533","08765",1,NA,NA,NA,NA
"534","08801",1,"Annandale","NJ",40.624538,-74.89118
"535","08802",2,"Asbury","NJ",40.661172,-75.0321
"536","08804",1,"Bloomsbury","NJ",40.652484,-75.08959
"537","08805",1,"Bound Brook","NJ",40.567953,-74.54034
"538","08807",1,"Bridgewater","NJ",40.588097,-74.62253
"539","08808",1,"Broadway","NJ",40.737213,-75.046926
"540","08809",1,"Clinton","NJ",40.639546,-74.91292
"541","08812",2,"Dunellen","NJ",40.594502,-74.47166
"542","08816",1,"East Brunswick","NJ",40.434239,-74.40504
"543","08817",1,"Edison","NJ",40.516104,-74.39754
"544","08820",1,"Edison","NJ",40.575503,-74.35781
"545","08821",1,"Flagtown","NJ",40.518578,-74.68545
"546","08822",2,"Flemington","NJ",40.515645,-74.85319
"547","08823",1,"Franklin Park","NJ",40.439412,-74.55565
"548","08824",1,"Kendall Park","NJ",40.423055,-74.55352
"549","08825",1,"Frenchtown","NJ",40.509998,-75.03239
"550","08826",2,"Glen Gardner","NJ",40.716332,-74.91405
"551","08827",1,"Hampton","NJ",40.677404,-74.96875
"552","08828",1,"Helmetta","NJ",40.37594,-74.41955
"553","08829",1,"High Bridge","NJ",40.668594,-74.89241
"554","08830",1,"Iselin","NJ",40.571504,-74.3183
"555","08831",4,"Jamesburg","NJ",40.336508,-74.43302
"556","08832",1,"Keasbey","NJ",40.517855,-74.30325
"557","08833",1,"Lebanon","NJ",40.643314,-74.82345
"558","08835",1,"Manville","NJ",40.538903,-74.59222
"559","08840",1,"Metuchen","NJ",40.543354,-74.3587
"560","08844",2,"Millstone","NJ",40.502477,-74.650023
"561","08846",1,"Middlesex","NJ",40.574552,-74.50187
"562","08848",1,"Milford","NJ",40.587606,-75.10402
"563","08850",1,"Milltown","NJ",40.451105,-74.43938
"564","08852",1,"Monmouth Junction","NJ",40.389428,-74.54329
"565","08853",2,"Neshanic Station","NJ",40.51057,-74.72472
"566","08854",1,"Piscataway","NJ",40.555355,-74.46094
"567","08857",2,"Old Bridge","NJ",40.397507,-74.3298
"568","08859",1,"Parlin","NJ",40.461851,-74.30343
"569","08861",1,"Perth Amboy","NJ",40.520105,-74.27708
"570","08863",1,"Fords","NJ",40.535304,-74.31104
"571","08865",2,"Phillipsburg","NJ",40.689123,-75.17243
"572","08869",1,"Raritan","NJ",40.571302,-74.6374
"573","08872",2,"Sayreville","NJ",40.461605,-74.3474
"574","08873",1,"Somerset","NJ",40.505253,-74.50723
"575","08876",1,"Somerville","NJ",40.545853,-74.63592
"576","08879",4,"South Amboy","NJ",40.469606,-74.27669
"577","08880",1,"South Bound Brook","NJ",40.553803,-74.52976
"578","08882",3,"South River","NJ",40.445006,-74.38179
"579","08884",2,"Spotswood","NJ",40.39159,-74.39329
"580","08889",1,"Whitehouse Station","NJ",40.612851,-74.76682
"581","08901",2,"New Brunswick","NJ",40.488304,-74.44775
"582","08902",1,"North Brunswick","NJ",40.453131,-74.48287
"583","08904",1,"Highland Park","NJ",40.500254,-74.4257
"584","08940",1,NA,NA,NA,NA
"585","09226",1,"Apo","AE",NA,NA
"586","10001",3,"New York","NY",40.750742,-73.99653
"587","10002",3,"New York","NY",40.71704,-73.987
"588","10003",1,"New York","NY",40.732509,-73.98935
"589","10004",1,"New York","NJ",40.699226,-74.04118
"590","10005",1,"New York","NY",40.706019,-74.00858
"591","10006",1,"New York","NY",40.707904,-74.01342
"592","10007",1,"New York","NY",40.714754,-74.00721
"593","10009",4,"New York","NY",40.727093,-73.97864
"594","10010",1,"New York","NY",40.739022,-73.98205
"595","10011",2,"New York","NY",40.741012,-74.00012
"596","10012",1,"New York","NY",40.72596,-73.99834
"597","10013",1,"New York","NY",40.720666,-74.00526
"598","10014",1,"New York","NY",40.734718,-74.00532
"599","10015",1,"New York","NY",40.780751,-73.977182
"600","10016",2,"New York","NY",40.74618,-73.97759
"601","10018",2,"New York","NY",40.755101,-73.99337
"602","10019",1,"New York","NY",40.765714,-73.9856
"603","10022",1,"New York","NY",40.759015,-73.96732
"604","10025",1,"New York","NY",40.798502,-73.96811
"605","10027",1,"New York","NY",40.812665,-73.95499
"606","10029",4,"New York","NY",40.791586,-73.94575
"607","10030",1,"New York","NY",40.818151,-73.94351
"608","10032",1,"New York","NY",40.840686,-73.94154
"609","10033",1,"New York","NY",40.848764,-73.93496
"610","10034",1,"New York","NY",40.867653,-73.92
"611","10035",1,"New York","NY",40.802395,-73.93359
"612","10037",1,"New York","NY",40.813385,-73.93616
"613","10038",2,"New York","NY",40.709677,-74.00365
"614","10039",1,"New York","NY",40.826181,-73.9371
"615","10040",1,"New York","NY",40.858704,-73.92853
"616","10041",2,"New York","NY",40.703042,-74.01009
"617","10065",1,"New York","NY",40.76,-73.96
"618","10075",2,"New York","NY",40.77,-73.95
"619","10106",1,"New York","NY",40.765243,-73.980438
"620","10128",2,"New York","NY",40.781894,-73.95039
"621","10280",1,"New York","NY",40.707467,-74.0178
"622","10286",1,"New York","NY",40.714231,-74.011895
"623","10301",2,"Staten Island","NY",40.631775,-74.09432
"624","10302",1,"Staten Island","NY",40.631127,-74.13715
"625","10303",2,"Staten Island","NY",40.629448,-74.16239
"626","10304",3,"Staten Island","NY",40.60787,-74.08991
"627","10305",9,"Staten Island","NY",40.599021,-74.07503
"628","10306",17,"Staten Island","NY",40.569394,-74.11785
"629","10307",2,"Staten Island","NY",40.508274,-74.24387
"630","10308",4,"Staten Island","NY",40.551353,-74.15098
"631","10309",1,"Staten Island","NY",40.529749,-74.21304
"632","10310",1,"Staten Island","NY",40.63212,-74.11551
"633","10312",1,"Staten Island","NY",40.543117,-74.17628
"634","10314",2,"Staten Island","NY",40.606337,-74.14513
"635","10451",2,"Bronx","NY",40.819729,-73.9223
"636","10452",2,"Bronx","NY",40.838745,-73.92234
"637","10453",1,"Bronx","NY",40.853017,-73.91214
"638","10454",1,"Bronx","NY",40.805968,-73.91628
"639","10455",1,"Bronx","NY",40.815559,-73.90771
"640","10456",1,"Bronx","NY",40.829676,-73.90856
"641","10457",1,"Bronx","NY",40.846745,-73.89861
"642","10458",1,"Bronx","NY",40.864166,-73.88881
"643","10459",1,"Bronx","NY",40.825432,-73.89327
"644","10460",1,"Bronx","NY",40.84095,-73.88036
"645","10461",1,"Bronx","NY",40.842917,-73.83819
"646","10463",2,"Bronx","NY",40.881086,-73.90749
"647","10464",2,"Bronx","NY",40.857017,-73.78903
"648","10465",2,"Bronx","NY",40.825727,-73.81752
"649","10466",1,"Bronx","NY",40.89095,-73.84702
"650","10468",1,"Bronx","NY",40.867107,-73.89916
"651","10469",3,"Bronx","NY",40.868643,-73.84735
"652","10470",1,"Bronx","NY",40.900629,-73.86072
"653","10471",3,"Bronx","NY",40.900819,-73.90347
"654","10472",1,"Bronx","NY",40.830409,-73.86845
"655","10473",2,"Bronx","NY",40.818514,-73.85893
"656","10475",1,"Bronx","NY",40.878522,-73.82541
"657","10502",1,"Ardsley","NY",41.011324,-73.84152
"658","10504",1,"Armonk","NY",41.129908,-73.70352
"659","10505",1,"Baldwin Place","NY",41.33431,-73.749244
"660","10506",1,"Bedford","NY",41.195778,-73.62777
"661","10507",1,"Bedford Hills","NY",41.236931,-73.69018
"662","10510",1,"Briarcliff Manor","NY",41.146297,-73.83311
"663","10511",1,"Buchanan","NY",41.260283,-73.94033
"664","10512",1,"Carmel","NY",41.444833,-73.6845
"665","10514",1,"Chappaqua","NY",41.167455,-73.77597
"666","10516",1,"Cold Spring","NY",41.440695,-73.9314
"667","10517",1,"Crompond","NY",41.300561,-73.861217
"668","10520",1,"Croton On Hudson","NY",41.215541,-73.88543
"669","10523",2,"Elmsford","NY",41.057089,-73.81658
"670","10524",1,"Garrison","NY",41.363063,-73.92154
"671","10526",1,"Goldens Bridge","NY",41.294561,-73.66701
"672","10528",1,"Harrison","NY",40.972667,-73.71886
"673","10530",1,"Hartsdale","NY",41.025114,-73.80635
"674","10532",1,"Hawthorne","NY",41.103664,-73.7958
"675","10537",1,"Lake Peekskill","NY",41.337335,-73.88689
"676","10538",1,"Larchmont","NY",40.933089,-73.75615
"677","10541",1,"Mahopac","NY",41.372419,-73.75367
"678","10543",1,"Mamaroneck","NY",40.952892,-73.7346
"679","10547",1,"Mohegan Lake","NY",41.314676,-73.85118
"680","10549",1,"Mount Kisco","NY",41.204027,-73.73045
"681","10550",1,"Mount Vernon","NY",40.907607,-73.83709
"682","10552",1,"Mount Vernon","NY",40.924195,-73.82614
"683","10553",1,"Mount Vernon","NY",40.909288,-73.8215
"684","10560",1,"North Salem","NY",41.32797,-73.61306
"685","10562",1,"Ossining","NY",41.176837,-73.84741
"686","10566",1,"Peekskill","NY",41.288258,-73.91928
"687","10567",1,"Cortlandt Manor","NY",41.300813,-73.8908
"688","10573",2,"Port Chester","NY",41.010376,-73.67326
"689","10576",1,"Pound Ridge","NY",41.212954,-73.58409
"690","10578",1,"Purdys","NY",41.3252,-73.66906
"691","10580",1,"Rye","NY",40.976579,-73.69002
"692","10583",1,"Scarsdale","NY",40.98845,-73.79716
"693","10588",1,"Shrub Oak","NY",41.330178,-73.82973
"694","10589",1,"Somers","NY",41.331587,-73.69234
"695","10590",1,"South Salem","NY",41.256639,-73.54076
"696","10591",1,"Tarrytown","NY",41.080196,-73.85721
"697","10595",1,"Valhalla","NY",41.083848,-73.77785
"698","10596",1,"Verplanck","NY",41.254823,-73.958727
"699","10598",1,"Yorktown Heights","NY",41.296874,-73.78934
"700","10603",1,"White Plains","NY",41.053182,-73.77672
"701","10604",1,"West Harrison","NY",41.045387,-73.74451
"702","10605",1,"White Plains","NY",41.01002,-73.75158
"703","10606",1,"White Plains","NY",41.024107,-73.77808
"704","10607",1,"White Plains","NY",41.041191,-73.80953
"705","10701",1,"Yonkers","NY",40.943525,-73.88176
"706","10703",1,"Yonkers","NY",40.956546,-73.8799
"707","10704",1,"Yonkers","NY",40.920273,-73.8612
"708","10705",1,"Yonkers","NY",40.917281,-73.89142
"709","10706",2,"Hastings On Hudson","NY",40.992084,-73.8729
"710","10708",1,"Bronxville","NY",40.939049,-73.83099
"711","10710",1,"Yonkers","NY",40.96555,-73.84506
"712","10801",1,"New Rochelle","NY",40.915845,-73.78643
"713","10804",1,"Wykagyl","NY",40.946805,-73.78797
"714","10805",1,"New Rochelle","NY",40.897783,-73.77933
"715","10901",1,"Suffern","NY",41.125695,-74.12682
"716","10913",1,"Blauvelt","NY",41.062779,-73.96016
"717","10916",1,"Campbell Hall","NY",41.451074,-74.24346
"718","10918",1,"Chester","NY",41.35648,-74.26072
"719","10920",1,"Congers","NY",41.149245,-73.94287
"720","10921",1,"Florida","NY",41.332519,-74.35931
"721","10923",1,"Garnerville","NY",41.204544,-74.00161
"722","10924",1,"Goshen","NY",41.38928,-74.3337
"723","10925",1,"Greenwood Lake","NY",41.211794,-74.29778
"724","10926",1,"Harriman","NY",41.299334,-74.14049
"725","10927",1,"Haverstraw","NY",41.196044,-73.96836
"726","10928",1,"Highland Falls","NY",41.360336,-73.97293
"727","10930",1,"Highland Mills","NY",41.35805,-74.12096
"728","10940",1,"Middletown","NY",41.449364,-74.43951
"729","10941",1,"Middletown","NY",41.478028,-74.35844
"730","10950",1,"Monroe","NY",41.323547,-74.19531
"731","10952",3,"Monsey","NY",41.116162,-74.07556
"732","10956",1,"New City","NY",41.145495,-73.9949
"733","10960",6,"Nyack","NY",41.089746,-73.9258
"734","10962",1,"Orangeburg","NY",41.047996,-73.96215
"735","10964",1,"Palisades","NY",41.011464,-73.92585
"736","10965",1,"Pearl River","NY",41.063329,-74.01734
"737","10968",1,"Piermont","NY",41.040623,-73.91878
"738","10969",1,"Pine Island","NY",41.295568,-74.48935
"739","10970",1,"Pomona","NY",41.192394,-74.04523
"740","10977",3,"Spring Valley","NY",41.116795,-74.04504
"741","10979",1,"Sterling Forest","NY",41.182344,-74.318354
"742","10980",1,"Stony Point","NY",41.231408,-74.01157
"743","10989",1,"Valley Cottage","NY",41.119788,-73.94455
"744","10990",1,"Warwick","NY",41.259896,-74.35837
"745","10992",1,"Washingtonville","NY",41.428269,-74.16178
"746","10993",1,"West Haverstraw","NY",41.207594,-73.97772
"747","10994",1,"West Nyack","NY",41.097529,-73.96996
"748","10997",1,"West Point","NY",41.387822,-74.354699
"749","10998",1,"Westtown","NY",41.334034,-74.54593
"750","11001",2,"Floral Park","NY",40.7232,-73.70475
"751","11003",1,"Elmont","NY",40.700529,-73.70223
"752","11004",2,"Glen Oaks","NY",40.742944,-73.70956
"753","11010",1,"Franklin Square","NY",40.701702,-73.67562
"754","11020",1,"Great Neck","NY",40.771082,-73.71819
"755","11021",1,"Great Neck","NY",40.787068,-73.72577
"756","11023",1,"Great Neck","NY",40.798839,-73.73352
"757","11024",1,"Great Neck","NY",40.812887,-73.74094
"758","11030",1,"Manhasset","NY",40.796752,-73.68935
"759","11040",1,"New Hyde Park","NY",40.742901,-73.67895
"760","11050",2,"Port Washington","NY",40.833246,-73.69309
"761","11096",3,"Inwood","NY",40.618206,-73.74762
"762","11101",2,"Long Island City","NY",40.745341,-73.93907
"763","11102",3,"Astoria","NY",40.771286,-73.92462
"764","11103",2,"Astoria","NY",40.762968,-73.91091
"765","11104",2,"Sunnyside","NY",40.743796,-73.91949
"766","11105",1,"Astoria","NY",40.774686,-73.90816
"767","11106",1,"Astoria","NY",40.762012,-73.93147
"768","11109",1,"Long Island City","NY",40.651378,-73.870779
"769","11122",1,NA,NA,NA,NA
"770","11201",2,"Brooklyn","NY",40.695286,-73.98907
"771","11202",1,"Brooklyn","NY",40.645099,-73.945032
"772","11203",2,"Brooklyn","NY",40.649059,-73.93304
"773","11204",1,"Brooklyn","NY",40.618944,-73.98473
"774","11205",1,"Brooklyn","NY",40.694214,-73.96529
"775","11207",3,"Brooklyn","NY",40.670874,-73.89424
"776","11208",1,"Brooklyn","NY",40.672666,-73.87248
"777","11209",2,"Brooklyn","NY",40.62327,-74.0295
"778","11210",1,"Brooklyn","NY",40.627946,-73.94552
"779","11211",1,"Brooklyn","NY",40.71209,-73.95427
"780","11212",3,"Brooklyn","NY",40.662191,-73.91328
"781","11213",1,"Brooklyn","NY",40.670937,-73.93459
"782","11214",2,"Brooklyn","NY",40.598994,-73.99611
"783","11215",1,"Brooklyn","NY",40.667508,-73.9856
"784","11216",1,"Brooklyn","NY",40.680398,-73.94824
"785","11217",1,"Brooklyn","NY",40.68209,-73.97783
"786","11218",1,"Brooklyn","NY",40.644552,-73.97595
"787","11219",1,"Brooklyn","NY",40.632449,-73.99629
"788","11220",1,"Brooklyn","NY",40.641436,-74.01574
"789","11221",1,"Brooklyn","NY",40.691234,-73.92637
"790","11222",1,"Brooklyn","NY",40.726302,-73.94559
"791","11223",3,"Brooklyn","NY",40.598142,-73.97229
"792","11224",16,"Brooklyn","NY",40.576589,-73.99172
"793","11225",1,"Brooklyn","NY",40.662892,-73.95509
"794","11226",2,"Brooklyn","NY",40.645256,-73.95553
"795","11228",2,"Brooklyn","NY",40.617563,-74.01168
"796","11229",5,"Brooklyn","NY",40.599256,-73.94118
"797","11230",2,"Brooklyn","NY",40.622994,-73.96427
"798","11231",4,"Brooklyn","NY",40.6788,-74.00254
"799","11232",1,"Brooklyn","NY",40.655481,-74.00424
"800","11233",1,"Brooklyn","NY",40.676938,-73.91858
"801","11234",5,"Brooklyn","NY",40.618561,-73.9216
"802","11235",8,"Brooklyn","NY",40.583803,-73.95019
"803","11236",8,"Brooklyn","NY",40.640527,-73.90362
"804","11249",1,"Brooklyn","NY",40.645099,-73.945032
"805","11326",1,NA,NA,NA,NA
"806","11352",1,"Flushing","NY",40.651378,-73.870779
"807","11354",1,"Flushing","NY",40.767969,-73.82496
"808","11355",1,"Flushing","NY",40.749463,-73.81941
"809","11356",1,"College Point","NY",40.785462,-73.84366
"810","11357",1,"Whitestone","NY",40.784453,-73.80922
"811","11358",1,"Flushing","NY",40.760522,-73.79612
"812","11360",2,"Bayside","NY",40.780386,-73.78005
"813","11361",2,"Bayside","NY",40.763177,-73.77392
"814","11362",2,"Little Neck","NY",40.759686,-73.73322
"815","11363",2,"Little Neck","NY",40.772636,-73.74644
"816","11364",4,"Oakland Gardens","NY",40.746718,-73.75994
"817","11365",1,"Fresh Meadows","NY",40.738983,-73.79209
"818","11366",1,"Fresh Meadows","NY",40.726137,-73.79502
"819","11367",1,"Flushing","NY",40.728614,-73.82145
"820","11368",2,"Corona","NY",40.747106,-73.85838
"821","11369",2,"East Elmhurst","NY",40.762854,-73.87051
"822","11370",2,"East Elmhurst","NY",40.763015,-73.89052
"823","11371",1,"Flushing","NY",40.772072,-73.87509
"824","11372",1,"Jackson Heights","NY",40.750146,-73.88433
"825","11373",1,"Elmhurst","NY",40.736076,-73.87804
"826","11374",2,"Rego Park","NY",40.724945,-73.8609
"827","11377",1,"Woodside","NY",40.742869,-73.90377
"828","11378",1,"Maspeth","NY",40.724096,-73.90271
"829","11379",2,"Middle Village","NY",40.716028,-73.87925
"830","11385",1,"Ridgewood","NY",40.703069,-73.89285
"831","11411",2,"Cambria Heights","NY",40.693538,-73.73574
"832","11412",4,"Saint Albans","NY",40.697188,-73.75948
"833","11413",7,"Springfield Gardens","NY",40.670138,-73.75141
"834","11414",13,"Howard Beach","NY",40.658188,-73.84321
"835","11415",4,"Kew Gardens","NY",40.706903,-73.82973
"836","11416",1,"Ozone Park","NY",40.683301,-73.8503
"837","11417",2,"Ozone Park","NY",40.675534,-73.84476
"838","11418",1,"Richmond Hill","NY",40.698485,-73.83365
"839","11419",4,"South Richmond Hill","NY",40.688688,-73.82216
"840","11420",3,"South Ozone Park","NY",40.673138,-73.81443
"841","11421",1,"Woodhaven","NY",40.69087,-73.85828
"842","11422",6,"Rosedale","NY",40.662538,-73.73514
"843","11423",1,"Hollis","NY",40.714261,-73.76824
"844","11426",2,"Bellerose","NY",40.732239,-73.72108
"845","11427",2,"Queens Village","NY",40.728235,-73.74782
"846","11428",1,"Queens Village","NY",40.719981,-73.74127
"847","11429",4,"Queens Village","NY",40.708833,-73.73903
"848","11432",1,"Jamaica","NY",40.714144,-73.79324
"849","11433",1,"Jamaica","NY",40.696538,-73.78734
"850","11434",3,"Jamaica","NY",40.674888,-73.7727
"851","11435",2,"Jamaica","NY",40.700068,-73.80986
"852","11436",2,"Jamaica","NY",40.674146,-73.79687
"853","11501",2,"Mineola","NY",40.747188,-73.63808
"854","11507",1,"Albertson","NY",40.769942,-73.65004
"855","11509",1,"Atlantic Beach","NY",40.589538,-73.72915
"856","11510",6,"Baldwin","NY",40.654112,-73.6095
"857","11514",2,"Carle Place","NY",40.750132,-73.61328
"858","11516",4,"Cedarhurst","NY",40.627386,-73.72852
"859","11518",9,"East Rockaway","NY",40.639575,-73.66703
"860","11520",5,"Freeport","NY",40.653935,-73.587
"861","11530",4,"Garden City","NY",40.725257,-73.64056
"862","11542",1,"Glen Cove","NY",40.864757,-73.62609
"863","11545",2,"Glen Head","NY",40.823957,-73.60415
"864","11547",1,"Glenwood Landing","NY",40.828143,-73.64401
"865","11550",3,"Hempstead","NY",40.702271,-73.61741
"866","11552",1,"West Hempstead","NY",40.6949,-73.65394
"867","11553",1,"Uniondale","NY",40.703502,-73.59306
"868","11554",2,"East Meadow","NY",40.7143,-73.55527
"869","11555",1,"Uniondale","NY",40.754757,-73.601772
"870","11557",2,"Hewlett","NY",40.639534,-73.69253
"871","11558",10,"Island Park","NY",40.603159,-73.65515
"872","11559",5,"Lawrence","NY",40.61579,-73.73126
"873","11560",2,"Locust Valley","NY",40.881957,-73.59417
"874","11561",22,"Long Beach","NY",40.588154,-73.66517
"875","11563",2,"Lynbrook","NY",40.656974,-73.67306
"876","11565",2,"Malverne","NY",40.675249,-73.67298
"877","11566",6,"Merrick","NY",40.666575,-73.55475
"878","11568",2,"Old Westbury","NY",40.787368,-73.60119
"879","11569",3,"Point Lookout","NY",40.593996,-73.58039
"880","11570",3,"Rockville Centre","NY",40.663935,-73.63792
"881","11572",14,"Oceanside","NY",40.636286,-73.6374
"882","11575",3,"Roosevelt","NY",40.679413,-73.58694
"883","11576",1,"Roslyn","NY",40.793839,-73.65156
"884","11577",3,"Roslyn Heights","NY",40.785642,-73.64006
"885","11578",1,NA,NA,NA,NA
"886","11580",2,"Valley Stream","NY",40.673,-73.70346
"887","11581",6,"Valley Stream","NY",40.651733,-73.71079
"888","11589",1,NA,NA,NA,NA
"889","11590",2,"Westbury","NY",40.756287,-73.57536
"890","11591",1,NA,NA,NA,NA
"891","11596",3,"Williston Park","NY",40.758283,-73.64259
"892","11598",3,"Woodmere","NY",40.633103,-73.71404
"893","11639",1,NA,NA,NA,NA
"894","11681",1,NA,NA,NA,NA
"895","11691",22,"Far Rockaway","NY",40.60002,-73.75962
"896","11692",14,"Arverne","NY",40.592939,-73.79568
"897","11693",28,"Far Rockaway","NY",40.596959,-73.81978
"898","11694",35,"Rockaway Park","NY",40.57649,-73.84721
"899","11695",2,"Far Rockaway","NY",40.651378,-73.870779
"900","11696",1,"Inwood","NY",40.651378,-73.870779
"901","11697",18,"Breezy Point","NY",40.560167,-73.90891
"902","11699",1,NA,NA,NA,NA
"903","11701",7,"Amityville","NY",40.6851,-73.41317
"904","11702",12,"Babylon","NY",40.687649,-73.32549
"905","11703",1,"North Babylon","NY",40.733398,-73.32257
"906","11704",6,"West Babylon","NY",40.719249,-73.35829
"907","11705",1,"Bayport","NY",40.74485,-73.055
"908","11706",6,"Bay Shore","NY",40.729098,-73.25607
"909","11709",1,"Bayville","NY",40.907277,-73.55713
"910","11710",5,"Bellmore","NY",40.673438,-73.53382
"911","11713",1,"Bellport","NY",40.771447,-72.94663
"912","11714",1,"Bethpage","NY",40.740662,-73.48631
"913","11715",1,"Blue Point","NY",40.74897,-73.03436
"914","11716",1,"Bohemia","NY",40.770042,-73.11376
"915","11717",2,"Brentwood","NY",40.783954,-73.24517
"916","11718",2,"Brightwaters","NY",40.720746,-73.26614
"917","11719",1,"Brookhaven","NY",40.780058,-72.91566
"918","11720",2,"Centereach","NY",40.868946,-73.08009
"919","11721",1,"Centerport","NY",40.890598,-73.37536
"920","11722",1,"Central Islip","NY",40.784874,-73.19924
"921","11724",1,"Cold Spring Harbor","NY",40.865731,-73.44645
"922","11725",1,"Commack","NY",40.841522,-73.28001
"923","11726",5,"Copiague","NY",40.680892,-73.39609
"924","11727",1,"Coram","NY",40.884895,-73.00501
"925","11729",2,"Deer Park","NY",40.760698,-73.33007
"926","11730",1,"East Islip","NY",40.72921,-73.18073
"927","11731",1,"East Northport","NY",40.865998,-73.31796
"928","11732",1,"East Norwich","NY",40.848766,-73.53478
"929","11733",2,"East Setauket","NY",40.932053,-73.10666
"930","11735",5,"Farmingdale","NY",40.725968,-73.44151
"931","11738",1,"Farmingville","NY",40.83469,-73.0386
"932","11739",1,"Great River","NY",40.922326,-72.637078
"933","11740",2,"Greenlawn","NY",40.862565,-73.36221
"934","11741",1,"Holbrook","NY",40.799706,-73.07485
"935","11742",1,"Holtsville","NY",40.810606,-73.04036
"936","11743",4,"Huntington","NY",40.867498,-73.41146
"937","11746",4,"Huntington Station","NY",40.821698,-73.37553
"938","11747",1,"Melville","NY",40.791593,-73.40543
"939","11751",3,"Islip","NY",40.734212,-73.21416
"940","11752",2,"Islip Terrace","NY",40.754386,-73.18326
"941","11753",3,"Jericho","NY",40.786544,-73.53675
"942","11754",1,"Kings Park","NY",40.888497,-73.24258
"943","11755",1,"Lake Grove","NY",40.855402,-73.11839
"944","11756",2,"Levittown","NY",40.724883,-73.51739
"945","11757",11,"Lindenhurst","NY",40.690049,-73.37442
"946","11758",9,"Massapequa","NY",40.68085,-73.46289
"947","11762",3,"Massapequa Park","NY",40.68505,-73.44681
"948","11763",1,"Medford","NY",40.820786,-72.98375
"949","11764",1,"Miller Place","NY",40.946506,-72.98837
"950","11766",1,"Mount Sinai","NY",40.929242,-73.01317
"951","11767",1,"Nesconset","NY",40.842962,-73.14303
"952","11768",4,"Northport","NY",40.905647,-73.33114
"953","11769",1,"Oakdale","NY",40.736011,-73.1296
"954","11770",7,"Ocean Beach","NY",40.643951,-73.16115
"955","11771",1,"Oyster Bay","NY",40.868882,-73.52292
"956","11772",4,"Patchogue","NY",40.770898,-73.00213
"957","11776",1,"Port Jefferson Station","NY",40.911082,-73.04966
"958","11777",2,"Port Jefferson","NY",40.946103,-73.06222
"959","11778",1,"Rocky Point","NY",40.954093,-72.92884
"960","11779",2,"Ronkonkoma","NY",40.818826,-73.1187
"961","11780",3,"Saint James","NY",40.884394,-73.15868
"962","11782",3,"Sayville","NY",40.739869,-73.07198
"963","11783",2,"Seaford","NY",40.679752,-73.48959
"964","11784",1,"Selden","NY",40.869274,-73.04254
"965","11786",1,"Shoreham","NY",40.94993,-72.89533
"966","11787",2,"Smithtown","NY",40.853343,-73.20777
"967","11788",1,"Hauppauge","NY",40.819266,-73.20967
"968","11789",1,"Sound Beach","NY",40.955586,-72.9733
"969","11790",1,"Stony Brook","NY",40.906174,-73.12748
"970","11791",1,"Syosset","NY",40.815215,-73.50057
"971","11792",1,"Wading River","NY",40.953261,-72.8368
"972","11793",3,"Wantagh","NY",40.676649,-73.51122
"973","11795",4,"West Islip","NY",40.713459,-73.3001
"974","11796",1,"West Sayville","NY",40.731954,-73.10081
"975","11797",2,"Woodbury","NY",40.813801,-73.46912
"976","11798",4,"Wyandanch","NY",40.752098,-73.36516
"977","11799",1,NA,NA,NA,NA
"978","11801",1,"Hicksville","NY",40.763355,-73.52323
"979","11803",2,"Plainview","NY",40.779911,-73.47948
"980","11804",1,"Old Bethpage","NY",40.765378,-73.45781
"981","11901",3,"Riverhead","NY",40.926595,-72.65327
"982","11930",1,"Amagansett","NY",40.985301,-72.10411
"983","11931",1,"Aquebogue","NY",40.922326,-72.637078
"984","11932",1,"Bridgehampton","NY",40.939075,-72.30514
"985","11933",1,"Calverton","NY",40.933429,-72.74646
"986","11934",2,"Center Moriches","NY",40.797772,-72.79719
"987","11935",1,"Cutchogue","NY",41.012868,-72.4723
"988","11937",1,"East Hampton","NY",40.995384,-72.18564
"989","11939",1,"East Marion","NY",41.128923,-72.34189
"990","11940",1,"East Moriches","NY",40.806287,-72.75673
"991","11941",2,"Eastport","NY",40.824658,-72.72356
"992","11942",2,"East Quogue","NY",40.84867,-72.57794
"993","11944",1,"Greenport","NY",41.103838,-72.36729
"994","11946",2,"Hampton Bays","NY",40.875897,-72.52063
"995","11947",2,"Jamesport","NY",40.943323,-72.57996
"996","11948",1,"Laurel","NY",40.961916,-72.55024
"997","11949",1,"Manorville","NY",40.855861,-72.79736
"998","11950",1,"Mastic","NY",40.80481,-72.84664
"999","11951",2,"Mastic Beach","NY",40.763634,-72.84554
"1000","11952",1,"Mattituck","NY",40.994649,-72.53731
"1001","11953",2,"Middle Island","NY",40.886267,-72.9552
"1002","11954",1,"Montauk","NY",41.03831,-71.9506
"1003","11955",1,"Moriches","NY",40.805789,-72.82092
"1004","11956",1,"New Suffolk","NY",40.991836,-72.47505
"1005","11957",1,"Orient","NY",41.151826,-72.27511
"1006","11958",1,"Peconic","NY",41.03687,-72.45341
"1007","11959",1,"Quogue","NY",40.825411,-72.60506
"1008","11960",1,"Remsenburg","NY",40.803923,-72.70421
"1009","11961",1,"Ridge","NY",40.89609,-72.87824
"1010","11962",2,"Sagaponack","NY",40.937683,-72.26831
"1011","11963",2,"Sag Harbor","NY",40.99628,-72.31074
"1012","11964",3,"Shelter Island","NY",41.060843,-72.33159
"1013","11965",2,"Shelter Island Heights","NY",41.07815,-72.35093
"1014","11967",3,"Shirley","NY",40.794317,-72.87181
"1015","11968",2,"Southampton","NY",40.904348,-72.40714
"1016","11969",1,"Southampton","NY",40.922326,-72.637078
"1017","11970",1,"South Jamesport","NY",40.941363,-72.57502
"1018","11971",1,"Southold","NY",41.059209,-72.42041
"1019","11976",1,"Water Mill","NY",40.919693,-72.34407
"1020","11977",1,"Westhampton","NY",40.81819,-72.67835
"1021","11978",5,"Westhampton Beach","NY",40.816142,-72.63449
"1022","11980",1,"Yaphank","NY",40.832858,-72.91611
"1023","12231",1,"Albany","NY",42.614852,-73.970812
"1024","12401",1,"Kingston","NY",41.932315,-74.02259
"1025","12409",1,"Bearsville","NY",42.061841,-74.16063
"1026","12477",1,"Saugerties","NY",42.085634,-73.97685
"1027","12481",1,"Shokan","NY",41.974857,-74.20686
"1028","12491",1,"West Hurley","NY",41.998199,-74.10967
"1029","12493",1,"West Park","NY",41.805576,-73.96845
"1030","12525",1,"Gardiner","NY",41.691524,-74.18764
"1031","12550",1,"Newburgh","NY",41.521593,-74.04072
"1032","12553",1,"New Windsor","NY",41.46359,-74.05975
"1033","12561",1,"New Paltz","NY",41.751566,-74.09475
"1034","12566",1,"Pine Bush","NY",41.61134,-74.32764
"1035","12586",1,"Walden","NY",41.563701,-74.1755
"1036","12701",1,"Monticello","NY",41.653071,-74.69748
"1037","12721",1,"Bloomingburg","NY",41.564426,-74.4265
"1038","12747",1,"Hurleyville","NY",41.752458,-74.66996
"1039","12748",1,"Jeffersonville","NY",41.774223,-74.92211
"1040","12754",1,"Liberty","NY",41.798476,-74.7361
"1041","12758",2,"Livingston Manor","NY",41.920201,-74.7857
"1042","12763",1,"Mountain Dale","NY",41.690795,-74.52273
"1043","12771",1,"Port Jervis","NY",41.374734,-74.66315
"1044","12775",1,"Rock Hill","NY",41.614218,-74.58836
"1045","12778",1,"Smallwood","NY",41.65974,-74.812
"1046","12783",1,"Swan Lake","NY",41.736523,-74.82634
"1047","13304",1,"Barneveld","NY",43.242724,-75.1659
"1048","13319",1,"Chadwicks","NY",43.029669,-75.27211
"1049","13323",1,"Clinton","NY",43.049536,-75.37656
"1050","13329",1,"Dolgeville","NY",43.11545,-74.74379
"1051","13339",2,"Fort Plain","NY",42.943602,-74.64717
"1052","13341",1,"Franklin Springs","NY",43.036802,-75.39115
"1053","13350",1,"Herkimer","NY",43.038149,-74.9846
"1054","13354",1,"Holland Patent","NY",43.261526,-75.25705
"1055","13357",1,"Ilion","NY",42.992323,-75.0615
"1056","13365",1,"Little Falls","NY",43.053176,-74.84685
"1057","13407",1,"Mohawk","NY",42.970099,-74.96051
"1058","13409",1,"Munnsville","NY",42.967906,-75.59457
"1059","13421",2,"Oneida","NY",43.079635,-75.64678
"1060","13439",1,"Richfield Springs","NY",42.852372,-74.99121
"1061","13480",1,"Waterville","NY",42.922823,-75.36494
"1062","13495",1,"Yorkville","NY",43.110619,-75.27716
"1063","15017",1,"Bridgeville","PA",40.351802,-80.11534
"1064","15018",1,"Buena Vista","PA",40.266358,-79.79325
"1065","15025",1,"Clairton","PA",40.292974,-79.90179
"1066","15037",1,"Elizabeth","PA",40.258438,-79.85946
"1067","15057",2,"McDonald","PA",40.357286,-80.23629
"1068","15060",1,"Midway","PA",40.368154,-80.2924
"1069","15062",1,"Monessen","PA",40.154271,-79.88277
"1070","15063",1,"Monongahela","PA",40.196694,-79.92642
"1071","15071",1,"Oakdale","PA",40.420319,-80.18692
"1072","15088",1,"West Elizabeth","PA",40.272901,-79.89491
"1073","15090",1,"Wexford","PA",40.617016,-80.05916
"1074","15102",1,"Bethel Park","PA",40.324535,-80.03864
"1075","15104",1,"Braddock","PA",40.404743,-79.86439
"1076","15129",1,"Library","PA",40.289752,-80.00756
"1077","15133",1,"McKeesport","PA",40.332502,-79.8646
"1078","15135",1,"McKeesport","PA",40.306819,-79.8145
"1079","15136",1,"McKees Rocks","PA",40.471618,-80.07695
"1080","15140",1,"Pitcairn","PA",40.405768,-79.77643
"1081","15143",1,"Sewickley","PA",40.561091,-80.15554
"1082","15207",1,"Pittsburgh","PA",40.399355,-79.93414
"1083","15227",1,"Pittsburgh","PA",40.377869,-79.97516
"1084","15228",1,"Pittsburgh","PA",40.372802,-80.0448
"1085","15234",1,"Pittsburgh","PA",40.369619,-80.01831
"1086","15236",1,"Pittsburgh","PA",40.342869,-79.97929
"1087","15241",2,"Pittsburgh","PA",40.329619,-80.07364
"1088","15243",1,"Pittsburgh","PA",40.372669,-80.0712
"1089","15314",1,"Bentleyville","PA",40.127951,-80.01226
"1090","15317",1,"Canonsburg","PA",40.26819,-80.16222
"1091","15321",1,"Cecil","PA",40.322872,-80.18745
"1092","15332",1,"Finleyville","PA",40.250299,-79.99436
"1093","15367",1,"Venetia","PA",40.261394,-80.05254
"1094","15401",1,"Uniontown","PA",39.89822,-79.7311
"1095","15425",3,"Connellsville","PA",40.024138,-79.58414
"1096","15431",1,"Dunbar","PA",39.968368,-79.61815
"1097","15456",1,"Lemont Furnace","PA",39.923495,-79.66014
"1098","15465",1,"Mount Braddock","PA",39.932084,-79.65217
"1099","15611",1,"Adamsburg","PA",40.3044,-79.65604
"1100","15613",2,"Apollo","PA",40.560849,-79.57544
"1101","15650",1,"Latrobe","PA",40.299646,-79.38845
"1102","15673",1,"North Apollo","PA",40.593301,-79.55779
"1103","15681",1,"Saltsburg","PA",40.500852,-79.4463
"1104","15686",1,"Spring Church","PA",40.608969,-79.42092
"1105","15690",2,"Vandergrift","PA",40.612649,-79.56708
"1106","15747",1,"Home","PA",40.763402,-79.14759
"1107","15767",1,"Punxsutawney","PA",40.954059,-78.97017
"1108","15801",2,"Du Bois","PA",41.125563,-78.74648
"1109","15848",1,"Luthersburg","PA",41.031691,-78.72684
"1110","15849",1,"Penfield","PA",41.201892,-78.56335
"1111","15851",1,"Reynoldsville","PA",41.095493,-78.88994
"1112","15857",1,"Saint Marys","PA",41.4376,-78.54272
"1113","15865",1,"Sykesville","PA",41.049353,-78.81868
"1114","16055",1,"Sarver","PA",40.713078,-79.73603
"1115","16101",1,"New Castle","PA",40.992023,-80.32747
"1116","16105",1,"New Castle","PA",41.038205,-80.34539
"1117","16114",1,"Clarks Mills","PA",41.402438,-80.18346
"1118","16157",1,"Wampum","PA",40.889241,-80.34189
"1119","16159",1,"West Middlesex","PA",41.174066,-80.45319
"1120","16201",1,"Kittanning","PA",40.809467,-79.49922
"1121","16212",1,"Cadogan","PA",40.7532,-79.58296
"1122","16262",1,"Worthington","PA",40.839519,-79.65268
"1123","16803",1,"State College","PA",40.802661,-77.89936
"1124","16822",1,"Beech Creek","PA",41.092339,-77.60545
"1125","16833",1,"Curwensville","PA",40.948433,-78.55176
"1126","19095",1,"Wyncote","PA",40.08786,-75.14707
"1127","19930",1,"Bethany Beach","DE",38.536354,-75.06062
"1128","19933",1,"Bridgeville","DE",38.73635,-75.60807
"1129","19944",1,"Fenwick Island","DE",38.459314,-75.05356
"1130","19966",1,"Millsboro","DE",38.601355,-75.2411
"1131","19970",1,"Ocean View","DE",38.55044,-75.09928
"1132","19971",2,"Rehoboth Beach","DE",38.711512,-75.09677
"1133","19975",1,"Selbyville","DE",38.463751,-75.15642
"1134","21801",1,"Salisbury","MD",38.369675,-75.61214
"1135","21811",1,"Berlin","MD",38.343166,-75.19082
"1136","21817",6,"Crisfield","MD",37.985297,-75.84597
"1137","21821",3,"Deal Island","MD",38.158615,-75.93147
"1138","21822",1,"Eden","MD",38.284622,-75.64771
"1139","21824",2,"Ewell","MD",37.991177,-76.02374
"1140","21838",3,"Marion Station","MD",38.018482,-75.7389
"1141","21841",1,"Newark","MD",38.248485,-75.29106
"1142","21842",2,"Ocean City","MD",38.385457,-75.07153
"1143","21849",1,"Parsonsburg","MD",38.363057,-75.45574
"1144","21851",2,"Pocomoke City","MD",38.069322,-75.54811
"1145","21853",3,"Princess Anne","MD",38.205272,-75.70169
"1146","21866",1,"Tylerton","MD",37.967803,-76.02337
"1147","21867",1,"Upper Fairmount","MD",38.111688,-75.79242
"1148","21871",2,"Westover","MD",38.100727,-75.7115
"1149","23303",1,"Atlantic","VA",37.892445,-75.51107
"1150","23306",1,"Belle Haven","VA",37.560093,-75.86182
"1151","23308",1,"Bloxom","VA",37.828492,-75.61896
"1152","23310",1,"Cape Charles","VA",37.26252,-75.97104
"1153","23336",1,"Chincoteague Island","VA",37.934673,-75.3678
"1154","23347",1,"Eastville","VA",37.353286,-75.94203
"1155","23356",1,"Greenbackville","VA",37.999025,-75.41634
"1156","23359",1,"Hallwood","VA",37.876357,-75.59686
"1157","23398",1,"Jamesville","VA",37.534336,-75.877052
"1158","23415",1,"New Church","VA",37.973042,-75.53045
"1159","23417",1,"Onancock","VA",37.70973,-75.76272
"1160","23420",1,"Painter","VA",37.589068,-75.79947
"1161","23421",1,"Parksley","VA",37.780966,-75.64895
"1162","23426",1,"Sanford","VA",37.93359,-75.67692
"1163","23427",1,"Saxis","VA",37.92358,-75.72178
"1164","23442",1,"Temperanceville","VA",37.887538,-75.53645
"1165","23488",1,"Withams","VA",37.952168,-75.59681
"1166","24910",1,"Alderson","WV",37.731717,-80.65942
"1167","25259",1,"Looneyville","WV",38.679327,-81.27334
"1168","25276",1,"Spencer","WV",38.780168,-81.34244
"1169","26288",1,"Webster Springs","WV",38.484777,-80.38023
"1170","27306",1,"Mount Gilead","NC",35.227919,-79.99741
"1171","27312",1,"Pittsboro","NC",35.756091,-79.17848
"1172","27371",1,"Troy","NC",35.382213,-79.92418
"1173","27510",1,"Carrboro","NC",35.912489,-79.08144
"1174","27514",1,"Chapel Hill","NC",35.915083,-79.02939
"1175","27516",1,"Chapel Hill","NC",35.912786,-79.10931
"1176","27517",1,"Chapel Hill","NC",35.892359,-79.020849
"1177","27707",1,"Durham","NC",35.963994,-78.93602
"1178","27943",1,"Hatteras","NC",35.218342,-75.68792
"1179","27948",1,"Kill Devil Hills","NC",36.022242,-75.67686
"1180","27949",1,"Kitty Hawk","NC",36.115899,-75.72772
"1181","27968",1,"Rodanthe","NC",35.661979,-75.47741
"1182","28001",1,"Albemarle","NC",35.351477,-80.19879
"1183","28025",1,"Concord","NC",35.400407,-80.56574
"1184","28037",1,"Denver","NC",35.501448,-81.00412
"1185","28092",1,"Lincolnton","NC",35.473447,-81.24094
"1186","28124",1,"Mount Pleasant","NC",35.407499,-80.41228
"1187","28128",1,"Norwood","NC",35.228831,-80.15214
"1188","28140",1,NA,NA,NA,NA
"1189","28168",2,"Vale","NC",35.545918,-81.42942
"1190","28601",2,"Hickory","NC",35.759932,-81.33012
"1191","28602",1,"Hickory","NC",35.70701,-81.3534
"1192","28607",1,"Boone","NC",36.21277,-81.66255
"1193","28610",1,"Claremont","NC",35.725163,-81.14279
"1194","28611",1,"Collettsville","NC",36.009373,-81.73139
"1195","28613",1,"Conover","NC",35.720227,-81.21466
"1196","28625",1,"Statesville","NC",35.840579,-80.87988
"1197","28645",1,"Lenoir","NC",35.934783,-81.54476
"1198","28655",1,"Morganton","NC",35.742752,-81.71625
"1199","28657",1,"Newland","NC",36.049348,-81.94286
"1200","28658",1,"Newton","NC",35.653437,-81.23443
"1201","28692",1,"Vilas","NC",36.268944,-81.77819
"1202","28694",1,"West Jefferson","NC",36.375468,-81.47784
"1203","29578",1,"Myrtle Beach","SC",33.738887,-78.999561
"1204","29579",1,"Myrtle Beach","SC",33.729439,-78.97824
"1205","30103",2,"Adairsville","GA",34.368647,-84.92452
"1206","30701",1,"Calhoun","GA",34.4966,-84.93798
"1207","34601",1,"Brooksville","FL",28.566183,-82.38002
"1208","34608",1,"Spring Hill","FL",28.484316,-82.55181
"1209","35063",1,"Empire","AL",33.805216,-87.00192
"1210","35503",1,"Jasper","AL",33.907546,-87.29957
"1211","35504",1,"Jasper","AL",33.883566,-87.2125
"1212","35549",1,"Carbon Hill","AL",33.87798,-87.52728
"1213","35901",1,"Gadsden","AL",34.016747,-85.99282
"1214","35905",1,"Gadsden","AL",33.942031,-85.93993
"1215","35907",1,"Gadsden","AL",33.906415,-86.02665
"1216","35951",2,"Albertville","AL",34.313014,-86.19282
"1217","35957",1,"Boaz","AL",34.203621,-86.1728
"1218","35960",1,"Centre","AL",34.141067,-85.60472
"1219","35986",1,"Rainsville","AL",34.500878,-85.83763
"1220","35987",1,"Steele","AL",33.9117,-86.24408
"1221","35988",1,"Sylvania","AL",34.56838,-85.79646
"1222","36009",1,"Brantley","AL",31.579451,-86.3188
"1223","36064",1,"Pike Road","AL",32.318234,-86.09585
"1224","36079",1,"Troy","AL",31.780847,-85.992
"1225","36081",1,"Troy","AL",31.852825,-85.92314
"1226","36107",1,"Montgomery","AL",32.378138,-86.27905
"1227","36201",1,"Anniston","AL",33.658803,-85.85178
"1228","36203",1,"Anniston","AL",33.591301,-85.83571
"1229","36272",1,"Piedmont","AL",33.948018,-85.61491
"1230","36279",1,"Wellington","AL",33.862349,-85.89512
"1231","36521",1,"Chunchula","AL",30.965694,-88.18697
"1232","36571",1,"Saraland","AL",30.831636,-88.09386
"1233","36587",1,"Wilmer","AL",30.828988,-88.35079
"1234","36603",1,"Mobile","AL",30.688457,-88.05341
"1235","36605",1,"Mobile","AL",30.641191,-88.08222
"1236","36606",1,"Mobile","AL",30.674057,-88.10249
"1237","36607",1,"Mobile","AL",30.699539,-88.10474
"1238","36608",1,"Mobile","AL",30.69044,-88.19701
"1239","36610",2,"Mobile","AL",30.737405,-88.08201
"1240","36611",1,"Mobile","AL",30.764938,-88.08505
"1241","36612",1,"Mobile","AL",30.753155,-88.11116
"1242","36613",1,"Eight Mile","AL",30.795637,-88.1577
"1243","36617",1,"Mobile","AL",30.717539,-88.09609
"1244","37058",1,"Dover","TN",36.477136,-87.85877
"1245","37075",1,"Hendersonville","TN",36.311047,-86.61173
"1246","37115",1,"Madison","TN",36.264069,-86.70566
"1247","37175",2,"Stewart","TN",36.316042,-87.89028
"1248","37178",2,"Tennessee Ridge","TN",36.323799,-87.77676
"1249","37207",1,"Nashville","TN",36.215535,-86.77317
"1250","37216",1,"Nashville","TN",36.213004,-86.72594
"1251","37218",1,"Nashville","TN",36.206755,-86.85215
"1252","37615",1,"Johnson City","TN",36.405338,-82.44593
"1253","37660",1,"Kingsport","TN",36.547133,-82.55408
"1254","37664",1,"Kingsport","TN",36.522968,-82.51162
"1255","37665",1,"Kingsport","TN",36.583233,-82.57249
"1256","37683",1,"Mountain City","TN",36.451041,-81.81906
"1257","38340",1,"Henderson","TN",35.414454,-88.66118
"1258","38345",1,"Huron","TN",35.576402,-88.51041
"1259","38351",1,"Lexington","TN",35.658409,-88.40535
"1260","39322",1,"Buckatunna","MS",31.574589,-88.53326
"1261","39341",2,"Macon","MS",33.115598,-88.58159
"1262","39361",1,"Shuqualak","MS",32.985613,-88.57464
"1263","39367",1,"Waynesboro","MS",31.688901,-88.65623
"1264","39401",3,"Hattiesburg","MS",31.285508,-89.2799
"1265","39402",2,"Hattiesburg","MS",31.325437,-89.37926
"1266","39404",1,"Hattiesburg","MS",31.172142,-89.294772
"1267","39406",1,"Hattiesburg","MS",31.172142,-89.294772
"1268","39426",1,"Carriere","MS",30.641521,-89.65929
"1269","39429",1,"Columbia","MS",31.255242,-89.79264
"1270","39455",3,"Lumberton","MS",31.035015,-89.49561
"1271","39456",1,"McLain","MS",31.072789,-88.80915
"1272","39457",2,"McNeill","MS",30.666936,-89.673392
"1273","39464",1,"Ovett","MS",31.487531,-89.05842
"1274","39465",2,"Petal","MS",31.358823,-89.2279
"1275","39470",1,"Poplarville","MS",30.810936,-89.56435
"1276","39478",1,"Sandy Hook","MS",31.054236,-89.85553
"1277","39501",1,"Gulfport","MS",30.380597,-89.09626
"1278","39503",1,"Gulfport","MS",30.461786,-89.10381
"1279","39577",1,"Wiggins","MS",30.94336,-89.17912
"1280","39581",1,"Pascagoula","MS",30.36298,-88.52901
"1281","39739",1,"Brooksville","MS",33.243098,-88.60228
"1282","43076",1,"Thornville","OH",39.909915,-82.41013
"1283","43112",1,"Carroll","OH",39.803993,-82.70953
"1284","43730",1,"Corning","OH",39.617263,-82.09325
"1285","43731",1,"Crooksville","OH",39.742354,-82.09349
"1286","43766",1,"New Straitsville","OH",39.588854,-82.25279
"1287","45764",1,"Nelsonville","OH",39.450463,-82.22975
"1288","46031",1,"Atlanta","IN",40.211166,-86.02304
"1289","46036",2,"Elwood","IN",40.279375,-85.83761
"1290","46039",1,"Forest","IN",40.366648,-86.30867
"1291","46060",1,"Noblesville","IN",40.050109,-85.99815
"1292","46065",1,"Rossville","IN",40.427919,-86.61059
"1293","46068",1,"Sharpsville","IN",40.378829,-86.09362
"1294","46069",1,"Sheridan","IN",40.134736,-86.21885
"1295","46072",1,"Tipton","IN",40.284041,-86.04681
"1296","46750",1,"Huntington","IN",40.872261,-85.49061
"1297","46901",1,"Kokomo","IN",40.501576,-86.14677
"1298","46902",1,"Kokomo","IN",40.450623,-86.12127
"1299","46911",1,"Amboy","IN",40.614885,-85.93863
"1300","46917",1,"Camden","IN",40.626913,-86.475
"1301","46936",1,"Greentown","IN",40.482338,-85.94279
"1302","46952",1,"Marion","IN",40.58119,-85.66324
"1303","46953",1,"Marion","IN",40.53089,-85.65922
"1304","46970",1,"Peru","IN",40.753091,-86.07185
"1305","46979",1,"Russiaville","IN",40.427588,-86.26918
"1306","46987",1,"Sweetser","IN",40.569731,-85.76697
"1307","48811",1,"Carson City","MI",43.184647,-84.84871
"1308","48815",1,"Clarksville","MI",42.841491,-85.25046
"1309","48838",1,"Greenville","MI",43.1791,-85.26533
"1310","48846",1,"Ionia","MI",42.981932,-85.06679
"1311","48849",1,"Lake Odessa","MI",42.788151,-85.13565
"1312","48881",1,"Saranac","MI",42.929829,-85.20938
"1313","48897",1,"Woodland","MI",42.705285,-85.12449
"1314","49301",1,"Ada","MI",42.97252,-85.47798
"1315","49302",1,"Alto","MI",42.834137,-85.41889
"1316","49306",1,"Belmont","MI",43.078615,-85.59318
"1317","49307",1,"Big Rapids","MI",43.697651,-85.47815
"1318","49321",1,"Comstock Park","MI",43.059661,-85.67384
"1319","49328",1,"Hopkins","MI",42.634199,-85.75809
"1320","49331",1,"Lowell","MI",42.944838,-85.34928
"1321","49333",1,"Middleville","MI",42.689437,-85.46466
"1322","49341",1,"Rockford","MI",43.117214,-85.5189
"1323","49348",1,"Wayland","MI",42.681969,-85.62761
"1324","49404",1,"Coopersville","MI",43.06507,-85.94516
"1325","49408",1,"Fennville","MI",42.575519,-86.12461
"1326","49417",1,"Grand Haven","MI",43.04117,-86.19013
"1327","49418",2,"Grandville","MI",42.891709,-85.76466
"1328","49423",1,"Holland","MI",42.765918,-86.10544
"1329","49426",1,"Hudsonville","MI",42.873302,-85.87861
"1330","49451",1,"Ravenna","MI",43.200998,-85.96376
"1331","49503",1,"Grand Rapids","MI",42.964176,-85.65885
"1332","49504",1,"Grand Rapids","MI",42.977925,-85.69733
"1333","49505",1,"Grand Rapids","MI",43.000076,-85.64785
"1334","49507",1,"Grand Rapids","MI",42.933077,-85.65435
"1335","49508",1,"Grand Rapids","MI",42.876661,-85.62856
"1336","49519",1,"Wyoming","MI",42.89,-85.72
"1337","49525",1,"Grand Rapids","MI",43.022199,-85.61168
"1338","49546",1,"Grand Rapids","MI",42.927801,-85.54582
"1339","49548",3,"Grand Rapids","MI",42.868228,-85.66391
"1340","54106",1,"Black Creek","WI",44.472424,-88.45746
"1341","54113",1,"Combined Locks","WI",44.264904,-88.312
"1342","54115",1,"De Pere","WI",44.42042,-88.07896
"1343","54126",1,"Greenleaf","WI",44.291766,-88.05059
"1344","54130",2,"Kaukauna","WI",44.293197,-88.25922
"1345","54911",1,"Appleton","WI",44.276986,-88.39445
"1346","54913",2,"Appleton","WI",44.322836,-88.40492
"1347","54914",2,"Appleton","WI",44.267411,-88.4383
"1348","54915",1,"Appleton","WI",44.244753,-88.37783
"1349","54942",1,"Greenville","WI",44.29382,-88.53557
"1350","54944",1,"Hortonville","WI",44.333183,-88.6167
"1351","54961",1,"New London","WI",44.394143,-88.75521
"1352","60002",1,"Antioch","IL",42.46617,-88.09995
"1353","60005",1,"Arlington Heights","IL",42.069327,-87.98464
"1354","60010",3,"Barrington","IL",42.160791,-88.15231
"1355","60012",1,"Crystal Lake","IL",42.265643,-88.31664
"1356","60013",2,"Cary","IL",42.217523,-88.24338
"1357","60014",1,"Crystal Lake","IL",42.226623,-88.33066
"1358","60015",1,"Deerfield","IL",42.169325,-87.86556
"1359","60016",1,"Des Plaines","IL",42.047178,-87.89058
"1360","60018",1,"Des Plaines","IL",42.008429,-87.89234
"1361","60020",1,"Fox Lake","IL",42.409445,-88.17822
"1362","60021",1,"Fox River Grove","IL",42.194946,-88.21676
"1363","60022",1,"Glencoe","IL",42.130976,-87.76252
"1364","60025",1,"Glenview","IL",42.07672,-87.81922
"1365","60026",1,"Glenview Nas","IL",41.811929,-87.68732
"1366","60035",1,"Highland Park","IL",42.181875,-87.80956
"1367","60041",1,"Ingleside","IL",42.372721,-88.15303
"1368","60043",1,"Kenilworth","IL",42.088128,-87.716
"1369","60046",2,"Lake Villa","IL",42.410687,-88.05462
"1370","60047",3,"Lake Zurich","IL",42.199957,-88.05859
"1371","60048",1,"Libertyville","IL",42.290922,-87.95169
"1372","60050",1,"Mchenry","IL",42.348406,-88.24769
"1373","60051",3,"Mchenry","IL",42.324761,-88.452481
"1374","60053",1,"Morton Grove","IL",42.041999,-87.78882
"1375","60056",1,"Mount Prospect","IL",42.065427,-87.93621
"1376","60062",1,"Northbrook","IL",42.124576,-87.84303
"1377","60064",1,"North Chicago","IL",42.326072,-87.85202
"1378","60068",1,"Park Ridge","IL",42.01183,-87.84158
"1379","60069",2,"Lincolnshire","IL",42.188074,-87.92717
"1380","60070",1,"Prospect Heights","IL",42.105576,-87.92816
"1381","60073",2,"Round Lake","IL",42.366253,-88.09647
"1382","60074",1,"Palatine","IL",42.143819,-88.02546
"1383","60076",2,"Skokie","IL",42.03618,-87.7321
"1384","60077",1,"Skokie","IL",42.033313,-87.75764
"1385","60081",2,"Spring Grove","IL",42.441869,-88.22167
"1386","60085",1,"Waukegan","IL",42.361271,-87.86187
"1387","60087",1,"Waukegan","IL",42.404272,-87.86525
"1388","60090",1,"Wheeling","IL",42.131526,-87.92958
"1389","60091",1,"Wilmette","IL",42.077178,-87.72373
"1390","60093",1,"Winnetka","IL",42.104127,-87.75016
"1391","60098",1,"Woodstock","IL",42.316121,-88.43884
"1392","60099",1,"Zion","IL",42.451371,-87.84862
"1393","60101",1,"Addison","IL",41.931573,-88.00222
"1394","60102",2,"Algonquin","IL",42.17315,-88.31849
"1395","60103",2,"Bartlett","IL",41.977477,-88.17257
"1396","60104",1,"Bellwood","IL",41.882924,-87.87642
"1397","60106",1,"Bensenville","IL",41.956479,-87.95117
"1398","60107",1,"Streamwood","IL",42.023977,-88.17657
"1399","60108",1,"Bloomingdale","IL",41.94954,-88.08256
"1400","60110",1,"Carpentersville","IL",42.121188,-88.27227
"1401","60115",1,"Dekalb","IL",41.924127,-88.74617
"1402","60118",2,"Dundee","IL",42.101502,-88.28891
"1403","60119",1,"Elburn","IL",41.876506,-88.46429
"1404","60120",1,"Elgin","IL",42.037176,-88.25922
"1405","60123",1,"Elgin","IL",42.034776,-88.32393
"1406","60126",1,"Elmhurst","IL",41.89103,-87.94181
"1407","60130",1,"Forest Park","IL",41.871331,-87.81235
"1408","60131",1,"Franklin Park","IL",41.93548,-87.87468
"1409","60133",1,"Hanover Park","IL",41.980896,-88.144475
"1410","60134",1,"Geneva","IL",41.885728,-88.31957
"1411","60135",1,"Genoa","IL",42.10028,-88.6906
"1412","60137",1,"Glen Ellyn","IL",41.869779,-88.06285
"1413","60139",1,"Glendale Heights","IL",41.920228,-88.07891
"1414","60140",1,"Hampshire","IL",42.086218,-88.5036
"1415","60142",1,"Huntley","IL",42.171973,-88.42891
"1416","60143",1,"Itasca","IL",41.972328,-88.02196
"1417","60148",1,"Lombard","IL",41.875429,-88.01723
"1418","60153",1,"Maywood","IL",41.880281,-87.84455
"1419","60154",1,"Westchester","IL",41.851257,-87.88351
"1420","60155",1,"Broadview","IL",41.857931,-87.85477
"1421","60160",1,"Melrose Park","IL",41.89988,-87.85978
"1422","60162",1,"Hillside","IL",41.872997,-87.90101
"1423","60163",1,"Berkeley","IL",41.886794,-87.91052
"1424","60164",2,"Melrose Park","IL",41.91823,-87.89627
"1425","60165",1,"Stone Park","IL",41.90158,-87.88046
"1426","60171",1,"River Grove","IL",41.92583,-87.84013
"1427","60172",2,"Roselle","IL",41.980761,-88.08704
"1428","60174",2,"Saint Charles","IL",41.919808,-88.30498
"1429","60176",1,"Schiller Park","IL",41.95683,-87.87193
"1430","60177",1,"South Elgin","IL",41.99215,-88.30609
"1431","60178",1,"Sycamore","IL",41.990505,-88.68704
"1432","60181",4,"Villa Park","IL",41.880429,-87.97813
"1433","60184",1,"Wayne","IL",41.953427,-88.25176
"1434","60185",1,"West Chicago","IL",41.891978,-88.20502
"1435","60187",1,"Wheaton","IL",41.858279,-88.10904
"1436","60188",1,"Carol Stream","IL",41.918578,-88.13688
"1437","60189",1,"Wheaton","IL",41.839679,-88.088716
"1438","60190",1,"Winfield","IL",41.875228,-88.15261
"1439","60191",1,"Wood Dale","IL",41.962979,-87.97688
"1440","60193",1,"Schaumburg","IL",42.01299,-88.09675
"1441","60194",1,"Schaumburg","IL",42.037108,-88.10719
"1442","60201",1,"Evanston","IL",42.056391,-87.69684
"1443","60202",1,"Evanston","IL",42.030327,-87.68828
"1444","60203",2,"Evanston","IL",42.048879,-87.7175
"1445","60302",1,"Oak Park","IL",41.893941,-87.78899
"1446","60304",1,"Oak Park","IL",41.87355,-87.7885
"1447","60305",1,"River Forest","IL",41.893031,-87.81718
"1448","60402",4,"Berwyn","IL",41.836981,-87.79095
"1449","60403",1,"Crest Hill","IL",41.55,-88.12
"1450","60406",1,"Blue Island","IL",41.656592,-87.68154
"1451","60409",1,"Calumet City","IL",41.614188,-87.54638
"1452","60410",1,"Channahon","IL",41.439518,-88.20898
"1453","60411",5,"Chicago Heights","IL",41.511307,-87.6101
"1454","60415",1,"Chicago Ridge","IL",41.702482,-87.77869
"1455","60416",1,"Coal City","IL",41.292011,-88.2783
"1456","60417",1,"Crete","IL",41.439034,-87.61173
"1457","60419",1,"Dolton","IL",41.626839,-87.59865
"1458","60422",1,"Flossmoor","IL",41.539384,-87.68424
"1459","60423",1,"Frankfort","IL",41.501178,-87.83875
"1460","60425",1,"Glenwood","IL",41.544584,-87.61289
"1461","60426",4,"Harvey","IL",41.609078,-87.66264
"1462","60428",1,"Markham","IL",41.6,-87.69
"1463","60429",1,"Hazel Crest","IL",41.574034,-87.67857
"1464","60430",1,"Homewood","IL",41.556734,-87.66464
"1465","60431",2,"Joliet","IL",41.52493,-88.19022
"1466","60432",1,"Joliet","IL",41.533631,-88.05592
"1467","60433",1,"Joliet","IL",41.511644,-88.05698
"1468","60435",1,"Joliet","IL",41.54338,-88.11963
"1469","60436",1,"Joliet","IL",41.50798,-88.10553
"1470","60438",1,"Lansing","IL",41.565685,-87.54819
"1471","60439",1,"Lemont","IL",41.676028,-87.98258
"1472","60440",1,"Bolingbrook","IL",41.703097,-88.07462
"1473","60443",1,"Matteson","IL",41.503468,-87.73695
"1474","60445",1,"Midlothian","IL",41.631683,-87.73309
"1475","60446",1,"Romeoville","IL",41.64273,-88.09934
"1476","60447",3,"Minooka","IL",41.473553,-88.29167
"1477","60449",1,"Monee","IL",41.422555,-87.75531
"1478","60450",1,"Morris","IL",41.370642,-88.40749
"1479","60451",1,"New Lenox","IL",41.509231,-87.96475
"1480","60453",1,"Oak Lawn","IL",41.715082,-87.7546
"1481","60457",1,"Hickory Hills","IL",41.723782,-87.82825
"1482","60458",1,"Justice","IL",41.746432,-87.83557
"1483","60459",1,"Burbank","IL",41.744082,-87.77022
"1484","60461",1,"Olympia Fields","IL",41.51829,-87.69274
"1485","60462",1,"Orland Park","IL",41.623532,-87.83542
"1486","60463",1,"Palos Heights","IL",41.663548,-87.79148
"1487","60465",1,"Palos Hills","IL",41.699432,-87.82977
"1488","60466",3,"Park Forest","IL",41.472934,-87.68767
"1489","60467",1,"Orland Park","IL",41.598255,-87.89201
"1490","60469",1,"Posen","IL",41.628034,-87.68694
"1491","60471",1,"Richton Park","IL",41.483844,-87.72134
"1492","60472",1,"Robbins","IL",41.642933,-87.70814
"1493","60473",1,"South Holland","IL",41.597472,-87.59909
"1494","60475",2,"Steger","IL",41.470084,-87.63369
"1495","60476",1,"Thornton","IL",41.570384,-87.60839
"1496","60477",1,"Tinley Park","IL",41.5738,-87.80389
"1497","60478",2,"Country Club Hills","IL",41.561134,-87.72398
"1498","60480",1,"Willow Springs","IL",41.737616,-87.87778
"1499","60484",2,"University Park","IL",41.44,-87.68
"1500","60487",3,"Tinley Park","IL",41.57,-87.84
"1501","60490",1,"Bolingbrook","IL",41.684752,-88.14203
"1502","60501",1,"Summit Argo","IL",41.784832,-87.81
"1503","60502",1,"Aurora","IL",41.77,-88.25
"1504","60503",3,"Aurora","IL",41.71,-88.26
"1505","60504",2,"Aurora","IL",41.760067,-88.25218
"1506","60505",1,"Aurora","IL",41.756129,-88.29699
"1507","60506",1,"Aurora","IL",41.766029,-88.35254
"1508","60510",1,"Batavia","IL",41.845228,-88.30995
"1509","60513",1,"Brookfield","IL",41.822681,-87.84753
"1510","60514",1,"Clarendon Hills","IL",41.779533,-87.95798
"1511","60515",1,"Downers Grove","IL",41.80348,-88.01827
"1512","60516",1,"Downers Grove","IL",41.761463,-88.01334
"1513","60517",2,"Woodridge","IL",41.75253,-88.04864
"1514","60518",1,"Earlville","IL",41.599139,-88.91932
"1515","60521",2,"Hinsdale","IL",41.772915,-87.92996
"1516","60523",1,"Oak Brook","IL",41.837716,-87.96041
"1517","60525",4,"La Grange","IL",41.788536,-87.87605
"1518","60526",1,"La Grange Park","IL",41.829831,-87.8704
"1519","60527",2,"Hinsdale","IL",41.839679,-88.088716
"1520","60531",1,"Leland","IL",41.620636,-88.78895
"1521","60532",1,"Lisle","IL",41.789079,-88.08536
"1522","60534",1,"Lyons","IL",41.812331,-87.82318
"1523","60538",2,"Montgomery","IL",41.721886,-88.32972
"1524","60540",1,"Naperville","IL",41.764779,-88.14579
"1525","60541",1,"Newark","IL",41.529433,-88.53552
"1526","60542",1,"North Aurora","IL",41.809387,-88.32931
"1527","60543",1,"Oswego","IL",41.684896,-88.34177
"1528","60544",1,"Plainfield","IL",41.607624,-88.19736
"1529","60545",1,"Plano","IL",41.665654,-88.53697
"1530","60546",3,"Riverside","IL",41.836131,-87.82163
"1531","60548",1,"Sandwich","IL",41.645393,-88.63052
"1532","60549",1,"Serena","IL",41.490329,-88.74998
"1533","60551",1,"Sheridan","IL",41.527585,-88.68292
"1534","60552",1,"Somonauk","IL",41.645998,-88.69
"1535","60554",1,"Sugar Grove","IL",41.779939,-88.45183
"1536","60555",1,"Warrenville","IL",41.82552,-88.19452
"1537","60558",1,"Western Springs","IL",41.805531,-87.90103
"1538","60559",1,"Westmont","IL",41.795358,-87.97778
"1539","60560",1,"Yorkville","IL",41.631342,-88.43996
"1540","60561",1,"Darien","IL",41.745623,-87.98108
"1541","60563",1,"Naperville","IL",41.794885,-88.16188
"1542","60564",2,"Naperville","IL",41.707118,-88.19634
"1543","60565",2,"Naperville","IL",41.728738,-88.12824
"1544","60585",1,"Plainfield","IL",41.66,-88.21
"1545","60586",1,"Plainfield","IL",41.61,-88.2
"1546","60605",1,"Chicago","IL",41.860019,-87.6187
"1547","60608",1,"Chicago","IL",41.850532,-87.6699
"1548","60609",1,"Chicago","IL",41.814283,-87.65282
"1549","60612",1,"Chicago","IL",41.880682,-87.6877
"1550","60613",1,"Chicago","IL",41.953256,-87.6629
"1551","60615",1,"Chicago","IL",41.801525,-87.60215
"1552","60616",1,"Chicago","IL",41.8474,-87.63126
"1553","60617",1,"Chicago","IL",41.719973,-87.5557
"1554","60618",1,"Chicago","IL",41.945681,-87.7048
"1555","60619",1,"Chicago","IL",41.744834,-87.60444
"1556","60620",1,"Chicago","IL",41.740483,-87.65282
"1557","60621",1,"Chicago","IL",41.776983,-87.6404
"1558","60622",1,"Chicago","IL",41.900332,-87.66927
"1559","60623",1,"Chicago","IL",41.850232,-87.718
"1560","60624",1,"Chicago","IL",41.879365,-87.72199
"1561","60625",1,"Chicago","IL",41.971614,-87.70256
"1562","60626",1,"Chicago","IL",42.009731,-87.66938
"1563","60628",1,"Chicago","IL",41.695434,-87.62255
"1564","60629",1,"Chicago","IL",41.777482,-87.71155
"1565","60630",2,"Chicago","IL",41.971044,-87.75869
"1566","60631",1,"Chicago","IL",41.99623,-87.81091
"1567","60632",1,"Chicago","IL",41.809299,-87.7105
"1568","60633",2,"Chicago","IL",41.655423,-87.55365
"1569","60634",1,"Chicago","IL",41.944454,-87.79654
"1570","60636",1,"Chicago","IL",41.776633,-87.66854
"1571","60637",1,"Chicago","IL",41.779384,-87.60544
"1572","60638",1,"Chicago","IL",41.787982,-87.7738
"1573","60639",1,"Chicago","IL",41.921431,-87.75415
"1574","60641",1,"Chicago","IL",41.946431,-87.74576
"1575","60642",1,"Chicago","IL",41.9,-87.65
"1576","60643",2,"Chicago","IL",41.696433,-87.65993
"1577","60644",1,"Chicago","IL",41.881331,-87.75671
"1578","60645",1,"Chicago","IL",42.008956,-87.69634
"1579","60646",1,"Chicago","IL",41.995331,-87.7601
"1580","60647",1,"Chicago","IL",41.921126,-87.70085
"1581","60649",1,"Chicago","IL",41.761734,-87.57072
"1582","60651",1,"Chicago","IL",41.901485,-87.74055
"1583","60652",1,"Chicago","IL",41.7446,-87.71188
"1584","60653",1,"Chicago","IL",41.819833,-87.61269
"1585","60655",1,"Chicago","IL",41.696283,-87.69912
"1586","60656",1,"Chicago","IL",41.97508,-87.8163
"1587","60659",1,"Chicago","IL",41.991381,-87.70378
"1588","60678",1,"Chicago","IL",41.811929,-87.68732
"1589","60706",2,"Harwood Heights","IL",41.96418,-87.81686
"1590","60707",2,"Elmwood Park","IL",41.922681,-87.80805
"1591","60712",1,"Lincolnwood","IL",42.005331,-87.73545
"1592","60714",1,"Niles","IL",42.032379,-87.81563
"1593","60803",1,"Alsip","IL",41.675861,-87.73189
"1594","60804",1,"Cicero","IL",41.844382,-87.7599
"1595","60805",1,"Evergreen Park","IL",41.719933,-87.70249
"1596","60827",3,"Riverdale","IL",41.649717,-87.63292
"1597","61019",1,"Davis","IL",42.440374,-89.40925
"1598","61080",1,"South Beloit","IL",42.484835,-89.02756
"1599","61081",1,"Sterling","IL",41.813776,-89.70537
"1600","61102",1,"Rockford","IL",42.25517,-89.1297
"1601","61103",1,"Rockford","IL",42.303365,-89.08246
"1602","61107",1,"Rockford","IL",42.280019,-89.03347
"1603","61109",1,"Rockford","IL",42.213439,-89.05595
"1604","61111",1,"Loves Park","IL",42.326227,-89.02573
"1605","61114",1,"Rockford","IL",42.306666,-89.00839
"1606","61115",1,"Machesney Park","IL",42.352539,-89.04186
"1607","61201",1,"Rock Island","IL",41.4903,-90.56956
"1608","61235",1,"Atkinson","IL",41.409646,-90.01821
"1609","61236",1,"Barstow","IL",41.518317,-90.35597
"1610","61238",1,"Cambridge","IL",41.286797,-90.17486
"1611","61244",1,"East Moline","IL",41.518733,-90.41788
"1612","61254",1,"Geneseo","IL",41.464473,-90.15854
"1613","61259",1,"Illinois City","IL",41.369036,-90.9284
"1614","61264",1,"Milan","IL",41.426583,-90.57639
"1615","61265",1,"Moline","IL",41.490333,-90.50006
"1616","61270",1,"Morrison","IL",41.819003,-89.96623
"1617","61275",1,"Port Byron","IL",41.599642,-90.31978
"1618","61282",1,"Silvis","IL",41.501234,-90.41404
"1619","61284",1,"Taylor Ridge","IL",41.406276,-90.735
"1620","61311",1,"Ancona","IL",41.042878,-88.86268
"1621","61316",1,"Cedar Point","IL",41.261853,-89.12523
"1622","61317",1,"Cherry","IL",41.4276,-89.21243
"1623","61320",1,"Dalzell","IL",41.350864,-89.17366
"1624","61323",1,"Dover","IL",41.435327,-89.39583
"1625","61326",1,"Granville","IL",41.264159,-89.23655
"1626","61329",1,"Ladd","IL",41.380259,-89.21239
"1627","61330",1,"La Moille","IL",41.53364,-89.27691
"1628","61333",1,"Long Point","IL",40.990965,-88.88278
"1629","61334",1,"Lostant","IL",41.144329,-89.08815
"1630","61341",1,"Marseilles","IL",41.336202,-88.69727
"1631","61342",1,"Mendota","IL",41.543149,-89.10696
"1632","61345",1,"Neponset","IL",41.280262,-89.79442
"1633","61348",1,"Oglesby","IL",41.292401,-89.05943
"1634","61350",1,"Ottawa","IL",41.35263,-88.84734
"1635","61354",1,"Peru","IL",41.330789,-89.1299
"1636","61356",1,"Princeton","IL",41.372528,-89.44315
"1637","61359",1,"Seatonville","IL",41.363772,-89.26975
"1638","61360",1,"Seneca","IL",41.320345,-88.61017
"1639","61363",1,"Standard","IL",41.25645,-89.17901
"1640","61364",1,"Streator","IL",41.129482,-88.83666
"1641","61368",1,"Tiskilwa","IL",41.279825,-89.50492
"1642","61369",1,"Toluca","IL",40.992084,-89.15231
"1643","61373",1,"Utica","IL",41.37061,-89.0149
"1644","61377",1,"Wenona","IL",41.057649,-89.04788
"1645","61379",1,"Wyanet","IL",41.369056,-89.60321
"1646","61401",1,"Galesburg","IL",40.948073,-90.36871
"1647","61410",1,"Abingdon","IL",40.802633,-90.39766
"1648","61411",1,"Adair","IL",40.401282,-90.50153
"1649","61421",1,"Bradford","IL",41.174037,-89.65849
"1650","61422",1,"Bushnell","IL",40.550883,-90.51766
"1651","61425",1,"Carman","IL",40.778519,-91.05902
"1652","61427",1,"Cuba","IL",40.499297,-90.17764
"1653","61428",1,"Dahinda","IL",40.952695,-90.12141
"1654","61430",1,"East Galesburg","IL",40.94399,-90.31205
"1655","61432",1,"Fairview","IL",40.642927,-90.17174
"1656","61434",1,"Galva","IL",41.172197,-90.03901
"1657","61435",1,"Gerlaw","IL",40.972589,-90.54835
"1658","61436",1,"Gilson","IL",40.859964,-90.22212
"1659","61437",1,"Gladstone","IL",40.854247,-90.96542
"1660","61438",1,"Good Hope","IL",40.579737,-90.64691
"1661","61448",1,"Knoxville","IL",40.910079,-90.27171
"1662","61455",1,"Macomb","IL",40.456986,-90.6681
"1663","61462",1,"Monmouth","IL",40.918849,-90.64466
"1664","61470",1,"Prairie City","IL",40.614899,-90.47345
"1665","61482",1,"Table Grove","IL",40.368358,-90.42469
"1666","61485",1,"Victoria","IL",41.025484,-90.08422
"1667","61489",1,"Williamsfield","IL",40.929497,-90.01888
"1668","61490",1,"Woodhull","IL",41.183299,-90.27637
"1669","61491",1,"Wyoming","IL",41.068691,-89.76033
"1670","61517",1,"Brimfield","IL",40.816162,-89.84131
"1671","61520",2,"Canton","IL",40.552853,-90.02794
"1672","61523",1,"Chillicothe","IL",40.914377,-89.50654
"1673","61525",1,"Dunlap","IL",40.849036,-89.65554
"1674","61528",1,"Edwards","IL",40.776845,-89.7401
"1675","61529",1,"Elmwood","IL",40.780415,-89.95565
"1676","61531",1,"Farmington","IL",40.68847,-90.02166
"1677","61533",1,"Glasford","IL",40.577778,-89.8297
"1678","61540",1,"Lacon","IL",41.030697,-89.38586
"1679","61541",1,"La Rose","IL",40.975736,-89.23943
"1680","61543",1,"Liverpool","IL",40.392048,-89.99885
"1681","61544",1,"London Mills","IL",40.688615,-90.24422
"1682","61545",1,"Lowpoint","IL",40.873236,-89.37082
"1683","61548",1,"Metamora","IL",40.784412,-89.40841
"1684","61550",1,"Morton","IL",40.613788,-89.46031
"1685","61552",1,"Mossville","IL",40.817587,-89.56654
"1686","61554",2,"Pekin","IL",40.567088,-89.63382
"1687","61559",1,"Princeville","IL",40.935608,-89.76802
"1688","61561",1,"Roanoke","IL",40.795911,-89.19419
"1689","61562",1,"Rome","IL",40.874269,-89.506695
"1690","61565",1,"Sparland","IL",41.036199,-89.48336
"1691","61570",1,"Washburn","IL",40.920631,-89.29547
"1692","61571",1,"Washington","IL",40.701037,-89.44294
"1693","61603",1,"Peoria","IL",40.712887,-89.57904
"1694","61604",2,"Peoria","IL",40.709237,-89.63633
"1695","61605",1,"Peoria","IL",40.678037,-89.62737
"1696","61607",1,"Peoria","IL",40.642049,-89.67147
"1697","61610",1,"Creve Coeur","IL",40.643846,-89.59908
"1698","61611",3,"East Peoria","IL",40.683387,-89.54493
"1699","61614",1,"Peoria","IL",40.755343,-89.59799
"1700","61615",1,"Peoria","IL",40.764368,-89.6448
"1701","61616",1,"Peoria","IL",40.743266,-89.576628
"1702","61755",1,"Mackinaw","IL",40.533634,-89.34345
"1703","61759",1,"Minier","IL",40.431577,-89.32013
"1704","61760",1,"Minonk","IL",40.893593,-89.03266
"1705","61956",1,"Villa Grove","IL",39.858506,-88.15018
"1706","62013",1,"Brussels","IL",38.968323,-90.58121
"1707","62047",1,"Hardin","IL",39.128014,-90.6159
"1708","62326",1,"Colchester","IL",40.421857,-90.80333
"1709","62367",2,"Plymouth","IL",40.304799,-90.88699
"1710","62451",1,"Palestine","IL",39.006924,-87.6117
"1711","62454",1,"Robinson","IL",39.004728,-87.7495
"1712","62617",1,"Bath","IL",40.167991,-90.16313
"1713","62644",1,"Havana","IL",40.296415,-90.05163
"1714","62681",1,"Rushville","IL",40.134957,-90.55222
"1715","63020",1,"De Soto","MO",38.120303,-90.55426
"1716","63033",1,"Florissant","MO",38.79505,-90.28578
"1717","63034",1,"Florissant","MO",38.832863,-90.29051
"1718","63077",1,"Saint Clair","MO",38.336093,-90.98902
"1719","63130",1,"Saint Louis","MO",38.663951,-90.32348
"1720","63135",1,"Saint Louis","MO",38.74785,-90.30258
"1721","63138",1,"Saint Louis","MO",38.787849,-90.21041
"1722","63301",1,"Saint Charles","MO",38.808583,-90.50687
"1723","63303",1,"Saint Charles","MO",38.762715,-90.53903
"1724","63304",2,"Saint Charles","MO",38.72926,-90.65332
"1725","63373",1,"Portage Des Sioux","MO",38.935496,-90.3683
"1726","71047",1,"Keithville","LA",32.309864,-93.87089
"1727","71052",1,"Mansfield","LA",32.031067,-93.68585
"1728","71078",1,"Stonewall","LA",32.278422,-93.79469
"1729","73003",1,"Edmond","OK",35.681402,-97.5331
"1730","73008",1,"Bethany","OK",35.506456,-97.63934
"1731","73010",1,"Blanchard","OK",35.118392,-97.66381
"1732","73013",1,"Edmond","OK",35.623805,-97.47909
"1733","73020",1,"Choctaw","OK",35.465363,-97.26645
"1734","73026",1,"Norman","OK",35.22704,-97.28198
"1735","73036",1,"El Reno","OK",35.519046,-97.95534
"1736","73045",1,"Harrah","OK",35.491184,-97.16132
"1737","73049",1,"Jones","OK",35.572909,-97.29596
"1738","73051",1,"Lexington","OK",35.039068,-97.29276
"1739","73054",2,"Luther","OK",35.662619,-97.18976
"1740","73064",1,"Mustang","OK",35.388059,-97.73626
"1741","73065",1,"Newcastle","OK",35.240232,-97.60908
"1742","73068",1,"Noble","OK",35.138421,-97.32689
"1743","73069",2,"Norman","OK",35.228649,-97.45629
"1744","73072",1,"Norman","OK",35.212681,-97.48672
"1745","73084",1,"Spencer","OK",35.52106,-97.34173
"1746","73090",1,"Union City","OK",35.394725,-97.93552
"1747","73099",1,"Yukon","OK",35.506204,-97.74814
"1748","73102",1,"Oklahoma City","OK",35.47156,-97.52036
"1749","73104",1,"Oklahoma City","OK",35.47596,-97.50586
"1750","73105",1,"Oklahoma City","OK",35.509659,-97.50211
"1751","73106",1,"Oklahoma City","OK",35.482309,-97.53499
"1752","73107",1,"Oklahoma City","OK",35.484558,-97.57336
"1753","73108",1,"Oklahoma City","OK",35.447126,-97.55824
"1754","73109",1,"Oklahoma City","OK",35.43366,-97.52496
"1755","73110",2,"Oklahoma City","OK",35.459478,-97.39721
"1756","73111",1,"Oklahoma City","OK",35.504109,-97.47889
"1757","73112",1,"Oklahoma City","OK",35.517857,-97.57284
"1758","73114",1,"Oklahoma City","OK",35.568806,-97.52544
"1759","73115",1,"Oklahoma City","OK",35.440311,-97.44201
"1760","73116",1,"Oklahoma City","OK",35.544864,-97.55637
"1761","73117",1,"Oklahoma City","OK",35.476457,-97.47411
"1762","73118",1,"Oklahoma City","OK",35.515008,-97.53106
"1763","73119",2,"Oklahoma City","OK",35.42306,-97.56051
"1764","73120",1,"Oklahoma City","OK",35.579488,-97.56496
"1765","73121",1,"Oklahoma City","OK",35.50356,-97.44693
"1766","73122",1,"Oklahoma City","OK",35.520506,-97.6133
"1767","73127",1,"Oklahoma City","OK",35.481507,-97.6423
"1768","73128",2,"Oklahoma City","OK",35.441759,-97.62721
"1769","73129",1,"Oklahoma City","OK",35.431361,-97.49267
"1770","73130",1,"Oklahoma City","OK",35.459512,-97.35183
"1771","73132",2,"Oklahoma City","OK",35.552755,-97.63571
"1772","73134",1,"Oklahoma City","OK",35.612359,-97.57152
"1773","73135",1,"Oklahoma City","OK",35.40017,-97.43249
"1774","73139",2,"Oklahoma City","OK",35.388461,-97.52713
"1775","73141",1,"Oklahoma City","OK",35.498461,-97.39314
"1776","73149",1,"Oklahoma City","OK",35.395362,-97.49701
"1777","73150",1,"Oklahoma City","OK",35.407113,-97.33996
"1778","73151",1,"Oklahoma City","OK",35.568867,-97.4055
"1779","73159",2,"Oklahoma City","OK",35.386411,-97.55731
"1780","73160",2,"Oklahoma City","OK",35.34377,-97.48596
"1781","73162",1,"Oklahoma City","OK",35.579254,-97.63765
"1782","73165",2,"Oklahoma City","OK",35.338689,-97.36747
"1783","73169",2,"Oklahoma City","OK",35.388023,-97.64135
"1784","73170",3,"Oklahoma City","OK",35.338716,-97.53569
"1785","73173",1,"Oklahoma City","OK",35.355645,-97.64479
"1786","73179",2,"Oklahoma City","OK",35.416826,-97.62787
"1787","74032",1,"Glencoe","OK",36.214419,-96.91672
"1788","74044",1,"Mannford","OK",36.111943,-96.37159
"1789","74431",1,"Dewar","OK",35.458946,-95.94597
"1790","74437",1,"Henryetta","OK",35.447961,-95.95038
"1791","74801",1,"Shawnee","OK",35.327341,-96.93544
"1792","74804",1,"Shawnee","OK",35.375188,-96.93162
"1793","74824",1,"Agra","OK",35.883914,-96.86735
"1794","74826",1,"Asher","OK",35.012407,-96.91873
"1795","74832",1,"Carney","OK",35.815581,-97.01061
"1796","74851",3,"Mcloud","OK",35.4122,-97.0984
"1797","74857",1,"Newalla","OK",35.351612,-97.19507
"1798","74859",1,"Okemah","OK",35.44116,-96.30798
"1799","74864",1,"Prague","OK",35.490727,-96.69141
"1800","74875",1,"Tryon","OK",35.876736,-96.95179
"1801","74880",1,"Weleetka","OK",35.369606,-96.13412
"1802","74881",1,"Wellston","OK",35.694734,-97.07043
"1803","74932",1,"Cameron","OK",35.138765,-94.54108
"1804","74937",1,"Heavener","OK",34.866897,-94.58622
"1805","75219",1,"Dallas","TX",32.812462,-96.81412
"1806","76031",1,"Cleburne","TX",32.343115,-97.40081
"1807","76033",1,"Cleburne","TX",32.350907,-97.410254
"1808","76035",1,"Cresson","TX",32.546387,-97.64633
"1809","76044",1,"Godley","TX",32.442679,-97.52595
"1810","76049",1,"Granbury","TX",32.440376,-97.72002
"1811","76645",1,"Hillsboro","TX",32.015496,-97.12263
"1812","76691",1,"West","TX",31.783019,-97.07945
"1813","78201",1,"San Antonio","TX",29.466781,-98.52519
"1814","78207",1,"San Antonio","TX",29.423932,-98.5235
"1815","78211",1,"San Antonio","TX",29.362185,-98.54644
"1816","78212",1,"San Antonio","TX",29.460381,-98.49649
"1817","78213",2,"San Antonio","TX",29.510562,-98.52203
"1818","78214",1,"San Antonio","TX",29.363335,-98.49049
"1819","78216",1,"San Antonio","TX",29.528515,-98.49219
"1820","78227",1,"San Antonio","TX",29.405424,-98.63832
"1821","78228",1,"San Antonio","TX",29.457281,-98.5665
"1822","78229",1,"San Antonio","TX",29.499454,-98.57166
"1823","78232",2,"San Antonio","TX",29.584698,-98.46987
"1824","78240",1,"San Antonio","TX",29.518413,-98.60869
"1825","78242",1,"San Antonio","TX",29.353735,-98.61423
"1826","78252",1,"San Antonio","TX",29.335577,-98.70173
"1827","78852",1,"Eagle Pass","TX",28.716242,-100.48058
"1828","78853",1,"Eagle Pass","TX",28.679006,-100.478373
"1829","80002",1,"Arvada","CO",39.795006,-105.0981
"1830","80003",1,"Arvada","CO",39.825357,-105.06439
"1831","80004",1,"Arvada","CO",39.81431,-105.12263
"1832","80005",1,"Arvada","CO",39.843304,-105.11896
"1833","80007",1,"Arvada","CO",39.833442,-105.18591
"1834","80010",2,"Aurora","CO",39.739387,-104.8621
"1835","80011",2,"Aurora","CO",39.739737,-104.80905
"1836","80012",1,"Aurora","CO",39.698387,-104.83956
"1837","80013",1,"Aurora","CO",39.659105,-104.7791
"1838","80014",1,"Aurora","CO",39.665637,-104.83421
"1839","80015",2,"Aurora","CO",39.623896,-104.77723
"1840","80017",1,"Aurora","CO",39.695269,-104.78439
"1841","80018",1,"Aurora","CO",39.689244,-104.7166
"1842","80019",1,"Aurora","CO",39.784036,-104.72289
"1843","80021",3,"Broomfield","CO",39.881608,-105.09953
"1844","80022",1,"Commerce City","CO",39.836586,-104.9039
"1845","80023",1,"Broomfield","CO",39.96,-105.02
"1846","80025",1,"Eldorado Springs","CO",39.92926,-105.28863
"1847","80026",1,"Lafayette","CO",40.002156,-105.10036
"1848","80027",2,"Louisville","CO",39.963322,-105.15053
"1849","80030",1,"Westminster","CO",39.830936,-105.03736
"1850","80031",1,"Westminster","CO",39.866785,-105.04143
"1851","80102",1,"Bennett","CO",39.760573,-104.431
"1852","80111",2,"Englewood","CO",39.610431,-104.88139
"1853","80120",1,"Littleton","CO",39.599687,-105.00658
"1854","80121",1,"Littleton","CO",39.607386,-104.95805
"1855","80123",1,"Littleton","CO",39.616114,-105.07393
"1856","80132",1,"Monument","CO",39.098692,-104.8684
"1857","80215",2,"Denver","CO",39.744437,-105.10441
"1858","80221",1,"Denver","CO",39.816536,-105.01123
"1859","80226",1,"Denver","CO",39.71222,-105.08918
"1860","80229",2,"Denver","CO",39.859585,-104.95943
"1861","80233",2,"Denver","CO",39.903043,-104.9544
"1862","80234",1,"Denver","CO",39.9091,-105.00829
"1863","80239",1,"Denver","CO",39.788236,-104.83034
"1864","80241",1,"Denver","CO",39.929566,-104.94931
"1865","80247",1,"Denver","CO",39.693573,-104.876649
"1866","80260",2,"Denver","CO",39.868635,-105.00805
"1867","80301",1,"Boulder","CO",40.044385,-105.21928
"1868","80302",2,"Boulder","CO",40.020885,-105.29673
"1869","80303",1,"Boulder","CO",39.989135,-105.22883
"1870","80304",1,"Boulder","CO",40.039784,-105.27938
"1871","80305",1,"Boulder","CO",39.979691,-105.252586
"1872","80308",1,"Boulder","CO",40.027672,-105.3868
"1873","80309",1,"Boulder","CO",40.087835,-105.373507
"1874","80401",1,"Golden","CO",39.735745,-105.19337
"1875","80403",3,"Golden","CO",39.827903,-105.32256
"1876","80439",2,"Evergreen","CO",39.642572,-105.36812
"1877","80452",1,"Idaho Springs","CO",39.737369,-105.56054
"1878","80453",1,"Idledale","CO",39.668426,-105.244245
"1879","80455",1,"Jamestown","CO",40.094785,-105.39844
"1880","80457",1,"Kittredge","CO",39.653899,-105.30102
"1881","80466",1,"Nederland","CO",39.964486,-105.50805
"1882","80481",1,"Ward","CO",40.10613,-105.48044
"1883","80501",1,"Longmont","CO",40.171484,-105.10033
"1884","80503",3,"Longmont","CO",40.156035,-105.17365
"1885","80504",4,"Longmont","CO",40.160138,-105.01772
"1886","80510",1,"Allenspark","CO",40.223935,-105.52421
"1887","80512",1,"Bellvue","CO",40.700258,-105.64876
"1888","80513",3,"Berthoud","CO",40.294423,-105.08431
"1889","80514",1,"Dacono","CO",40.083475,-104.93581
"1890","80515",1,"Drake","CO",40.412496,-105.41818
"1891","80516",2,"Erie","CO",40.051051,-105.02767
"1892","80517",1,"Estes Park","CO",40.370415,-105.51722
"1893","80520",1,"Firestone","CO",40.115501,-104.93637
"1894","80521",1,"Fort Collins","CO",40.586282,-105.10494
"1895","80524",1,"Fort Collins","CO",40.606962,-105.05106
"1896","80526",1,"Fort Collins","CO",40.539432,-105.11576
"1897","80528",1,"Fort Collins","CO",40.502779,-105.01123
"1898","80530",1,"Frederick","CO",40.104211,-104.93576
"1899","80532",1,"Glen Haven","CO",40.497758,-105.43325
"1900","80533",1,"Hygiene","CO",40.181515,-105.232695
"1901","80534",3,"Johnstown","CO",40.335398,-104.91477
"1902","80535",1,"Laporte","CO",40.67069,-105.17388
"1903","80536",1,"Livermore","CO",40.878334,-105.40415
"1904","80537",1,"Loveland","CO",40.383636,-105.10349
"1905","80538",1,"Loveland","CO",40.435645,-105.08726
"1906","80540",3,"Lyons","CO",40.253033,-105.33762
"1907","80543",1,"Milliken","CO",40.332926,-104.85394
"1908","80545",1,"Red Feather Lakes","CO",40.824993,-105.63525
"1909","80602",2,"Thornton","CO",39.958987,-104.908921
"1910","80603",1,"Lochbuie","CO",39.943831,-104.629665
"1911","80615",1,"Eaton","CO",40.529241,-104.71181
"1912","80620",1,"Evans","CO",40.378019,-104.70357
"1913","80621",1,"Fort Lupton","CO",40.090367,-104.79723
"1914","80631",1,"Greeley","CO",40.421845,-104.69175
"1915","80634",1,"Greeley","CO",40.407853,-104.75498
"1916","80640",1,"Henderson","CO",39.885202,-104.88339
"1917","80644",1,"Kersey","CO",40.363777,-104.51964
"1918","80645",2,"La Salle","CO",40.332131,-104.68704
"1919","80651",1,"Platteville","CO",40.228533,-104.84267
"1920","80653",1,"Weldona","CO",40.36593,-104.00612
"1921","80654",1,"Wiggins","CO",40.196296,-104.07361
"1922","80722",1,"Atwood","CO",40.53158,-103.26151
"1923","80736",1,"Iliff","CO",40.798956,-103.04649
"1924","80751",1,"Sterling","CO",40.633845,-103.21574
"1925","80809",1,"Cascade","CO",38.911701,-104.98731
"1926","80817",1,"Fountain","CO",38.674013,-104.69627
"1927","80819",1,"Green Mountain Falls","CO",38.940813,-105.01363
"1928","80829",3,"Manitou Springs","CO",38.853663,-104.93485
"1929","80831",1,"Peyton","CO",38.96634,-104.54313
"1930","80904",1,"Colorado Springs","CO",38.850558,-104.86481
"1931","80905",1,"Colorado Springs","CO",38.837542,-104.83632
"1932","80906",1,"Colorado Springs","CO",38.791242,-104.82492
"1933","80908",4,"Colorado Springs","CO",39.035216,-104.69575
"1934","80909",2,"Colorado Springs","CO",38.851493,-104.77856
"1935","80910",1,"Colorado Springs","CO",38.813044,-104.77158
"1936","80917",1,"Colorado Springs","CO",38.888394,-104.73975
"1937","80918",1,"Colorado Springs","CO",38.916226,-104.76602
"1938","80919",1,"Colorado Springs","CO",38.925451,-104.85255
"1939","80920",1,"Colorado Springs","CO",38.952366,-104.76701
"1940","80921",2,"Colorado Springs","CO",39.044969,-104.83755
"1941","80923",1,"Colorado Springs","CO",38.86,-104.76
"1942","80926",1,"Colorado Springs","CO",38.652352,-104.87298
"1943","80930",1,"Colorado Springs","CO",38.811434,-104.50403
"1944","81212",1,"Canon City","CO",38.464212,-105.27973
"1945","81226",1,"Florence","CO",38.387091,-105.1226
"1946","84765",1,"Santa Clara","UT",37.136937,-113.64916
"1947","85362",1,"Yarnell","AZ",34.286193,-112.69667
"1948","92220",1,"Banning","CA",33.920803,-116.87897
"1949","93532",1,"Lake Hughes","CA",34.676708,-118.45592
"1950","96007",1,"Anderson","CA",40.45453,-122.31101
"1951","96047",1,"Igo","CA",40.472993,-122.63707
"1952","97643",1,NA,NA,NA,NA
"1953","99515",1,"Anchorage","AK",61.122943,-149.88852
"1954","99554",1,"Alakanuk","AK",62.683391,-164.65455
"1955","99556",2,"Anchor Point","AK",59.798363,-151.73566
"1956","99623",1,"Wasilla","AK",61.61,-149.58
"1957","99645",1,"Palmer","AK",61.598203,-149.04109
"1958","99654",2,"Wasilla","AK",61.580187,-149.48821
"1959","99661",1,"Sand Point","AK",55.311735,-160.48813
"1960","99664",2,"Seward","AK",60.151652,-149.41271
"1961","99669",1,"Soldotna","AK",60.489536,-151.02091
"1962","99676",1,"Talkeetna","AK",62.298254,-149.87542
"1963","99688",1,"Willow","AK",61.796774,-150.07792
"1964","99733",2,"Circle","AK",65.796306,-144.06388
"1965","99738",2,"Eagle","AK",64.778099,-141.19257
"1966","99741",2,"Galena","AK",64.739082,-156.89456
"1967","99780",1,"Tok","AK",63.341767,-142.93704
"1968","99999",1,NA,NA,NA,NA
